HIERARCHY
ROOT Hips
{
	OFFSET 0.000000 0.300000 0.000000
	CHANNELS 6 Xposition Yposition Zposition Xrotation Yrotation Zrotation
	JOINT Spine
	{
		OFFSET 0.000000 0.080000 0.000000
		CHANNELS 3 Xrotation Yrotation Zrotation
		JOINT Spine1
		{
			OFFSET 0.000000 0.060000 0.000000
			CHANNELS 3 Xrotation Yrotation Zrotation
			JOINT Spine2
			{
				OFFSET 0.000000 0.050000 0.000000
				CHANNELS 3 Xrotation Yrotation Zrotation
				JOINT Neck
				{
					OFFSET 0.000000 0.040000 0.000000
					CHANNELS 3 Xrotation Yrotation Zrotation
					JOINT Head
					{
						OFFSET 0.000000 0.060000 0.000000
						CHANNELS 3 Xrotation Yrotation Zrotation
						End Site
						{
							OFFSET 0.000000 0.030000 0.000000
						}
					}
				}
				JOINT LeftShoulder
				{
					OFFSET 0.050000 0.020000 0.000000
					CHANNELS 3 Xrotation Yrotation Zrotation
					JOINT LeftArm
					{
						OFFSET 0.060000 0.000000 0.000000
						CHANNELS 3 Xrotation Yrotation Zrotation
						JOINT LeftForeArm
						{
							OFFSET 0.070000 0.000000 0.000000
							CHANNELS 3 Xrotation Yrotation Zrotation
							JOINT LeftHand
							{
								OFFSET 0.050000 0.000000 0.000000
								CHANNELS 3 Xrotation Yrotation Zrotation
								End Site
								{
									OFFSET 0.020000 0.000000 0.000000
								}
							}
						}
					}
				}
				JOINT RightShoulder
				{
					OFFSET -0.050000 0.020000 0.000000
					CHANNELS 3 Xrotation Yrotation Zrotation
					JOINT RightArm
					{
						OFFSET -0.060000 0.000000 0.000000
						CHANNELS 3 Xrotation Yrotation Zrotation
						JOINT RightForeArm
						{
							OFFSET -0.070000 0.000000 0.000000
							CHANNELS 3 Xrotation Yrotation Zrotation
							JOINT RightHand
							{
								OFFSET -0.050000 0.000000 0.000000
								CHANNELS 3 Xrotation Yrotation Zrotation
								End Site
								{
									OFFSET -0.020000 0.000000 0.000000
								}
							}
						}
					}
				}
			}
		}
	}
	JOINT LeftHip
	{
		OFFSET 0.040000 -0.020000 0.000000
		CHANNELS 3 Xrotation Yrotation Zrotation
		JOINT LeftLeg
		{
			OFFSET 0.000000 -0.120000 0.000000
			CHANNELS 3 Xrotation Yrotation Zrotation
			JOINT LeftFoot
			{
				OFFSET 0.000000 -0.120000 0.000000
				CHANNELS 3 Xrotation Yrotation Zrotation
				JOINT LeftToe
				{
					OFFSET 0.000000 0.000000 0.040000
					CHANNELS 3 Xrotation Yrotation Zrotation
					End Site
					{
						OFFSET 0.000000 0.000000 0.020000
					}
				}
			}
		}
	}
	JOINT RightHip
	{
		OFFSET -0.040000 -0.020000 0.000000
		CHANNELS 3 Xrotation Yrotation Zrotation
		JOINT RightLeg
		{
			OFFSET 0.000000 -0.120000 0.000000
			CHANNELS 3 Xrotation Yrotation Zrotation
			JOINT RightFoot
			{
				OFFSET 0.000000 -0.120000 0.000000
				CHANNELS 3 Xrotation Yrotation Zrotation
				JOINT RightToe
				{
					OFFSET 0.000000 0.000000 0.040000
					CHANNELS 3 Xrotation Yrotation Zrotation
					End Site
					{
						OFFSET 0.000000 0.000000 0.020000
					}
				}
			}
		}
	}
	JOINT Tail
	{
		OFFSET 0.000000 -0.010000 -0.050000
		CHANNELS 3 Xrotation Yrotation Zrotation
		JOINT Tail1
		{
			OFFSET 0.000000 -0.010000 -0.040000
			CHANNELS 3 Xrotation Yrotation Zrotation
			JOINT Tail2
			{
				OFFSET 0.000000 -0.010000 -0.040000
				CHANNELS 3 Xrotation Yrotation Zrotation
				JOINT Tail3
				{
					OFFSET 0.000000 -0.010000 -0.040000
					CHANNELS 3 Xrotation Yrotation Zrotation
					End Site
					{
						OFFSET 0.000000 0.000000 -0.030000
					}
				}
			}
		}
	}
}
MOTION
Frames: 120
Frame Time: 0.016667
0.000000 29.997000 -50.000000 0.000000 0.000000 0.000000 -0.030000 0.000000 0.000000 0.000000 0.000000 0.000000 0.000000 0.000000 0.000000 0.000000 0.000000 0.000000 0.000000 -0.049999 0.000000 0.000000 0.000000 0.000000 -0.249996 0.000000 0.000000 0.000000 0.000000 0.000000 0.000000 0.000000 0.000000 0.000000 0.000000 0.000000 0.249996 0.000000 0.000000 0.000000 0.000000 0.000000 0.000000 0.000000 0.000000 0.000000 0.000000 0.000000 -0.299995 0.000000 0.000000 -0.449993 0.000000 0.000000 0.000000 0.000000 0.000000 0.000000 0.000000 0.000000 0.299995 0.000000 0.000000 -0.449993 0.000000 0.000000 0.000000 0.000000 0.000000 0.000000 -0.099998 0.000000 0.000000 2.859522 0.000000 0.000000 5.563610 0.000000 0.000000 7.770717 0.000000
0.000000 30.028373 -49.166667 0.000000 0.000000 0.000000 0.283735 0.000000 0.000000 0.000000 0.000000 0.000000 0.000000 0.000000 0.000000 0.000000 0.000000 0.000000 0.000000 0.472891 0.000000 0.000000 0.000000 0.000000 1.058680 0.000000 0.000000 0.000000 0.000000 0.000000 0.000000 0.000000 0.000000 0.000000 0.000000 0.000000 -1.058680 0.000000 0.000000 0.000000 0.000000 0.000000 0.000000 0.000000 0.000000 0.000000 0.000000 0.000000 1.270416 0.000000 0.000000 -1.905624 0.000000 0.000000 0.000000 0.000000 0.000000 0.000000 0.000000 0.000000 -1.270416 0.000000 0.000000 -1.905624 0.000000 0.000000 0.000000 0.000000 0.000000 0.000000 1.465499 0.000000 0.000000 4.323340 0.000000 0.000000 6.794991 0.000000 0.000000 8.659664 0.000000
0.000000 30.059436 -48.333333 0.000000 0.000000 0.000000 0.594360 0.000000 0.000000 0.000000 0.000000 0.000000 0.000000 0.000000 0.000000 0.000000 0.000000 0.000000 0.000000 0.990600 0.000000 0.000000 0.000000 0.000000 2.364455 0.000000 0.000000 0.000000 0.000000 0.000000 0.000000 0.000000 0.000000 0.000000 0.000000 0.000000 -2.364455 0.000000 0.000000 0.000000 0.000000 0.000000 0.000000 0.000000 0.000000 0.000000 0.000000 0.000000 2.837346 0.000000 0.000000 -4.256018 0.000000 0.000000 0.000000 0.000000 0.000000 0.000000 0.000000 0.000000 -2.837346 0.000000 0.000000 -4.256018 0.000000 0.000000 0.000000 0.000000 0.000000 0.000000 2.994911 0.000000 0.000000 5.680704 0.000000 0.000000 7.859056 0.000000 0.000000 9.335382 0.000000
0.000000 30.089847 -47.500000 0.000000 0.000000 0.000000 0.898473 0.000000 0.000000 0.000000 0.000000 0.000000 0.000000 0.000000 0.000000 0.000000 0.000000 0.000000 0.000000 1.497456 0.000000 0.000000 0.000000 0.000000 3.663748 0.000000 0.000000 0.000000 0.000000 0.000000 0.000000 0.000000 0.000000 0.000000 0.000000 0.000000 -3.663748 0.000000 0.000000 0.000000 0.000000 0.000000 0.000000 0.000000 0.000000 0.000000 0.000000 0.000000 4.396498 0.000000 0.000000 -6.594747 0.000000 0.000000 0.000000 0.000000 0.000000 0.000000 0.000000 0.000000 -4.396498 0.000000 0.000000 -6.594747 0.000000 0.000000 0.000000 0.000000 0.000000 0.000000 4.450579 0.000000 0.000000 6.898189 0.000000 0.000000 8.729605 0.000000 0.000000 9.781231 0.000000
0.000000 30.119274 -46.666667 0.000000 0.000000 0.000000 1.192743 0.000000 0.000000 0.000000 0.000000 0.000000 0.000000 0.000000 0.000000 0.000000 0.000000 0.000000 0.000000 1.987905 0.000000 0.000000 0.000000 0.000000 4.953000 0.000000 0.000000 0.000000 0.000000 0.000000 0.000000 0.000000 0.000000 0.000000 0.000000 0.000000 -4.953000 0.000000 0.000000 0.000000 0.000000 0.000000 0.000000 0.000000 0.000000 0.000000 0.000000 0.000000 5.943599 0.000000 0.000000 -8.915399 0.000000 0.000000 0.000000 0.000000 0.000000 0.000000 0.000000 0.000000 -5.943599 0.000000 0.000000 -8.915399 0.000000 0.000000 0.000000 0.000000 0.000000 0.000000 5.796658 0.000000 0.000000 7.945818 0.000000 0.000000 9.385202 0.000000 0.000000 9.986234 0.000000
0.000000 30.147394 -45.833333 0.000000 0.000000 0.000000 1.473945 0.000000 0.000000 0.000000 0.000000 0.000000 0.000000 0.000000 0.000000 0.000000 0.000000 0.000000 0.000000 2.456574 0.000000 0.000000 0.000000 0.000000 6.228675 0.000000 0.000000 0.000000 0.000000 0.000000 0.000000 0.000000 0.000000 0.000000 0.000000 0.000000 -6.228675 0.000000 0.000000 0.000000 0.000000 0.000000 0.000000 0.000000 0.000000 0.000000 0.000000 0.000000 7.474410 0.000000 0.000000 -11.211615 0.000000 0.000000 0.000000 0.000000 0.000000 0.000000 0.000000 0.000000 -7.474410 0.000000 0.000000 -11.211615 0.000000 0.000000 0.000000 0.000000 0.000000 0.000000 7.000005 0.000000 0.000000 8.797795 0.000000 0.000000 9.809704 0.000000 0.000000 9.945342 0.000000
0.000000 30.173900 -45.000000 0.000000 0.000000 0.000000 1.738997 0.000000 0.000000 0.000000 0.000000 0.000000 0.000000 0.000000 0.000000 0.000000 0.000000 0.000000 0.000000 2.898329 0.000000 0.000000 0.000000 0.000000 7.487278 0.000000 0.000000 0.000000 0.000000 0.000000 0.000000 0.000000 0.000000 0.000000 0.000000 0.000000 -7.487278 0.000000 0.000000 0.000000 0.000000 0.000000 0.000000 0.000000 0.000000 0.000000 0.000000 0.000000 8.984734 0.000000 0.000000 -13.477101 0.000000 0.000000 0.000000 0.000000 0.000000 0.000000 0.000000 0.000000 -8.984734 0.000000 0.000000 -13.477101 0.000000 0.000000 0.000000 0.000000 0.000000 0.000000 8.030988 0.000000 0.000000 9.433141 0.000000 0.000000 9.992659 0.000000 0.000000 9.659563 0.000000
0.000000 30.198500 -44.166667 0.000000 0.000000 0.000000 1.984997 0.000000 0.000000 0.000000 0.000000 0.000000 0.000000 0.000000 0.000000 0.000000 0.000000 0.000000 0.000000 3.308329 0.000000 0.000000 0.000000 0.000000 8.725360 0.000000 0.000000 0.000000 0.000000 0.000000 0.000000 0.000000 0.000000 0.000000 0.000000 0.000000 -8.725360 0.000000 0.000000 0.000000 0.000000 0.000000 0.000000 0.000000 0.000000 0.000000 0.000000 0.000000 10.470431 0.000000 0.000000 -15.705647 0.000000 0.000000 0.000000 0.000000 0.000000 0.000000 0.000000 0.000000 -10.470431 0.000000 0.000000 -15.705647 0.000000 0.000000 0.000000 0.000000 0.000000 0.000000 8.864221 0.000000 0.000000 9.836211 0.000000 0.000000 9.929562 0.000000 0.000000 9.135934 0.000000
0.000000 30.220925 -43.333333 0.000000 0.000000 0.000000 2.209249 0.000000 0.000000 0.000000 0.000000 0.000000 0.000000 0.000000 0.000000 0.000000 0.000000 0.000000 0.000000 3.682082 0.000000 0.000000 0.000000 0.000000 9.939525 0.000000 0.000000 0.000000 0.000000 0.000000 0.000000 0.000000 0.000000 0.000000 0.000000 0.000000 -9.939525 0.000000 0.000000 0.000000 0.000000 0.000000 0.000000 0.000000 0.000000 0.000000 0.000000 0.000000 11.927430 0.000000 0.000000 -17.891145 0.000000 0.000000 0.000000 0.000000 0.000000 0.000000 0.000000 0.000000 -11.927430 0.000000 0.000000 -17.891145 0.000000 0.000000 0.000000 0.000000 0.000000 0.000000 9.479188 0.000000 0.000000 9.997082 0.000000 0.000000 9.621966 0.000000 0.000000 8.387348 0.000000
0.000000 30.240930 -42.500000 0.000000 0.000000 0.000000 2.409296 0.000000 0.000000 0.000000 0.000000 0.000000 0.000000 0.000000 0.000000 0.000000 0.000000 0.000000 0.000000 4.015494 0.000000 0.000000 0.000000 0.000000 11.126447 0.000000 0.000000 0.000000 0.000000 0.000000 0.000000 0.000000 0.000000 0.000000 0.000000 0.000000 -11.126447 0.000000 0.000000 0.000000 0.000000 0.000000 0.000000 0.000000 0.000000 0.000000 0.000000 0.000000 13.351737 0.000000 0.000000 -20.027605 0.000000 0.000000 0.000000 0.000000 0.000000 0.000000 0.000000 0.000000 -13.351737 0.000000 0.000000 -20.027605 0.000000 0.000000 0.000000 0.000000 0.000000 0.000000 9.860746 0.000000 0.000000 9.911791 0.000000 0.000000 9.077445 0.000000 0.000000 7.432237 0.000000
0.000000 30.258295 -41.666667 0.000000 0.000000 0.000000 2.582947 0.000000 0.000000 0.000000 0.000000 0.000000 0.000000 0.000000 0.000000 0.000000 0.000000 0.000000 0.000000 4.304911 0.000000 0.000000 0.000000 0.000000 12.282872 0.000000 0.000000 0.000000 0.000000 0.000000 0.000000 0.000000 0.000000 0.000000 0.000000 0.000000 -12.282872 0.000000 0.000000 0.000000 0.000000 0.000000 0.000000 0.000000 0.000000 0.000000 0.000000 0.000000 14.739447 0.000000 0.000000 -22.109170 0.000000 0.000000 0.000000 0.000000 0.000000 0.000000 0.000000 0.000000 -14.739447 0.000000 0.000000 -22.109170 0.000000 0.000000 0.000000 0.000000 0.000000 0.000000 9.999500 0.000000 0.000000 9.582439 0.000000 0.000000 8.309407 0.000000 0.000000 6.294120 0.000000
0.000000 30.272830 -40.833333 0.000000 0.000000 0.000000 2.728297 0.000000 0.000000 0.000000 0.000000 0.000000 0.000000 0.000000 0.000000 0.000000 0.000000 0.000000 0.000000 4.547162 0.000000 0.000000 0.000000 0.000000 13.405631 0.000000 0.000000 0.000000 0.000000 0.000000 0.000000 0.000000 0.000000 0.000000 0.000000 0.000000 -13.405631 0.000000 0.000000 0.000000 0.000000 0.000000 0.000000 0.000000 0.000000 0.000000 0.000000 0.000000 16.086757 0.000000 0.000000 -24.130136 0.000000 0.000000 0.000000 0.000000 0.000000 0.000000 0.000000 0.000000 -16.086757 0.000000 0.000000 -24.130136 0.000000 0.000000 0.000000 0.000000 0.000000 0.000000 9.892033 0.000000 0.000000 9.017135 0.000000 0.000000 7.336764 0.000000 0.000000 5.001021 0.000000
0.000000 30.284376 -40.000000 0.000000 0.000000 0.000000 2.843757 0.000000 0.000000 0.000000 0.000000 0.000000 0.000000 0.000000 0.000000 0.000000 0.000000 0.000000 0.000000 4.739594 0.000000 0.000000 0.000000 0.000000 14.491646 0.000000 0.000000 0.000000 0.000000 0.000000 0.000000 0.000000 0.000000 0.000000 0.000000 0.000000 -14.491646 0.000000 0.000000 0.000000 0.000000 0.000000 0.000000 0.000000 0.000000 0.000000 0.000000 0.000000 17.389975 0.000000 0.000000 -26.084962 0.000000 0.000000 0.000000 0.000000 0.000000 0.000000 0.000000 0.000000 -17.389975 0.000000 0.000000 -26.084962 0.000000 0.000000 0.000000 0.000000 0.000000 0.000000 9.540991 0.000000 0.000000 8.229800 0.000000 0.000000 6.183465 0.000000 0.000000 3.584780 0.000000
0.000000 30.292806 -39.166667 0.000000 0.000000 0.000000 2.928059 0.000000 0.000000 0.000000 0.000000 0.000000 0.000000 0.000000 0.000000 0.000000 0.000000 0.000000 0.000000 4.880098 0.000000 0.000000 0.000000 0.000000 15.537940 0.000000 0.000000 0.000000 0.000000 0.000000 0.000000 0.000000 0.000000 0.000000 0.000000 0.000000 -15.537940 0.000000 0.000000 0.000000 0.000000 0.000000 0.000000 0.000000 0.000000 0.000000 0.000000 0.000000 18.645528 0.000000 0.000000 -27.968292 0.000000 0.000000 0.000000 0.000000 0.000000 0.000000 0.000000 0.000000 -18.645528 0.000000 0.000000 -27.968292 0.000000 0.000000 0.000000 0.000000 0.000000 0.000000 8.955018 0.000000 0.000000 7.239820 0.000000 0.000000 4.877909 0.000000 0.000000 2.080270 0.000000
0.000000 30.298028 -38.333333 0.000000 0.000000 0.000000 2.980281 0.000000 0.000000 0.000000 0.000000 0.000000 0.000000 0.000000 0.000000 0.000000 0.000000 0.000000 0.000000 4.967135 0.000000 0.000000 0.000000 0.000000 16.541646 0.000000 0.000000 0.000000 0.000000 0.000000 0.000000 0.000000 0.000000 0.000000 0.000000 0.000000 -16.541646 0.000000 0.000000 0.000000 0.000000 0.000000 0.000000 0.000000 0.000000 0.000000 0.000000 0.000000 19.849975 0.000000 0.000000 -29.774962 0.000000 0.000000 0.000000 0.000000 0.000000 0.000000 0.000000 0.000000 -19.849975 0.000000 0.000000 -29.774962 0.000000 0.000000 0.000000 0.000000 0.000000 0.000000 8.148543 0.000000 0.000000 6.071571 0.000000 0.000000 3.452243 0.000000 0.000000 0.524537 0.000000
0.000000 30.299985 -37.500000 0.000000 0.000000 0.000000 2.999850 0.000000 0.000000 0.000000 0.000000 0.000000 0.000000 0.000000 0.000000 0.000000 0.000000 0.000000 0.000000 4.999750 0.000000 0.000000 0.000000 0.000000 17.500012 0.000000 0.000000 0.000000 0.000000 0.000000 0.000000 0.000000 0.000000 0.000000 0.000000 0.000000 -17.500012 0.000000 0.000000 0.000000 0.000000 0.000000 0.000000 0.000000 0.000000 0.000000 0.000000 0.000000 21.000014 0.000000 0.000000 -31.500021 0.000000 0.000000 0.000000 0.000000 0.000000 0.000000 0.000000 0.000000 -21.000014 0.000000 0.000000 -31.500021 0.000000 0.000000 0.000000 0.000000 0.000000 0.000000 7.141424 0.000000 0.000000 4.753820 0.000000 0.000000 1.941571 0.000000 0.000000 -1.044112 0.000000
0.000000 30.298655 -36.666667 0.000000 0.000000 0.000000 2.986552 0.000000 0.000000 0.000000 0.000000 0.000000 0.000000 0.000000 0.000000 0.000000 0.000000 0.000000 0.000000 4.977587 0.000000 0.000000 0.000000 0.000000 18.410412 0.000000 0.000000 0.000000 0.000000 0.000000 0.000000 0.000000 0.000000 0.000000 0.000000 0.000000 -18.410412 0.000000 0.000000 0.000000 0.000000 0.000000 0.000000 0.000000 0.000000 0.000000 0.000000 0.000000 22.092494 0.000000 0.000000 -33.138741 0.000000 0.000000 0.000000 0.000000 0.000000 0.000000 0.000000 0.000000 -22.092494 0.000000 0.000000 -33.138741 0.000000 0.000000 0.000000 0.000000 0.000000 0.000000 5.958459 0.000000 0.000000 3.319014 0.000000 0.000000 0.383092 0.000000 0.000000 -2.587051 0.000000
0.000000 30.294053 -35.833333 0.000000 0.000000 0.000000 2.940533 0.000000 0.000000 0.000000 0.000000 0.000000 0.000000 0.000000 0.000000 0.000000 0.000000 0.000000 0.000000 4.900889 0.000000 0.000000 0.000000 0.000000 19.270350 0.000000 0.000000 0.000000 0.000000 0.000000 0.000000 0.000000 0.000000 0.000000 0.000000 0.000000 -19.270350 0.000000 0.000000 0.000000 0.000000 0.000000 0.000000 0.000000 0.000000 0.000000 0.000000 0.000000 23.124420 0.000000 0.000000 -34.686630 0.000000 0.000000 0.000000 0.000000 0.000000 0.000000 0.000000 0.000000 -23.124420 0.000000 0.000000 -34.686630 0.000000 0.000000 0.000000 0.000000 0.000000 0.000000 4.628777 0.000000 0.000000 1.802483 0.000000 0.000000 -1.184821 0.000000 0.000000 -4.066289 0.000000
0.000000 30.286230 -35.000000 0.000000 0.000000 0.000000 2.862297 0.000000 0.000000 0.000000 0.000000 0.000000 0.000000 0.000000 0.000000 0.000000 0.000000 0.000000 0.000000 4.770495 0.000000 0.000000 0.000000 0.000000 20.077470 0.000000 0.000000 0.000000 0.000000 0.000000 0.000000 0.000000 0.000000 0.000000 0.000000 0.000000 -20.077470 0.000000 0.000000 0.000000 0.000000 0.000000 0.000000 0.000000 0.000000 0.000000 0.000000 0.000000 24.092964 0.000000 0.000000 -36.139446 0.000000 0.000000 0.000000 0.000000 0.000000 0.000000 0.000000 0.000000 -24.092964 0.000000 0.000000 -36.139446 0.000000 0.000000 0.000000 0.000000 0.000000 0.000000 3.185120 0.000000 0.000000 0.241569 0.000000 0.000000 -2.723560 0.000000 0.000000 -5.445401 0.000000
0.000000 30.275270 -34.166667 0.000000 0.000000 0.000000 2.752701 0.000000 0.000000 0.000000 0.000000 0.000000 0.000000 0.000000 0.000000 0.000000 0.000000 0.000000 0.000000 4.587835 0.000000 0.000000 0.000000 0.000000 20.829558 0.000000 0.000000 0.000000 0.000000 0.000000 0.000000 0.000000 0.000000 0.000000 0.000000 0.000000 -20.829558 0.000000 0.000000 0.000000 0.000000 0.000000 0.000000 0.000000 0.000000 0.000000 0.000000 0.000000 24.995470 0.000000 0.000000 -37.493205 0.000000 0.000000 0.000000 0.000000 0.000000 0.000000 0.000000 0.000000 -24.995470 0.000000 0.000000 -37.493205 0.000000 0.000000 0.000000 0.000000 0.000000 0.000000 1.663034 0.000000 0.000000 -1.325293 0.000000 0.000000 -4.195235 0.000000 0.000000 -6.690430 0.000000
0.000000 30.261295 -33.333333 0.000000 0.000000 0.000000 2.612946 0.000000 0.000000 0.000000 0.000000 0.000000 0.000000 0.000000 0.000000 0.000000 0.000000 0.000000 0.000000 4.354910 0.000000 0.000000 0.000000 0.000000 21.524555 0.000000 0.000000 0.000000 0.000000 0.000000 0.000000 0.000000 0.000000 0.000000 0.000000 0.000000 -21.524555 0.000000 0.000000 0.000000 0.000000 0.000000 0.000000 0.000000 0.000000 0.000000 0.000000 0.000000 25.829466 0.000000 0.000000 -38.744198 0.000000 0.000000 0.000000 0.000000 0.000000 0.000000 0.000000 0.000000 -25.829466 0.000000 0.000000 -38.744198 0.000000 0.000000 0.000000 0.000000 0.000000 0.000000 0.099998 0.000000 0.000000 -2.859522 0.000000 0.000000 -5.563610 0.000000 0.000000 -7.770717 0.000000
0.000000 30.244456 -32.500000 0.000000 0.000000 0.000000 2.444563 0.000000 0.000000 0.000000 0.000000 0.000000 0.000000 0.000000 0.000000 0.000000 0.000000 0.000000 0.000000 4.074271 0.000000 0.000000 0.000000 0.000000 22.160554 0.000000 0.000000 0.000000 0.000000 0.000000 0.000000 0.000000 0.000000 0.000000 0.000000 0.000000 -22.160554 0.000000 0.000000 0.000000 0.000000 0.000000 0.000000 0.000000 0.000000 0.000000 0.000000 0.000000 26.592664 0.000000 0.000000 -39.888997 0.000000 0.000000 0.000000 0.000000 0.000000 0.000000 0.000000 0.000000 -26.592664 0.000000 0.000000 -39.888997 0.000000 0.000000 0.000000 0.000000 0.000000 0.000000 -1.465499 0.000000 0.000000 -4.323340 0.000000 0.000000 -6.794991 0.000000 0.000000 -8.659664 0.000000
0.000000 30.224940 -31.666667 0.000000 0.000000 0.000000 2.249397 0.000000 0.000000 0.000000 0.000000 0.000000 0.000000 0.000000 0.000000 0.000000 0.000000 0.000000 0.000000 3.748994 0.000000 0.000000 0.000000 0.000000 22.735812 0.000000 0.000000 0.000000 0.000000 0.000000 0.000000 0.000000 0.000000 0.000000 0.000000 0.000000 -22.735812 0.000000 0.000000 0.000000 0.000000 0.000000 0.000000 0.000000 0.000000 0.000000 0.000000 0.000000 27.282974 0.000000 0.000000 -40.924462 0.000000 0.000000 0.000000 0.000000 0.000000 0.000000 0.000000 0.000000 -27.282974 0.000000 0.000000 -40.924462 0.000000 0.000000 0.000000 0.000000 0.000000 0.000000 -2.994911 0.000000 0.000000 -5.680704 0.000000 0.000000 -7.859056 0.000000 0.000000 -9.335382 0.000000
0.000000 30.202959 -30.833333 0.000000 0.000000 0.000000 2.029585 0.000000 0.000000 0.000000 0.000000 0.000000 0.000000 0.000000 0.000000 0.000000 0.000000 0.000000 0.000000 3.382642 0.000000 0.000000 0.000000 0.000000 23.248753 0.000000 0.000000 0.000000 0.000000 0.000000 0.000000 0.000000 0.000000 0.000000 0.000000 0.000000 -23.248753 0.000000 0.000000 0.000000 0.000000 0.000000 0.000000 0.000000 0.000000 0.000000 0.000000 0.000000 27.898504 0.000000 0.000000 -41.847756 0.000000 0.000000 0.000000 0.000000 0.000000 0.000000 0.000000 0.000000 -27.898504 0.000000 0.000000 -41.847756 0.000000 0.000000 0.000000 0.000000 0.000000 0.000000 -4.450579 0.000000 0.000000 -6.898189 0.000000 0.000000 -8.729605 0.000000 0.000000 -9.781231 0.000000
0.000000 30.178754 -30.000000 0.000000 0.000000 0.000000 1.787538 0.000000 0.000000 0.000000 0.000000 0.000000 0.000000 0.000000 0.000000 0.000000 0.000000 0.000000 0.000000 2.979229 0.000000 0.000000 0.000000 0.000000 23.697971 0.000000 0.000000 0.000000 0.000000 0.000000 0.000000 0.000000 0.000000 0.000000 0.000000 0.000000 -23.697971 0.000000 0.000000 0.000000 0.000000 0.000000 0.000000 0.000000 0.000000 0.000000 0.000000 0.000000 28.437565 0.000000 0.000000 -42.656348 0.000000 0.000000 0.000000 0.000000 0.000000 0.000000 0.000000 0.000000 -28.437565 0.000000 0.000000 -42.656348 0.000000 0.000000 0.000000 0.000000 0.000000 0.000000 -5.796658 0.000000 0.000000 -7.945818 0.000000 0.000000 -9.385202 0.000000 0.000000 -9.986234 0.000000
0.000000 30.152591 -29.166667 0.000000 0.000000 0.000000 1.525905 0.000000 0.000000 0.000000 0.000000 0.000000 0.000000 0.000000 0.000000 0.000000 0.000000 0.000000 0.000000 2.543176 0.000000 0.000000 0.000000 0.000000 24.082235 0.000000 0.000000 0.000000 0.000000 0.000000 0.000000 0.000000 0.000000 0.000000 0.000000 0.000000 -24.082235 0.000000 0.000000 0.000000 0.000000 0.000000 0.000000 0.000000 0.000000 0.000000 0.000000 0.000000 28.898681 0.000000 0.000000 -43.348022 0.000000 0.000000 0.000000 0.000000 0.000000 0.000000 0.000000 0.000000 -28.898681 0.000000 0.000000 -43.348022 0.000000 0.000000 0.000000 0.000000 0.000000 0.000000 -7.000005 0.000000 0.000000 -8.797795 0.000000 0.000000 -9.809704 0.000000 0.000000 -9.945342 0.000000
0.000000 30.124755 -28.333333 0.000000 0.000000 0.000000 1.247555 0.000000 0.000000 0.000000 0.000000 0.000000 0.000000 0.000000 0.000000 0.000000 0.000000 0.000000 0.000000 2.079258 0.000000 0.000000 0.000000 0.000000 24.400490 0.000000 0.000000 0.000000 0.000000 0.000000 0.000000 0.000000 0.000000 0.000000 0.000000 0.000000 -24.400490 0.000000 0.000000 0.000000 0.000000 0.000000 0.000000 0.000000 0.000000 0.000000 0.000000 0.000000 29.280588 0.000000 0.000000 -43.920883 0.000000 0.000000 0.000000 0.000000 0.000000 0.000000 0.000000 0.000000 -29.280588 0.000000 0.000000 -43.920883 0.000000 0.000000 0.000000 0.000000 0.000000 0.000000 -8.030988 0.000000 0.000000 -9.433141 0.000000 0.000000 -9.992659 0.000000 0.000000 -9.659563 0.000000
0.000000 30.095554 -27.500000 0.000000 0.000000 0.000000 0.955536 0.000000 0.000000 0.000000 0.000000 0.000000 0.000000 0.000000 0.000000 0.000000 0.000000 0.000000 0.000000 1.592560 0.000000 0.000000 0.000000 0.000000 24.651866 0.000000 0.000000 0.000000 0.000000 0.000000 0.000000 0.000000 0.000000 0.000000 0.000000 0.000000 -24.651866 0.000000 0.000000 0.000000 0.000000 0.000000 0.000000 0.000000 0.000000 0.000000 0.000000 0.000000 29.582239 0.000000 0.000000 -44.373359 0.000000 0.000000 0.000000 0.000000 0.000000 0.000000 0.000000 0.000000 -29.582239 0.000000 0.000000 -44.373359 0.000000 0.000000 0.000000 0.000000 0.000000 0.000000 -8.864221 0.000000 0.000000 -9.836211 0.000000 0.000000 -9.929562 0.000000 0.000000 -9.135934 0.000000
0.000000 30.065305 -26.666667 0.000000 0.000000 0.000000 0.653048 0.000000 0.000000 0.000000 0.000000 0.000000 0.000000 0.000000 0.000000 0.000000 0.000000 0.000000 0.000000 1.088413 0.000000 0.000000 0.000000 0.000000 24.835673 0.000000 0.000000 0.000000 0.000000 0.000000 0.000000 0.000000 0.000000 0.000000 0.000000 0.000000 -24.835673 0.000000 0.000000 0.000000 0.000000 0.000000 0.000000 0.000000 0.000000 0.000000 0.000000 0.000000 29.802807 0.000000 0.000000 -44.704211 0.000000 0.000000 0.000000 0.000000 0.000000 0.000000 0.000000 0.000000 -29.802807 0.000000 0.000000 -44.704211 0.000000 0.000000 0.000000 0.000000 0.000000 0.000000 -9.479188 0.000000 0.000000 -9.997082 0.000000 0.000000 -9.621966 0.000000 0.000000 -8.387348 0.000000
0.000000 30.034340 -25.833333 0.000000 0.000000 0.000000 0.343405 0.000000 0.000000 0.000000 0.000000 0.000000 0.000000 0.000000 0.000000 0.000000 0.000000 0.000000 0.000000 0.572341 0.000000 0.000000 0.000000 0.000000 24.951406 0.000000 0.000000 0.000000 0.000000 0.000000 0.000000 0.000000 0.000000 0.000000 0.000000 0.000000 -24.951406 0.000000 0.000000 0.000000 0.000000 0.000000 0.000000 0.000000 0.000000 0.000000 0.000000 0.000000 29.941688 0.000000 0.000000 -44.912531 0.000000 0.000000 0.000000 0.000000 0.000000 0.000000 0.000000 0.000000 -29.941688 0.000000 0.000000 -44.912531 0.000000 0.000000 0.000000 0.000000 0.000000 0.000000 -9.860746 0.000000 0.000000 -9.911791 0.000000 0.000000 -9.077445 0.000000 0.000000 -7.432237 0.000000
0.000000 30.003000 -25.000000 0.000000 0.000000 0.000000 0.030000 0.000000 0.000000 0.000000 0.000000 0.000000 0.000000 0.000000 0.000000 0.000000 0.000000 0.000000 0.000000 0.049999 0.000000 0.000000 0.000000 0.000000 24.998750 0.000000 0.000000 0.000000 0.000000 0.000000 0.000000 0.000000 0.000000 0.000000 0.000000 0.000000 -24.998750 0.000000 0.000000 0.000000 0.000000 0.000000 0.000000 0.000000 0.000000 0.000000 0.000000 0.000000 29.998500 0.000000 0.000000 -44.997750 0.000000 0.000000 0.000000 0.000000 0.000000 0.000000 0.000000 0.000000 -29.998500 0.000000 0.000000 -44.997750 0.000000 0.000000 0.000000 0.000000 0.000000 0.000000 -9.999500 0.000000 0.000000 -9.582439 0.000000 0.000000 -8.309407 0.000000 0.000000 -6.294120 0.000000
0.000000 29.971627 -24.166667 0.000000 0.000000 0.000000 -0.283735 0.000000 0.000000 0.000000 0.000000 0.000000 0.000000 0.000000 0.000000 0.000000 0.000000 0.000000 0.000000 -0.472891 0.000000 0.000000 0.000000 0.000000 24.977574 0.000000 0.000000 0.000000 0.000000 0.000000 0.000000 0.000000 0.000000 0.000000 0.000000 0.000000 -24.977574 0.000000 0.000000 0.000000 0.000000 0.000000 0.000000 0.000000 0.000000 0.000000 0.000000 0.000000 29.973089 0.000000 0.000000 -44.959633 0.000000 0.000000 0.000000 0.000000 0.000000 0.000000 0.000000 0.000000 -29.973089 0.000000 0.000000 -44.959633 0.000000 0.000000 0.000000 0.000000 0.000000 0.000000 -9.892033 0.000000 0.000000 -9.017135 0.000000 0.000000 -7.336764 0.000000 0.000000 -5.001021 0.000000
0.000000 29.940564 -23.333333 0.000000 0.000000 0.000000 -0.594360 0.000000 0.000000 0.000000 0.000000 0.000000 0.000000 0.000000 0.000000 0.000000 0.000000 0.000000 0.000000 -0.990600 0.000000 0.000000 0.000000 0.000000 24.887936 0.000000 0.000000 0.000000 0.000000 0.000000 0.000000 0.000000 0.000000 0.000000 0.000000 0.000000 -24.887936 0.000000 0.000000 0.000000 0.000000 0.000000 0.000000 0.000000 0.000000 0.000000 0.000000 0.000000 29.865523 0.000000 0.000000 -44.798285 0.000000 0.000000 0.000000 0.000000 0.000000 0.000000 0.000000 0.000000 -29.865523 0.000000 0.000000 -44.798285 0.000000 0.000000 0.000000 0.000000 0.000000 0.000000 -9.540991 0.000000 0.000000 -8.229800 0.000000 0.000000 -6.183465 0.000000 0.000000 -3.584780 0.000000
0.000000 29.910153 -22.500000 0.000000 0.000000 0.000000 -0.898473 0.000000 0.000000 0.000000 0.000000 0.000000 0.000000 0.000000 0.000000 0.000000 0.000000 0.000000 0.000000 -1.497456 0.000000 0.000000 0.000000 0.000000 24.730082 0.000000 0.000000 0.000000 0.000000 0.000000 0.000000 0.000000 0.000000 0.000000 0.000000 0.000000 -24.730082 0.000000 0.000000 0.000000 0.000000 0.000000 0.000000 0.000000 0.000000 0.000000 0.000000 0.000000 29.676098 0.000000 0.000000 -44.514147 0.000000 0.000000 0.000000 0.000000 0.000000 0.000000 0.000000 0.000000 -29.676098 0.000000 0.000000 -44.514147 0.000000 0.000000 0.000000 0.000000 0.000000 0.000000 -8.955018 0.000000 0.000000 -7.239820 0.000000 0.000000 -4.877909 0.000000 0.000000 -2.080270 0.000000
0.000000 29.880726 -21.666667 0.000000 0.000000 0.000000 -1.192743 0.000000 0.000000 0.000000 0.000000 0.000000 0.000000 0.000000 0.000000 0.000000 0.000000 0.000000 0.000000 -1.987905 0.000000 0.000000 0.000000 0.000000 24.504444 0.000000 0.000000 0.000000 0.000000 0.000000 0.000000 0.000000 0.000000 0.000000 0.000000 0.000000 -24.504444 0.000000 0.000000 0.000000 0.000000 0.000000 0.000000 0.000000 0.000000 0.000000 0.000000 0.000000 29.405333 0.000000 0.000000 -44.108000 0.000000 0.000000 0.000000 0.000000 0.000000 0.000000 0.000000 0.000000 -29.405333 0.000000 0.000000 -44.108000 0.000000 0.000000 0.000000 0.000000 0.000000 0.000000 -8.148543 0.000000 0.000000 -6.071571 0.000000 0.000000 -3.452243 0.000000 0.000000 -0.524537 0.000000
0.000000 29.852606 -20.833333 0.000000 0.000000 0.000000 -1.473945 0.000000 0.000000 0.000000 0.000000 0.000000 0.000000 0.000000 0.000000 0.000000 0.000000 0.000000 0.000000 -2.456574 0.000000 0.000000 0.000000 0.000000 24.211642 0.000000 0.000000 0.000000 0.000000 0.000000 0.000000 0.000000 0.000000 0.000000 0.000000 0.000000 -24.211642 0.000000 0.000000 0.000000 0.000000 0.000000 0.000000 0.000000 0.000000 0.000000 0.000000 0.000000 29.053970 0.000000 0.000000 -43.580955 0.000000 0.000000 0.000000 0.000000 0.000000 0.000000 0.000000 0.000000 -29.053970 0.000000 0.000000 -43.580955 0.000000 0.000000 0.000000 0.000000 0.000000 0.000000 -7.141424 0.000000 0.000000 -4.753820 0.000000 0.000000 -1.941571 0.000000 0.000000 1.044112 0.000000
0.000000 29.826100 -20.000000 0.000000 0.000000 0.000000 -1.738997 0.000000 0.000000 0.000000 0.000000 0.000000 0.000000 0.000000 0.000000 0.000000 0.000000 0.000000 0.000000 -2.898329 0.000000 0.000000 0.000000 0.000000 23.852477 0.000000 0.000000 0.000000 0.000000 0.000000 0.000000 0.000000 0.000000 0.000000 0.000000 0.000000 -23.852477 0.000000 0.000000 0.000000 0.000000 0.000000 0.000000 0.000000 0.000000 0.000000 0.000000 0.000000 28.622972 0.000000 0.000000 -42.934459 0.000000 0.000000 0.000000 0.000000 0.000000 0.000000 0.000000 0.000000 -28.622972 0.000000 0.000000 -42.934459 0.000000 0.000000 0.000000 0.000000 0.000000 0.000000 -5.958459 0.000000 0.000000 -3.319014 0.000000 0.000000 -0.383092 0.000000 0.000000 2.587051 0.000000
0.000000 29.801500 -19.166667 0.000000 0.000000 0.000000 -1.984997 0.000000 0.000000 0.000000 0.000000 0.000000 0.000000 0.000000 0.000000 0.000000 0.000000 0.000000 0.000000 -3.308329 0.000000 0.000000 0.000000 0.000000 23.427934 0.000000 0.000000 0.000000 0.000000 0.000000 0.000000 0.000000 0.000000 0.000000 0.000000 0.000000 -23.427934 0.000000 0.000000 0.000000 0.000000 0.000000 0.000000 0.000000 0.000000 0.000000 0.000000 0.000000 28.113521 0.000000 0.000000 -42.170282 0.000000 0.000000 0.000000 0.000000 0.000000 0.000000 0.000000 0.000000 -28.113521 0.000000 0.000000 -42.170282 0.000000 0.000000 0.000000 0.000000 0.000000 0.000000 -4.628777 0.000000 0.000000 -1.802483 0.000000 0.000000 1.184821 0.000000 0.000000 4.066289 0.000000
0.000000 29.779075 -18.333333 0.000000 0.000000 0.000000 -2.209249 0.000000 0.000000 0.000000 0.000000 0.000000 0.000000 0.000000 0.000000 0.000000 0.000000 0.000000 0.000000 -3.682082 0.000000 0.000000 0.000000 0.000000 22.939177 0.000000 0.000000 0.000000 0.000000 0.000000 0.000000 0.000000 0.000000 0.000000 0.000000 0.000000 -22.939177 0.000000 0.000000 0.000000 0.000000 0.000000 0.000000 0.000000 0.000000 0.000000 0.000000 0.000000 27.527012 0.000000 0.000000 -41.290519 0.000000 0.000000 0.000000 0.000000 0.000000 0.000000 0.000000 0.000000 -27.527012 0.000000 0.000000 -41.290519 0.000000 0.000000 0.000000 0.000000 0.000000 0.000000 -3.185120 0.000000 0.000000 -0.241569 0.000000 0.000000 2.723560 0.000000 0.000000 5.445401 0.000000
0.000000 29.759070 -17.500000 0.000000 0.000000 0.000000 -2.409296 0.000000 0.000000 0.000000 0.000000 0.000000 0.000000 0.000000 0.000000 0.000000 0.000000 0.000000 0.000000 -4.015494 0.000000 0.000000 0.000000 0.000000 22.387545 0.000000 0.000000 0.000000 0.000000 0.000000 0.000000 0.000000 0.000000 0.000000 0.000000 0.000000 -22.387545 0.000000 0.000000 0.000000 0.000000 0.000000 0.000000 0.000000 0.000000 0.000000 0.000000 0.000000 26.865054 0.000000 0.000000 -40.297581 0.000000 0.000000 0.000000 0.000000 0.000000 0.000000 0.000000 0.000000 -26.865054 0.000000 0.000000 -40.297581 0.000000 0.000000 0.000000 0.000000 0.000000 0.000000 -1.663034 0.000000 0.000000 1.325293 0.000000 0.000000 4.195235 0.000000 0.000000 6.690430 0.000000
0.000000 29.741705 -16.666667 0.000000 0.000000 0.000000 -2.582947 0.000000 0.000000 0.000000 0.000000 0.000000 0.000000 0.000000 0.000000 0.000000 0.000000 0.000000 0.000000 -4.304911 0.000000 0.000000 0.000000 0.000000 21.774550 0.000000 0.000000 0.000000 0.000000 0.000000 0.000000 0.000000 0.000000 0.000000 0.000000 0.000000 -21.774550 0.000000 0.000000 0.000000 0.000000 0.000000 0.000000 0.000000 0.000000 0.000000 0.000000 0.000000 26.129461 0.000000 0.000000 -39.194191 0.000000 0.000000 0.000000 0.000000 0.000000 0.000000 0.000000 0.000000 -26.129461 0.000000 0.000000 -39.194191 0.000000 0.000000 0.000000 0.000000 0.000000 0.000000 -0.099998 0.000000 0.000000 2.859522 0.000000 0.000000 5.563610 0.000000 0.000000 7.770717 0.000000
0.000000 29.727170 -15.833333 0.000000 0.000000 0.000000 -2.728297 0.000000 0.000000 0.000000 0.000000 0.000000 0.000000 0.000000 0.000000 0.000000 0.000000 0.000000 0.000000 -4.547162 0.000000 0.000000 0.000000 0.000000 21.101873 0.000000 0.000000 0.000000 0.000000 0.000000 0.000000 0.000000 0.000000 0.000000 0.000000 0.000000 -21.101873 0.000000 0.000000 0.000000 0.000000 0.000000 0.000000 0.000000 0.000000 0.000000 0.000000 0.000000 25.322248 0.000000 0.000000 -37.983372 0.000000 0.000000 0.000000 0.000000 0.000000 0.000000 0.000000 0.000000 -25.322248 0.000000 0.000000 -37.983372 0.000000 0.000000 0.000000 0.000000 0.000000 0.000000 1.465499 0.000000 0.000000 4.323340 0.000000 0.000000 6.794991 0.000000 0.000000 8.659664 0.000000
0.000000 29.715624 -15.000000 0.000000 0.000000 0.000000 -2.843757 0.000000 0.000000 0.000000 0.000000 0.000000 0.000000 0.000000 0.000000 0.000000 0.000000 0.000000 0.000000 -4.739594 0.000000 0.000000 0.000000 0.000000 20.371357 0.000000 0.000000 0.000000 0.000000 0.000000 0.000000 0.000000 0.000000 0.000000 0.000000 0.000000 -20.371357 0.000000 0.000000 0.000000 0.000000 0.000000 0.000000 0.000000 0.000000 0.000000 0.000000 0.000000 24.445629 0.000000 0.000000 -36.668443 0.000000 0.000000 0.000000 0.000000 0.000000 0.000000 0.000000 0.000000 -24.445629 0.000000 0.000000 -36.668443 0.000000 0.000000 0.000000 0.000000 0.000000 0.000000 2.994911 0.000000 0.000000 5.680704 0.000000 0.000000 7.859056 0.000000 0.000000 9.335382 0.000000
0.000000 29.707194 -14.166667 0.000000 0.000000 0.000000 -2.928059 0.000000 0.000000 0.000000 0.000000 0.000000 0.000000 0.000000 0.000000 0.000000 0.000000 0.000000 0.000000 -4.880098 0.000000 0.000000 0.000000 0.000000 19.585005 0.000000 0.000000 0.000000 0.000000 0.000000 0.000000 0.000000 0.000000 0.000000 0.000000 0.000000 -19.585005 0.000000 0.000000 0.000000 0.000000 0.000000 0.000000 0.000000 0.000000 0.000000 0.000000 0.000000 23.502006 0.000000 0.000000 -35.253009 0.000000 0.000000 0.000000 0.000000 0.000000 0.000000 0.000000 0.000000 -23.502006 0.000000 0.000000 -35.253009 0.000000 0.000000 0.000000 0.000000 0.000000 0.000000 4.450579 0.000000 0.000000 6.898189 0.000000 0.000000 8.729605 0.000000 0.000000 9.781231 0.000000
0.000000 29.701972 -13.333333 0.000000 0.000000 0.000000 -2.980281 0.000000 0.000000 0.000000 0.000000 0.000000 0.000000 0.000000 0.000000 0.000000 0.000000 0.000000 0.000000 -4.967135 0.000000 0.000000 0.000000 0.000000 18.744972 0.000000 0.000000 0.000000 0.000000 0.000000 0.000000 0.000000 0.000000 0.000000 0.000000 0.000000 -18.744972 0.000000 0.000000 0.000000 0.000000 0.000000 0.000000 0.000000 0.000000 0.000000 0.000000 0.000000 22.493966 0.000000 0.000000 -33.740949 0.000000 0.000000 0.000000 0.000000 0.000000 0.000000 0.000000 0.000000 -22.493966 0.000000 0.000000 -33.740949 0.000000 0.000000 0.000000 0.000000 0.000000 0.000000 5.796658 0.000000 0.000000 7.945818 0.000000 0.000000 9.385202 0.000000 0.000000 9.986234 0.000000
0.000000 29.700015 -12.500000 0.000000 0.000000 0.000000 -2.999850 0.000000 0.000000 0.000000 0.000000 0.000000 0.000000 0.000000 0.000000 0.000000 0.000000 0.000000 0.000000 -4.999750 0.000000 0.000000 0.000000 0.000000 17.853559 0.000000 0.000000 0.000000 0.000000 0.000000 0.000000 0.000000 0.000000 0.000000 0.000000 0.000000 -17.853559 0.000000 0.000000 0.000000 0.000000 0.000000 0.000000 0.000000 0.000000 0.000000 0.000000 0.000000 21.424271 0.000000 0.000000 -32.136407 0.000000 0.000000 0.000000 0.000000 0.000000 0.000000 0.000000 0.000000 -21.424271 0.000000 0.000000 -32.136407 0.000000 0.000000 0.000000 0.000000 0.000000 0.000000 7.000005 0.000000 0.000000 8.797795 0.000000 0.000000 9.809704 0.000000 0.000000 9.945342 0.000000
0.000000 29.701345 -11.666667 0.000000 0.000000 0.000000 -2.986552 0.000000 0.000000 0.000000 0.000000 0.000000 0.000000 0.000000 0.000000 0.000000 0.000000 0.000000 0.000000 -4.977587 0.000000 0.000000 0.000000 0.000000 16.913212 0.000000 0.000000 0.000000 0.000000 0.000000 0.000000 0.000000 0.000000 0.000000 0.000000 0.000000 -16.913212 0.000000 0.000000 0.000000 0.000000 0.000000 0.000000 0.000000 0.000000 0.000000 0.000000 0.000000 20.295854 0.000000 0.000000 -30.443781 0.000000 0.000000 0.000000 0.000000 0.000000 0.000000 0.000000 0.000000 -20.295854 0.000000 0.000000 -30.443781 0.000000 0.000000 0.000000 0.000000 0.000000 0.000000 8.030988 0.000000 0.000000 9.433141 0.000000 0.000000 9.992659 0.000000 0.000000 9.659563 0.000000
0.000000 29.705947 -10.833333 0.000000 0.000000 0.000000 -2.940533 0.000000 0.000000 0.000000 0.000000 0.000000 0.000000 0.000000 0.000000 0.000000 0.000000 0.000000 0.000000 -4.900889 0.000000 0.000000 0.000000 0.000000 15.926506 0.000000 0.000000 0.000000 0.000000 0.000000 0.000000 0.000000 0.000000 0.000000 0.000000 0.000000 -15.926506 0.000000 0.000000 0.000000 0.000000 0.000000 0.000000 0.000000 0.000000 0.000000 0.000000 0.000000 19.111808 0.000000 0.000000 -28.667711 0.000000 0.000000 0.000000 0.000000 0.000000 0.000000 0.000000 0.000000 -19.111808 0.000000 0.000000 -28.667711 0.000000 0.000000 0.000000 0.000000 0.000000 0.000000 8.864221 0.000000 0.000000 9.836211 0.000000 0.000000 9.929562 0.000000 0.000000 9.135934 0.000000
0.000000 29.713770 -10.000000 0.000000 0.000000 0.000000 -2.862297 0.000000 0.000000 0.000000 0.000000 0.000000 0.000000 0.000000 0.000000 0.000000 0.000000 0.000000 0.000000 -4.770495 0.000000 0.000000 0.000000 0.000000 14.896147 0.000000 0.000000 0.000000 0.000000 0.000000 0.000000 0.000000 0.000000 0.000000 0.000000 0.000000 -14.896147 0.000000 0.000000 0.000000 0.000000 0.000000 0.000000 0.000000 0.000000 0.000000 0.000000 0.000000 17.875377 0.000000 0.000000 -26.813065 0.000000 0.000000 0.000000 0.000000 0.000000 0.000000 0.000000 0.000000 -17.875377 0.000000 0.000000 -26.813065 0.000000 0.000000 0.000000 0.000000 0.000000 0.000000 9.479188 0.000000 0.000000 9.997082 0.000000 0.000000 9.621966 0.000000 0.000000 8.387348 0.000000
0.000000 29.724730 -9.166667 0.000000 0.000000 0.000000 -2.752701 0.000000 0.000000 0.000000 0.000000 0.000000 0.000000 0.000000 0.000000 0.000000 0.000000 0.000000 0.000000 -4.587835 0.000000 0.000000 0.000000 0.000000 13.824959 0.000000 0.000000 0.000000 0.000000 0.000000 0.000000 0.000000 0.000000 0.000000 0.000000 0.000000 -13.824959 0.000000 0.000000 0.000000 0.000000 0.000000 0.000000 0.000000 0.000000 0.000000 0.000000 0.000000 16.589951 0.000000 0.000000 -24.884927 0.000000 0.000000 0.000000 0.000000 0.000000 0.000000 0.000000 0.000000 -16.589951 0.000000 0.000000 -24.884927 0.000000 0.000000 0.000000 0.000000 0.000000 0.000000 9.860746 0.000000 0.000000 9.911791 0.000000 0.000000 9.077445 0.000000 0.000000 7.432237 0.000000
0.000000 29.738705 -8.333333 0.000000 0.000000 0.000000 -2.612946 0.000000 0.000000 0.000000 0.000000 0.000000 0.000000 0.000000 0.000000 0.000000 0.000000 0.000000 0.000000 -4.354910 0.000000 0.000000 0.000000 0.000000 12.715878 0.000000 0.000000 0.000000 0.000000 0.000000 0.000000 0.000000 0.000000 0.000000 0.000000 0.000000 -12.715878 0.000000 0.000000 0.000000 0.000000 0.000000 0.000000 0.000000 0.000000 0.000000 0.000000 0.000000 15.259053 0.000000 0.000000 -22.888580 0.000000 0.000000 0.000000 0.000000 0.000000 0.000000 0.000000 0.000000 -15.259053 0.000000 0.000000 -22.888580 0.000000 0.000000 0.000000 0.000000 0.000000 0.000000 9.999500 0.000000 0.000000 9.582439 0.000000 0.000000 8.309407 0.000000 0.000000 6.294120 0.000000
0.000000 29.755544 -7.500000 0.000000 0.000000 0.000000 -2.444563 0.000000 0.000000 0.000000 0.000000 0.000000 0.000000 0.000000 0.000000 0.000000 0.000000 0.000000 0.000000 -4.074271 0.000000 0.000000 0.000000 0.000000 11.571943 0.000000 0.000000 0.000000 0.000000 0.000000 0.000000 0.000000 0.000000 0.000000 0.000000 0.000000 -11.571943 0.000000 0.000000 0.000000 0.000000 0.000000 0.000000 0.000000 0.000000 0.000000 0.000000 0.000000 13.886332 0.000000 0.000000 -20.829497 0.000000 0.000000 0.000000 0.000000 0.000000 0.000000 0.000000 0.000000 -13.886332 0.000000 0.000000 -20.829497 0.000000 0.000000 0.000000 0.000000 0.000000 0.000000 9.892033 0.000000 0.000000 9.017135 0.000000 0.000000 7.336764 0.000000 0.000000 5.001021 0.000000
0.000000 29.775060 -6.666667 0.000000 0.000000 0.000000 -2.249397 0.000000 0.000000 0.000000 0.000000 0.000000 0.000000 0.000000 0.000000 0.000000 0.000000 0.000000 0.000000 -3.748994 0.000000 0.000000 0.000000 0.000000 10.396290 0.000000 0.000000 0.000000 0.000000 0.000000 0.000000 0.000000 0.000000 0.000000 0.000000 0.000000 -10.396290 0.000000 0.000000 0.000000 0.000000 0.000000 0.000000 0.000000 0.000000 0.000000 0.000000 0.000000 12.475548 0.000000 0.000000 -18.713322 0.000000 0.000000 0.000000 0.000000 0.000000 0.000000 0.000000 0.000000 -12.475548 0.000000 0.000000 -18.713322 0.000000 0.000000 0.000000 0.000000 0.000000 0.000000 9.540991 0.000000 0.000000 8.229800 0.000000 0.000000 6.183465 0.000000 0.000000 3.584780 0.000000
0.000000 29.797041 -5.833333 0.000000 0.000000 0.000000 -2.029585 0.000000 0.000000 0.000000 0.000000 0.000000 0.000000 0.000000 0.000000 0.000000 0.000000 0.000000 0.000000 -3.382642 0.000000 0.000000 0.000000 0.000000 9.192142 0.000000 0.000000 0.000000 0.000000 0.000000 0.000000 0.000000 0.000000 0.000000 0.000000 0.000000 -9.192142 0.000000 0.000000 0.000000 0.000000 0.000000 0.000000 0.000000 0.000000 0.000000 0.000000 0.000000 11.030570 0.000000 0.000000 -16.545856 0.000000 0.000000 0.000000 0.000000 0.000000 0.000000 0.000000 0.000000 -11.030570 0.000000 0.000000 -16.545856 0.000000 0.000000 0.000000 0.000000 0.000000 0.000000 8.955018 0.000000 0.000000 7.239820 0.000000 0.000000 4.877909 0.000000 0.000000 2.080270 0.000000
0.000000 29.821246 -5.000000 0.000000 0.000000 0.000000 -1.787538 0.000000 0.000000 0.000000 0.000000 0.000000 0.000000 0.000000 0.000000 0.000000 0.000000 0.000000 0.000000 -2.979229 0.000000 0.000000 0.000000 0.000000 7.962799 0.000000 0.000000 0.000000 0.000000 0.000000 0.000000 0.000000 0.000000 0.000000 0.000000 0.000000 -7.962799 0.000000 0.000000 0.000000 0.000000 0.000000 0.000000 0.000000 0.000000 0.000000 0.000000 0.000000 9.555359 0.000000 0.000000 -14.333038 0.000000 0.000000 0.000000 0.000000 0.000000 0.000000 0.000000 0.000000 -9.555359 0.000000 0.000000 -14.333038 0.000000 0.000000 0.000000 0.000000 0.000000 0.000000 8.148543 0.000000 0.000000 6.071571 0.000000 0.000000 3.452243 0.000000 0.000000 0.524537 0.000000
0.000000 29.847409 -4.166667 0.000000 0.000000 0.000000 -1.525905 0.000000 0.000000 0.000000 0.000000 0.000000 0.000000 0.000000 0.000000 0.000000 0.000000 0.000000 0.000000 -2.543176 0.000000 0.000000 0.000000 0.000000 6.711630 0.000000 0.000000 0.000000 0.000000 0.000000 0.000000 0.000000 0.000000 0.000000 0.000000 0.000000 -6.711630 0.000000 0.000000 0.000000 0.000000 0.000000 0.000000 0.000000 0.000000 0.000000 0.000000 0.000000 8.053956 0.000000 0.000000 -12.080934 0.000000 0.000000 0.000000 0.000000 0.000000 0.000000 0.000000 0.000000 -8.053956 0.000000 0.000000 -12.080934 0.000000 0.000000 0.000000 0.000000 0.000000 0.000000 7.141424 0.000000 0.000000 4.753820 0.000000 0.000000 1.941571 0.000000 0.000000 -1.044112 0.000000
0.000000 29.875245 -3.333333 0.000000 0.000000 0.000000 -1.247555 0.000000 0.000000 0.000000 0.000000 0.000000 0.000000 0.000000 0.000000 0.000000 0.000000 0.000000 0.000000 -2.079258 0.000000 0.000000 0.000000 0.000000 5.442065 0.000000 0.000000 0.000000 0.000000 0.000000 0.000000 0.000000 0.000000 0.000000 0.000000 0.000000 -5.442065 0.000000 0.000000 0.000000 0.000000 0.000000 0.000000 0.000000 0.000000 0.000000 0.000000 0.000000 6.530478 0.000000 0.000000 -9.795717 0.000000 0.000000 0.000000 0.000000 0.000000 0.000000 0.000000 0.000000 -6.530478 0.000000 0.000000 -9.795717 0.000000 0.000000 0.000000 0.000000 0.000000 0.000000 5.958459 0.000000 0.000000 3.319014 0.000000 0.000000 0.383092 0.000000 0.000000 -2.587051 0.000000
0.000000 29.904446 -2.500000 0.000000 0.000000 0.000000 -0.955536 0.000000 0.000000 0.000000 0.000000 0.000000 0.000000 0.000000 0.000000 0.000000 0.000000 0.000000 0.000000 -1.592560 0.000000 0.000000 0.000000 0.000000 4.157584 0.000000 0.000000 0.000000 0.000000 0.000000 0.000000 0.000000 0.000000 0.000000 0.000000 0.000000 -4.157584 0.000000 0.000000 0.000000 0.000000 0.000000 0.000000 0.000000 0.000000 0.000000 0.000000 0.000000 4.989101 0.000000 0.000000 -7.483651 0.000000 0.000000 0.000000 0.000000 0.000000 0.000000 0.000000 0.000000 -4.989101 0.000000 0.000000 -7.483651 0.000000 0.000000 0.000000 0.000000 0.000000 0.000000 4.628777 0.000000 0.000000 1.802483 0.000000 0.000000 -1.184821 0.000000 0.000000 -4.066289 0.000000
0.000000 29.934695 -1.666667 0.000000 0.000000 0.000000 -0.653048 0.000000 0.000000 0.000000 0.000000 0.000000 0.000000 0.000000 0.000000 0.000000 0.000000 0.000000 0.000000 -1.088413 0.000000 0.000000 0.000000 0.000000 2.861707 0.000000 0.000000 0.000000 0.000000 0.000000 0.000000 0.000000 0.000000 0.000000 0.000000 0.000000 -2.861707 0.000000 0.000000 0.000000 0.000000 0.000000 0.000000 0.000000 0.000000 0.000000 0.000000 0.000000 3.434049 0.000000 0.000000 -5.151073 0.000000 0.000000 0.000000 0.000000 0.000000 0.000000 0.000000 0.000000 -3.434049 0.000000 0.000000 -5.151073 0.000000 0.000000 0.000000 0.000000 0.000000 0.000000 3.185120 0.000000 0.000000 0.241569 0.000000 0.000000 -2.723560 0.000000 0.000000 -5.445401 0.000000
0.000000 29.965660 -0.833333 0.000000 0.000000 0.000000 -0.343405 0.000000 0.000000 0.000000 0.000000 0.000000 0.000000 0.000000 0.000000 0.000000 0.000000 0.000000 0.000000 -0.572341 0.000000 0.000000 0.000000 0.000000 1.557987 0.000000 0.000000 0.000000 0.000000 0.000000 0.000000 0.000000 0.000000 0.000000 0.000000 0.000000 -1.557987 0.000000 0.000000 0.000000 0.000000 0.000000 0.000000 0.000000 0.000000 0.000000 0.000000 0.000000 1.869584 0.000000 0.000000 -2.804376 0.000000 0.000000 0.000000 0.000000 0.000000 0.000000 0.000000 0.000000 -1.869584 0.000000 0.000000 -2.804376 0.000000 0.000000 0.000000 0.000000 0.000000 0.000000 1.663034 0.000000 0.000000 -1.325293 0.000000 0.000000 -4.195235 0.000000 0.000000 -6.690430 0.000000
0.000000 29.997000 0.000000 0.000000 0.000000 0.000000 -0.030000 0.000000 0.000000 0.000000 0.000000 0.000000 0.000000 0.000000 0.000000 0.000000 0.000000 0.000000 0.000000 -0.049999 0.000000 0.000000 0.000000 0.000000 0.249996 0.000000 0.000000 0.000000 0.000000 0.000000 0.000000 0.000000 0.000000 0.000000 0.000000 0.000000 -0.249996 0.000000 0.000000 0.000000 0.000000 0.000000 0.000000 0.000000 0.000000 0.000000 0.000000 0.000000 0.299995 0.000000 0.000000 -0.449993 0.000000 0.000000 0.000000 0.000000 0.000000 0.000000 0.000000 0.000000 -0.299995 0.000000 0.000000 -0.449993 0.000000 0.000000 0.000000 0.000000 0.000000 0.000000 0.099998 0.000000 0.000000 -2.859522 0.000000 0.000000 -5.563610 0.000000 0.000000 -7.770717 0.000000
0.000000 30.028373 0.833333 0.000000 0.000000 0.000000 0.283735 0.000000 0.000000 0.000000 0.000000 0.000000 0.000000 0.000000 0.000000 0.000000 0.000000 0.000000 0.000000 0.472891 0.000000 0.000000 0.000000 0.000000 -1.058680 0.000000 0.000000 0.000000 0.000000 0.000000 0.000000 0.000000 0.000000 0.000000 0.000000 0.000000 1.058680 0.000000 0.000000 0.000000 0.000000 0.000000 0.000000 0.000000 0.000000 0.000000 0.000000 0.000000 -1.270416 0.000000 0.000000 -1.905624 0.000000 0.000000 0.000000 0.000000 0.000000 0.000000 0.000000 0.000000 1.270416 0.000000 0.000000 -1.905624 0.000000 0.000000 0.000000 0.000000 0.000000 0.000000 -1.465499 0.000000 0.000000 -4.323340 0.000000 0.000000 -6.794991 0.000000 0.000000 -8.659664 0.000000
0.000000 30.059436 1.666667 0.000000 0.000000 0.000000 0.594360 0.000000 0.000000 0.000000 0.000000 0.000000 0.000000 0.000000 0.000000 0.000000 0.000000 0.000000 0.000000 0.990600 0.000000 0.000000 0.000000 0.000000 -2.364455 0.000000 0.000000 0.000000 0.000000 0.000000 0.000000 0.000000 0.000000 0.000000 0.000000 0.000000 2.364455 0.000000 0.000000 0.000000 0.000000 0.000000 0.000000 0.000000 0.000000 0.000000 0.000000 0.000000 -2.837346 0.000000 0.000000 -4.256018 0.000000 0.000000 0.000000 0.000000 0.000000 0.000000 0.000000 0.000000 2.837346 0.000000 0.000000 -4.256018 0.000000 0.000000 0.000000 0.000000 0.000000 0.000000 -2.994911 0.000000 0.000000 -5.680704 0.000000 0.000000 -7.859056 0.000000 0.000000 -9.335382 0.000000
0.000000 30.089847 2.500000 0.000000 0.000000 0.000000 0.898473 0.000000 0.000000 0.000000 0.000000 0.000000 0.000000 0.000000 0.000000 0.000000 0.000000 0.000000 0.000000 1.497456 0.000000 0.000000 0.000000 0.000000 -3.663748 0.000000 0.000000 0.000000 0.000000 0.000000 0.000000 0.000000 0.000000 0.000000 0.000000 0.000000 3.663748 0.000000 0.000000 0.000000 0.000000 0.000000 0.000000 0.000000 0.000000 0.000000 0.000000 0.000000 -4.396498 0.000000 0.000000 -6.594747 0.000000 0.000000 0.000000 0.000000 0.000000 0.000000 0.000000 0.000000 4.396498 0.000000 0.000000 -6.594747 0.000000 0.000000 0.000000 0.000000 0.000000 0.000000 -4.450579 0.000000 0.000000 -6.898189 0.000000 0.000000 -8.729605 0.000000 0.000000 -9.781231 0.000000
0.000000 30.119274 3.333333 0.000000 0.000000 0.000000 1.192743 0.000000 0.000000 0.000000 0.000000 0.000000 0.000000 0.000000 0.000000 0.000000 0.000000 0.000000 0.000000 1.987905 0.000000 0.000000 0.000000 0.000000 -4.953000 0.000000 0.000000 0.000000 0.000000 0.000000 0.000000 0.000000 0.000000 0.000000 0.000000 0.000000 4.953000 0.000000 0.000000 0.000000 0.000000 0.000000 0.000000 0.000000 0.000000 0.000000 0.000000 0.000000 -5.943599 0.000000 0.000000 -8.915399 0.000000 0.000000 0.000000 0.000000 0.000000 0.000000 0.000000 0.000000 5.943599 0.000000 0.000000 -8.915399 0.000000 0.000000 0.000000 0.000000 0.000000 0.000000 -5.796658 0.000000 0.000000 -7.945818 0.000000 0.000000 -9.385202 0.000000 0.000000 -9.986234 0.000000
0.000000 30.147394 4.166667 0.000000 0.000000 0.000000 1.473945 0.000000 0.000000 0.000000 0.000000 0.000000 0.000000 0.000000 0.000000 0.000000 0.000000 0.000000 0.000000 2.456574 0.000000 0.000000 0.000000 0.000000 -6.228675 0.000000 0.000000 0.000000 0.000000 0.000000 0.000000 0.000000 0.000000 0.000000 0.000000 0.000000 6.228675 0.000000 0.000000 0.000000 0.000000 0.000000 0.000000 0.000000 0.000000 0.000000 0.000000 0.000000 -7.474410 0.000000 0.000000 -11.211615 0.000000 0.000000 0.000000 0.000000 0.000000 0.000000 0.000000 0.000000 7.474410 0.000000 0.000000 -11.211615 0.000000 0.000000 0.000000 0.000000 0.000000 0.000000 -7.000005 0.000000 0.000000 -8.797795 0.000000 0.000000 -9.809704 0.000000 0.000000 -9.945342 0.000000
0.000000 30.173900 5.000000 0.000000 0.000000 0.000000 1.738997 0.000000 0.000000 0.000000 0.000000 0.000000 0.000000 0.000000 0.000000 0.000000 0.000000 0.000000 0.000000 2.898329 0.000000 0.000000 0.000000 0.000000 -7.487278 0.000000 0.000000 0.000000 0.000000 0.000000 0.000000 0.000000 0.000000 0.000000 0.000000 0.000000 7.487278 0.000000 0.000000 0.000000 0.000000 0.000000 0.000000 0.000000 0.000000 0.000000 0.000000 0.000000 -8.984734 0.000000 0.000000 -13.477101 0.000000 0.000000 0.000000 0.000000 0.000000 0.000000 0.000000 0.000000 8.984734 0.000000 0.000000 -13.477101 0.000000 0.000000 0.000000 0.000000 0.000000 0.000000 -8.030988 0.000000 0.000000 -9.433141 0.000000 0.000000 -9.992659 0.000000 0.000000 -9.659563 0.000000
0.000000 30.198500 5.833333 0.000000 0.000000 0.000000 1.984997 0.000000 0.000000 0.000000 0.000000 0.000000 0.000000 0.000000 0.000000 0.000000 0.000000 0.000000 0.000000 3.308329 0.000000 0.000000 0.000000 0.000000 -8.725360 0.000000 0.000000 0.000000 0.000000 0.000000 0.000000 0.000000 0.000000 0.000000 0.000000 0.000000 8.725360 0.000000 0.000000 0.000000 0.000000 0.000000 0.000000 0.000000 0.000000 0.000000 0.000000 0.000000 -10.470431 0.000000 0.000000 -15.705647 0.000000 0.000000 0.000000 0.000000 0.000000 0.000000 0.000000 0.000000 10.470431 0.000000 0.000000 -15.705647 0.000000 0.000000 0.000000 0.000000 0.000000 0.000000 -8.864221 0.000000 0.000000 -9.836211 0.000000 0.000000 -9.929562 0.000000 0.000000 -9.135934 0.000000
0.000000 30.220925 6.666667 0.000000 0.000000 0.000000 2.209249 0.000000 0.000000 0.000000 0.000000 0.000000 0.000000 0.000000 0.000000 0.000000 0.000000 0.000000 0.000000 3.682082 0.000000 0.000000 0.000000 0.000000 -9.939525 0.000000 0.000000 0.000000 0.000000 0.000000 0.000000 0.000000 0.000000 0.000000 0.000000 0.000000 9.939525 0.000000 0.000000 0.000000 0.000000 0.000000 0.000000 0.000000 0.000000 0.000000 0.000000 0.000000 -11.927430 0.000000 0.000000 -17.891145 0.000000 0.000000 0.000000 0.000000 0.000000 0.000000 0.000000 0.000000 11.927430 0.000000 0.000000 -17.891145 0.000000 0.000000 0.000000 0.000000 0.000000 0.000000 -9.479188 0.000000 0.000000 -9.997082 0.000000 0.000000 -9.621966 0.000000 0.000000 -8.387348 0.000000
0.000000 30.240930 7.500000 0.000000 0.000000 0.000000 2.409296 0.000000 0.000000 0.000000 0.000000 0.000000 0.000000 0.000000 0.000000 0.000000 0.000000 0.000000 0.000000 4.015494 0.000000 0.000000 0.000000 0.000000 -11.126447 0.000000 0.000000 0.000000 0.000000 0.000000 0.000000 0.000000 0.000000 0.000000 0.000000 0.000000 11.126447 0.000000 0.000000 0.000000 0.000000 0.000000 0.000000 0.000000 0.000000 0.000000 0.000000 0.000000 -13.351737 0.000000 0.000000 -20.027605 0.000000 0.000000 0.000000 0.000000 0.000000 0.000000 0.000000 0.000000 13.351737 0.000000 0.000000 -20.027605 0.000000 0.000000 0.000000 0.000000 0.000000 0.000000 -9.860746 0.000000 0.000000 -9.911791 0.000000 0.000000 -9.077445 0.000000 0.000000 -7.432237 0.000000
0.000000 30.258295 8.333333 0.000000 0.000000 0.000000 2.582947 0.000000 0.000000 0.000000 0.000000 0.000000 0.000000 0.000000 0.000000 0.000000 0.000000 0.000000 0.000000 4.304911 0.000000 0.000000 0.000000 0.000000 -12.282872 0.000000 0.000000 0.000000 0.000000 0.000000 0.000000 0.000000 0.000000 0.000000 0.000000 0.000000 12.282872 0.000000 0.000000 0.000000 0.000000 0.000000 0.000000 0.000000 0.000000 0.000000 0.000000 0.000000 -14.739447 0.000000 0.000000 -22.109170 0.000000 0.000000 0.000000 0.000000 0.000000 0.000000 0.000000 0.000000 14.739447 0.000000 0.000000 -22.109170 0.000000 0.000000 0.000000 0.000000 0.000000 0.000000 -9.999500 0.000000 0.000000 -9.582439 0.000000 0.000000 -8.309407 0.000000 0.000000 -6.294120 0.000000
0.000000 30.272830 9.166667 0.000000 0.000000 0.000000 2.728297 0.000000 0.000000 0.000000 0.000000 0.000000 0.000000 0.000000 0.000000 0.000000 0.000000 0.000000 0.000000 4.547162 0.000000 0.000000 0.000000 0.000000 -13.405631 0.000000 0.000000 0.000000 0.000000 0.000000 0.000000 0.000000 0.000000 0.000000 0.000000 0.000000 13.405631 0.000000 0.000000 0.000000 0.000000 0.000000 0.000000 0.000000 0.000000 0.000000 0.000000 0.000000 -16.086757 0.000000 0.000000 -24.130136 0.000000 0.000000 0.000000 0.000000 0.000000 0.000000 0.000000 0.000000 16.086757 0.000000 0.000000 -24.130136 0.000000 0.000000 0.000000 0.000000 0.000000 0.000000 -9.892033 0.000000 0.000000 -9.017135 0.000000 0.000000 -7.336764 0.000000 0.000000 -5.001021 0.000000
0.000000 30.284376 10.000000 0.000000 0.000000 0.000000 2.843757 0.000000 0.000000 0.000000 0.000000 0.000000 0.000000 0.000000 0.000000 0.000000 0.000000 0.000000 0.000000 4.739594 0.000000 0.000000 0.000000 0.000000 -14.491646 0.000000 0.000000 0.000000 0.000000 0.000000 0.000000 0.000000 0.000000 0.000000 0.000000 0.000000 14.491646 0.000000 0.000000 0.000000 0.000000 0.000000 0.000000 0.000000 0.000000 0.000000 0.000000 0.000000 -17.389975 0.000000 0.000000 -26.084962 0.000000 0.000000 0.000000 0.000000 0.000000 0.000000 0.000000 0.000000 17.389975 0.000000 0.000000 -26.084962 0.000000 0.000000 0.000000 0.000000 0.000000 0.000000 -9.540991 0.000000 0.000000 -8.229800 0.000000 0.000000 -6.183465 0.000000 0.000000 -3.584780 0.000000
0.000000 30.292806 10.833333 0.000000 0.000000 0.000000 2.928059 0.000000 0.000000 0.000000 0.000000 0.000000 0.000000 0.000000 0.000000 0.000000 0.000000 0.000000 0.000000 4.880098 0.000000 0.000000 0.000000 0.000000 -15.537940 0.000000 0.000000 0.000000 0.000000 0.000000 0.000000 0.000000 0.000000 0.000000 0.000000 0.000000 15.537940 0.000000 0.000000 0.000000 0.000000 0.000000 0.000000 0.000000 0.000000 0.000000 0.000000 0.000000 -18.645528 0.000000 0.000000 -27.968292 0.000000 0.000000 0.000000 0.000000 0.000000 0.000000 0.000000 0.000000 18.645528 0.000000 0.000000 -27.968292 0.000000 0.000000 0.000000 0.000000 0.000000 0.000000 -8.955018 0.000000 0.000000 -7.239820 0.000000 0.000000 -4.877909 0.000000 0.000000 -2.080270 0.000000
0.000000 30.298028 11.666667 0.000000 0.000000 0.000000 2.980281 0.000000 0.000000 0.000000 0.000000 0.000000 0.000000 0.000000 0.000000 0.000000 0.000000 0.000000 0.000000 4.967135 0.000000 0.000000 0.000000 0.000000 -16.541646 0.000000 0.000000 0.000000 0.000000 0.000000 0.000000 0.000000 0.000000 0.000000 0.000000 0.000000 16.541646 0.000000 0.000000 0.000000 0.000000 0.000000 0.000000 0.000000 0.000000 0.000000 0.000000 0.000000 -19.849975 0.000000 0.000000 -29.774962 0.000000 0.000000 0.000000 0.000000 0.000000 0.000000 0.000000 0.000000 19.849975 0.000000 0.000000 -29.774962 0.000000 0.000000 0.000000 0.000000 0.000000 0.000000 -8.148543 0.000000 0.000000 -6.071571 0.000000 0.000000 -3.452243 0.000000 0.000000 -0.524537 0.000000
0.000000 30.299985 12.500000 0.000000 0.000000 0.000000 2.999850 0.000000 0.000000 0.000000 0.000000 0.000000 0.000000 0.000000 0.000000 0.000000 0.000000 0.000000 0.000000 4.999750 0.000000 0.000000 0.000000 0.000000 -17.500012 0.000000 0.000000 0.000000 0.000000 0.000000 0.000000 0.000000 0.000000 0.000000 0.000000 0.000000 17.500012 0.000000 0.000000 0.000000 0.000000 0.000000 0.000000 0.000000 0.000000 0.000000 0.000000 0.000000 -21.000014 0.000000 0.000000 -31.500021 0.000000 0.000000 0.000000 0.000000 0.000000 0.000000 0.000000 0.000000 21.000014 0.000000 0.000000 -31.500021 0.000000 0.000000 0.000000 0.000000 0.000000 0.000000 -7.141424 0.000000 0.000000 -4.753820 0.000000 0.000000 -1.941571 0.000000 0.000000 1.044112 0.000000
0.000000 30.298655 13.333333 0.000000 0.000000 0.000000 2.986552 0.000000 0.000000 0.000000 0.000000 0.000000 0.000000 0.000000 0.000000 0.000000 0.000000 0.000000 0.000000 4.977587 0.000000 0.000000 0.000000 0.000000 -18.410412 0.000000 0.000000 0.000000 0.000000 0.000000 0.000000 0.000000 0.000000 0.000000 0.000000 0.000000 18.410412 0.000000 0.000000 0.000000 0.000000 0.000000 0.000000 0.000000 0.000000 0.000000 0.000000 0.000000 -22.092494 0.000000 0.000000 -33.138741 0.000000 0.000000 0.000000 0.000000 0.000000 0.000000 0.000000 0.000000 22.092494 0.000000 0.000000 -33.138741 0.000000 0.000000 0.000000 0.000000 0.000000 0.000000 -5.958459 0.000000 0.000000 -3.319014 0.000000 0.000000 -0.383092 0.000000 0.000000 2.587051 0.000000
0.000000 30.294053 14.166667 0.000000 0.000000 0.000000 2.940533 0.000000 0.000000 0.000000 0.000000 0.000000 0.000000 0.000000 0.000000 0.000000 0.000000 0.000000 0.000000 4.900889 0.000000 0.000000 0.000000 0.000000 -19.270350 0.000000 0.000000 0.000000 0.000000 0.000000 0.000000 0.000000 0.000000 0.000000 0.000000 0.000000 19.270350 0.000000 0.000000 0.000000 0.000000 0.000000 0.000000 0.000000 0.000000 0.000000 0.000000 0.000000 -23.124420 0.000000 0.000000 -34.686630 0.000000 0.000000 0.000000 0.000000 0.000000 0.000000 0.000000 0.000000 23.124420 0.000000 0.000000 -34.686630 0.000000 0.000000 0.000000 0.000000 0.000000 0.000000 -4.628777 0.000000 0.000000 -1.802483 0.000000 0.000000 1.184821 0.000000 0.000000 4.066289 0.000000
0.000000 30.286230 15.000000 0.000000 0.000000 0.000000 2.862297 0.000000 0.000000 0.000000 0.000000 0.000000 0.000000 0.000000 0.000000 0.000000 0.000000 0.000000 0.000000 4.770495 0.000000 0.000000 0.000000 0.000000 -20.077470 0.000000 0.000000 0.000000 0.000000 0.000000 0.000000 0.000000 0.000000 0.000000 0.000000 0.000000 20.077470 0.000000 0.000000 0.000000 0.000000 0.000000 0.000000 0.000000 0.000000 0.000000 0.000000 0.000000 -24.092964 0.000000 0.000000 -36.139446 0.000000 0.000000 0.000000 0.000000 0.000000 0.000000 0.000000 0.000000 24.092964 0.000000 0.000000 -36.139446 0.000000 0.000000 0.000000 0.000000 0.000000 0.000000 -3.185120 0.000000 0.000000 -0.241569 0.000000 0.000000 2.723560 0.000000 0.000000 5.445401 0.000000
0.000000 30.275270 15.833333 0.000000 0.000000 0.000000 2.752701 0.000000 0.000000 0.000000 0.000000 0.000000 0.000000 0.000000 0.000000 0.000000 0.000000 0.000000 0.000000 4.587835 0.000000 0.000000 0.000000 0.000000 -20.829558 0.000000 0.000000 0.000000 0.000000 0.000000 0.000000 0.000000 0.000000 0.000000 0.000000 0.000000 20.829558 0.000000 0.000000 0.000000 0.000000 0.000000 0.000000 0.000000 0.000000 0.000000 0.000000 0.000000 -24.995470 0.000000 0.000000 -37.493205 0.000000 0.000000 0.000000 0.000000 0.000000 0.000000 0.000000 0.000000 24.995470 0.000000 0.000000 -37.493205 0.000000 0.000000 0.000000 0.000000 0.000000 0.000000 -1.663034 0.000000 0.000000 1.325293 0.000000 0.000000 4.195235 0.000000 0.000000 6.690430 0.000000
0.000000 30.261295 16.666667 0.000000 0.000000 0.000000 2.612946 0.000000 0.000000 0.000000 0.000000 0.000000 0.000000 0.000000 0.000000 0.000000 0.000000 0.000000 0.000000 4.354910 0.000000 0.000000 0.000000 0.000000 -21.524555 0.000000 0.000000 0.000000 0.000000 0.000000 0.000000 0.000000 0.000000 0.000000 0.000000 0.000000 21.524555 0.000000 0.000000 0.000000 0.000000 0.000000 0.000000 0.000000 0.000000 0.000000 0.000000 0.000000 -25.829466 0.000000 0.000000 -38.744198 0.000000 0.000000 0.000000 0.000000 0.000000 0.000000 0.000000 0.000000 25.829466 0.000000 0.000000 -38.744198 0.000000 0.000000 0.000000 0.000000 0.000000 0.000000 -0.099998 0.000000 0.000000 2.859522 0.000000 0.000000 5.563610 0.000000 0.000000 7.770717 0.000000
0.000000 30.244456 17.500000 0.000000 0.000000 0.000000 2.444563 0.000000 0.000000 0.000000 0.000000 0.000000 0.000000 0.000000 0.000000 0.000000 0.000000 0.000000 0.000000 4.074271 0.000000 0.000000 0.000000 0.000000 -22.160554 0.000000 0.000000 0.000000 0.000000 0.000000 0.000000 0.000000 0.000000 0.000000 0.000000 0.000000 22.160554 0.000000 0.000000 0.000000 0.000000 0.000000 0.000000 0.000000 0.000000 0.000000 0.000000 0.000000 -26.592664 0.000000 0.000000 -39.888997 0.000000 0.000000 0.000000 0.000000 0.000000 0.000000 0.000000 0.000000 26.592664 0.000000 0.000000 -39.888997 0.000000 0.000000 0.000000 0.000000 0.000000 0.000000 1.465499 0.000000 0.000000 4.323340 0.000000 0.000000 6.794991 0.000000 0.000000 8.659664 0.000000
0.000000 30.224940 18.333333 0.000000 0.000000 0.000000 2.249397 0.000000 0.000000 0.000000 0.000000 0.000000 0.000000 0.000000 0.000000 0.000000 0.000000 0.000000 0.000000 3.748994 0.000000 0.000000 0.000000 0.000000 -22.735812 0.000000 0.000000 0.000000 0.000000 0.000000 0.000000 0.000000 0.000000 0.000000 0.000000 0.000000 22.735812 0.000000 0.000000 0.000000 0.000000 0.000000 0.000000 0.000000 0.000000 0.000000 0.000000 0.000000 -27.282974 0.000000 0.000000 -40.924462 0.000000 0.000000 0.000000 0.000000 0.000000 0.000000 0.000000 0.000000 27.282974 0.000000 0.000000 -40.924462 0.000000 0.000000 0.000000 0.000000 0.000000 0.000000 2.994911 0.000000 0.000000 5.680704 0.000000 0.000000 7.859056 0.000000 0.000000 9.335382 0.000000
0.000000 30.202959 19.166667 0.000000 0.000000 0.000000 2.029585 0.000000 0.000000 0.000000 0.000000 0.000000 0.000000 0.000000 0.000000 0.000000 0.000000 0.000000 0.000000 3.382642 0.000000 0.000000 0.000000 0.000000 -23.248753 0.000000 0.000000 0.000000 0.000000 0.000000 0.000000 0.000000 0.000000 0.000000 0.000000 0.000000 23.248753 0.000000 0.000000 0.000000 0.000000 0.000000 0.000000 0.000000 0.000000 0.000000 0.000000 0.000000 -27.898504 0.000000 0.000000 -41.847756 0.000000 0.000000 0.000000 0.000000 0.000000 0.000000 0.000000 0.000000 27.898504 0.000000 0.000000 -41.847756 0.000000 0.000000 0.000000 0.000000 0.000000 0.000000 4.450579 0.000000 0.000000 6.898189 0.000000 0.000000 8.729605 0.000000 0.000000 9.781231 0.000000
0.000000 30.178754 20.000000 0.000000 0.000000 0.000000 1.787538 0.000000 0.000000 0.000000 0.000000 0.000000 0.000000 0.000000 0.000000 0.000000 0.000000 0.000000 0.000000 2.979229 0.000000 0.000000 0.000000 0.000000 -23.697971 0.000000 0.000000 0.000000 0.000000 0.000000 0.000000 0.000000 0.000000 0.000000 0.000000 0.000000 23.697971 0.000000 0.000000 0.000000 0.000000 0.000000 0.000000 0.000000 0.000000 0.000000 0.000000 0.000000 -28.437565 0.000000 0.000000 -42.656348 0.000000 0.000000 0.000000 0.000000 0.000000 0.000000 0.000000 0.000000 28.437565 0.000000 0.000000 -42.656348 0.000000 0.000000 0.000000 0.000000 0.000000 0.000000 5.796658 0.000000 0.000000 7.945818 0.000000 0.000000 9.385202 0.000000 0.000000 9.986234 0.000000
0.000000 30.152591 20.833333 0.000000 0.000000 0.000000 1.525905 0.000000 0.000000 0.000000 0.000000 0.000000 0.000000 0.000000 0.000000 0.000000 0.000000 0.000000 0.000000 2.543176 0.000000 0.000000 0.000000 0.000000 -24.082235 0.000000 0.000000 0.000000 0.000000 0.000000 0.000000 0.000000 0.000000 0.000000 0.000000 0.000000 24.082235 0.000000 0.000000 0.000000 0.000000 0.000000 0.000000 0.000000 0.000000 0.000000 0.000000 0.000000 -28.898681 0.000000 0.000000 -43.348022 0.000000 0.000000 0.000000 0.000000 0.000000 0.000000 0.000000 0.000000 28.898681 0.000000 0.000000 -43.348022 0.000000 0.000000 0.000000 0.000000 0.000000 0.000000 7.000005 0.000000 0.000000 8.797795 0.000000 0.000000 9.809704 0.000000 0.000000 9.945342 0.000000
0.000000 30.124755 21.666667 0.000000 0.000000 0.000000 1.247555 0.000000 0.000000 0.000000 0.000000 0.000000 0.000000 0.000000 0.000000 0.000000 0.000000 0.000000 0.000000 2.079258 0.000000 0.000000 0.000000 0.000000 -24.400490 0.000000 0.000000 0.000000 0.000000 0.000000 0.000000 0.000000 0.000000 0.000000 0.000000 0.000000 24.400490 0.000000 0.000000 0.000000 0.000000 0.000000 0.000000 0.000000 0.000000 0.000000 0.000000 0.000000 -29.280588 0.000000 0.000000 -43.920883 0.000000 0.000000 0.000000 0.000000 0.000000 0.000000 0.000000 0.000000 29.280588 0.000000 0.000000 -43.920883 0.000000 0.000000 0.000000 0.000000 0.000000 0.000000 8.030988 0.000000 0.000000 9.433141 0.000000 0.000000 9.992659 0.000000 0.000000 9.659563 0.000000
0.000000 30.095554 22.500000 0.000000 0.000000 0.000000 0.955536 0.000000 0.000000 0.000000 0.000000 0.000000 0.000000 0.000000 0.000000 0.000000 0.000000 0.000000 0.000000 1.592560 0.000000 0.000000 0.000000 0.000000 -24.651866 0.000000 0.000000 0.000000 0.000000 0.000000 0.000000 0.000000 0.000000 0.000000 0.000000 0.000000 24.651866 0.000000 0.000000 0.000000 0.000000 0.000000 0.000000 0.000000 0.000000 0.000000 0.000000 0.000000 -29.582239 0.000000 0.000000 -44.373359 0.000000 0.000000 0.000000 0.000000 0.000000 0.000000 0.000000 0.000000 29.582239 0.000000 0.000000 -44.373359 0.000000 0.000000 0.000000 0.000000 0.000000 0.000000 8.864221 0.000000 0.000000 9.836211 0.000000 0.000000 9.929562 0.000000 0.000000 9.135934 0.000000
0.000000 30.065305 23.333333 0.000000 0.000000 0.000000 0.653048 0.000000 0.000000 0.000000 0.000000 0.000000 0.000000 0.000000 0.000000 0.000000 0.000000 0.000000 0.000000 1.088413 0.000000 0.000000 0.000000 0.000000 -24.835673 0.000000 0.000000 0.000000 0.000000 0.000000 0.000000 0.000000 0.000000 0.000000 0.000000 0.000000 24.835673 0.000000 0.000000 0.000000 0.000000 0.000000 0.000000 0.000000 0.000000 0.000000 0.000000 0.000000 -29.802807 0.000000 0.000000 -44.704211 0.000000 0.000000 0.000000 0.000000 0.000000 0.000000 0.000000 0.000000 29.802807 0.000000 0.000000 -44.704211 0.000000 0.000000 0.000000 0.000000 0.000000 0.000000 9.479188 0.000000 0.000000 9.997082 0.000000 0.000000 9.621966 0.000000 0.000000 8.387348 0.000000
0.000000 30.034340 24.166667 0.000000 0.000000 0.000000 0.343405 0.000000 0.000000 0.000000 0.000000 0.000000 0.000000 0.000000 0.000000 0.000000 0.000000 0.000000 0.000000 0.572341 0.000000 0.000000 0.000000 0.000000 -24.951406 0.000000 0.000000 0.000000 0.000000 0.000000 0.000000 0.000000 0.000000 0.000000 0.000000 0.000000 24.951406 0.000000 0.000000 0.000000 0.000000 0.000000 0.000000 0.000000 0.000000 0.000000 0.000000 0.000000 -29.941688 0.000000 0.000000 -44.912531 0.000000 0.000000 0.000000 0.000000 0.000000 0.000000 0.000000 0.000000 29.941688 0.000000 0.000000 -44.912531 0.000000 0.000000 0.000000 0.000000 0.000000 0.000000 9.860746 0.000000 0.000000 9.911791 0.000000 0.000000 9.077445 0.000000 0.000000 7.432237 0.000000
0.000000 30.003000 25.000000 0.000000 0.000000 0.000000 0.030000 0.000000 0.000000 0.000000 0.000000 0.000000 0.000000 0.000000 0.000000 0.000000 0.000000 0.000000 0.000000 0.049999 0.000000 0.000000 0.000000 0.000000 -24.998750 0.000000 0.000000 0.000000 0.000000 0.000000 0.000000 0.000000 0.000000 0.000000 0.000000 0.000000 24.998750 0.000000 0.000000 0.000000 0.000000 0.000000 0.000000 0.000000 0.000000 0.000000 0.000000 0.000000 -29.998500 0.000000 0.000000 -44.997750 0.000000 0.000000 0.000000 0.000000 0.000000 0.000000 0.000000 0.000000 29.998500 0.000000 0.000000 -44.997750 0.000000 0.000000 0.000000 0.000000 0.000000 0.000000 9.999500 0.000000 0.000000 9.582439 0.000000 0.000000 8.309407 0.000000 0.000000 6.294120 0.000000
0.000000 29.971627 25.833333 0.000000 0.000000 0.000000 -0.283735 0.000000 0.000000 0.000000 0.000000 0.000000 0.000000 0.000000 0.000000 0.000000 0.000000 0.000000 0.000000 -0.472891 0.000000 0.000000 0.000000 0.000000 -24.977574 0.000000 0.000000 0.000000 0.000000 0.000000 0.000000 0.000000 0.000000 0.000000 0.000000 0.000000 24.977574 0.000000 0.000000 0.000000 0.000000 0.000000 0.000000 0.000000 0.000000 0.000000 0.000000 0.000000 -29.973089 0.000000 0.000000 -44.959633 0.000000 0.000000 0.000000 0.000000 0.000000 0.000000 0.000000 0.000000 29.973089 0.000000 0.000000 -44.959633 0.000000 0.000000 0.000000 0.000000 0.000000 0.000000 9.892033 0.000000 0.000000 9.017135 0.000000 0.000000 7.336764 0.000000 0.000000 5.001021 0.000000
0.000000 29.940564 26.666667 0.000000 0.000000 0.000000 -0.594360 0.000000 0.000000 0.000000 0.000000 0.000000 0.000000 0.000000 0.000000 0.000000 0.000000 0.000000 0.000000 -0.990600 0.000000 0.000000 0.000000 0.000000 -24.887936 0.000000 0.000000 0.000000 0.000000 0.000000 0.000000 0.000000 0.000000 0.000000 0.000000 0.000000 24.887936 0.000000 0.000000 0.000000 0.000000 0.000000 0.000000 0.000000 0.000000 0.000000 0.000000 0.000000 -29.865523 0.000000 0.000000 -44.798285 0.000000 0.000000 0.000000 0.000000 0.000000 0.000000 0.000000 0.000000 29.865523 0.000000 0.000000 -44.798285 0.000000 0.000000 0.000000 0.000000 0.000000 0.000000 9.540991 0.000000 0.000000 8.229800 0.000000 0.000000 6.183465 0.000000 0.000000 3.584780 0.000000
0.000000 29.910153 27.500000 0.000000 0.000000 0.000000 -0.898473 0.000000 0.000000 0.000000 0.000000 0.000000 0.000000 0.000000 0.000000 0.000000 0.000000 0.000000 0.000000 -1.497456 0.000000 0.000000 0.000000 0.000000 -24.730082 0.000000 0.000000 0.000000 0.000000 0.000000 0.000000 0.000000 0.000000 0.000000 0.000000 0.000000 24.730082 0.000000 0.000000 0.000000 0.000000 0.000000 0.000000 0.000000 0.000000 0.000000 0.000000 0.000000 -29.676098 0.000000 0.000000 -44.514147 0.000000 0.000000 0.000000 0.000000 0.000000 0.000000 0.000000 0.000000 29.676098 0.000000 0.000000 -44.514147 0.000000 0.000000 0.000000 0.000000 0.000000 0.000000 8.955018 0.000000 0.000000 7.239820 0.000000 0.000000 4.877909 0.000000 0.000000 2.080270 0.000000
0.000000 29.880726 28.333333 0.000000 0.000000 0.000000 -1.192743 0.000000 0.000000 0.000000 0.000000 0.000000 0.000000 0.000000 0.000000 0.000000 0.000000 0.000000 0.000000 -1.987905 0.000000 0.000000 0.000000 0.000000 -24.504444 0.000000 0.000000 0.000000 0.000000 0.000000 0.000000 0.000000 0.000000 0.000000 0.000000 0.000000 24.504444 0.000000 0.000000 0.000000 0.000000 0.000000 0.000000 0.000000 0.000000 0.000000 0.000000 0.000000 -29.405333 0.000000 0.000000 -44.108000 0.000000 0.000000 0.000000 0.000000 0.000000 0.000000 0.000000 0.000000 29.405333 0.000000 0.000000 -44.108000 0.000000 0.000000 0.000000 0.000000 0.000000 0.000000 8.148543 0.000000 0.000000 6.071571 0.000000 0.000000 3.452243 0.000000 0.000000 0.524537 0.000000
0.000000 29.852606 29.166667 0.000000 0.000000 0.000000 -1.473945 0.000000 0.000000 0.000000 0.000000 0.000000 0.000000 0.000000 0.000000 0.000000 0.000000 0.000000 0.000000 -2.456574 0.000000 0.000000 0.000000 0.000000 -24.211642 0.000000 0.000000 0.000000 0.000000 0.000000 0.000000 0.000000 0.000000 0.000000 0.000000 0.000000 24.211642 0.000000 0.000000 0.000000 0.000000 0.000000 0.000000 0.000000 0.000000 0.000000 0.000000 0.000000 -29.053970 0.000000 0.000000 -43.580955 0.000000 0.000000 0.000000 0.000000 0.000000 0.000000 0.000000 0.000000 29.053970 0.000000 0.000000 -43.580955 0.000000 0.000000 0.000000 0.000000 0.000000 0.000000 7.141424 0.000000 0.000000 4.753820 0.000000 0.000000 1.941571 0.000000 0.000000 -1.044112 0.000000
0.000000 29.826100 30.000000 0.000000 0.000000 0.000000 -1.738997 0.000000 0.000000 0.000000 0.000000 0.000000 0.000000 0.000000 0.000000 0.000000 0.000000 0.000000 0.000000 -2.898329 0.000000 0.000000 0.000000 0.000000 -23.852477 0.000000 0.000000 0.000000 0.000000 0.000000 0.000000 0.000000 0.000000 0.000000 0.000000 0.000000 23.852477 0.000000 0.000000 0.000000 0.000000 0.000000 0.000000 0.000000 0.000000 0.000000 0.000000 0.000000 -28.622972 0.000000 0.000000 -42.934459 0.000000 0.000000 0.000000 0.000000 0.000000 0.000000 0.000000 0.000000 28.622972 0.000000 0.000000 -42.934459 0.000000 0.000000 0.000000 0.000000 0.000000 0.000000 5.958459 0.000000 0.000000 3.319014 0.000000 0.000000 0.383092 0.000000 0.000000 -2.587051 0.000000
0.000000 29.801500 30.833333 0.000000 0.000000 0.000000 -1.984997 0.000000 0.000000 0.000000 0.000000 0.000000 0.000000 0.000000 0.000000 0.000000 0.000000 0.000000 0.000000 -3.308329 0.000000 0.000000 0.000000 0.000000 -23.427934 0.000000 0.000000 0.000000 0.000000 0.000000 0.000000 0.000000 0.000000 0.000000 0.000000 0.000000 23.427934 0.000000 0.000000 0.000000 0.000000 0.000000 0.000000 0.000000 0.000000 0.000000 0.000000 0.000000 -28.113521 0.000000 0.000000 -42.170282 0.000000 0.000000 0.000000 0.000000 0.000000 0.000000 0.000000 0.000000 28.113521 0.000000 0.000000 -42.170282 0.000000 0.000000 0.000000 0.000000 0.000000 0.000000 4.628777 0.000000 0.000000 1.802483 0.000000 0.000000 -1.184821 0.000000 0.000000 -4.066289 0.000000
0.000000 29.779075 31.666667 0.000000 0.000000 0.000000 -2.209249 0.000000 0.000000 0.000000 0.000000 0.000000 0.000000 0.000000 0.000000 0.000000 0.000000 0.000000 0.000000 -3.682082 0.000000 0.000000 0.000000 0.000000 -22.939177 0.000000 0.000000 0.000000 0.000000 0.000000 0.000000 0.000000 0.000000 0.000000 0.000000 0.000000 22.939177 0.000000 0.000000 0.000000 0.000000 0.000000 0.000000 0.000000 0.000000 0.000000 0.000000 0.000000 -27.527012 0.000000 0.000000 -41.290519 0.000000 0.000000 0.000000 0.000000 0.000000 0.000000 0.000000 0.000000 27.527012 0.000000 0.000000 -41.290519 0.000000 0.000000 0.000000 0.000000 0.000000 0.000000 3.185120 0.000000 0.000000 0.241569 0.000000 0.000000 -2.723560 0.000000 0.000000 -5.445401 0.000000
0.000000 29.759070 32.500000 0.000000 0.000000 0.000000 -2.409296 0.000000 0.000000 0.000000 0.000000 0.000000 0.000000 0.000000 0.000000 0.000000 0.000000 0.000000 0.000000 -4.015494 0.000000 0.000000 0.000000 0.000000 -22.387545 0.000000 0.000000 0.000000 0.000000 0.000000 0.000000 0.000000 0.000000 0.000000 0.000000 0.000000 22.387545 0.000000 0.000000 0.000000 0.000000 0.000000 0.000000 0.000000 0.000000 0.000000 0.000000 0.000000 -26.865054 0.000000 0.000000 -40.297581 0.000000 0.000000 0.000000 0.000000 0.000000 0.000000 0.000000 0.000000 26.865054 0.000000 0.000000 -40.297581 0.000000 0.000000 0.000000 0.000000 0.000000 0.000000 1.663034 0.000000 0.000000 -1.325293 0.000000 0.000000 -4.195235 0.000000 0.000000 -6.690430 0.000000
0.000000 29.741705 33.333333 0.000000 0.000000 0.000000 -2.582947 0.000000 0.000000 0.000000 0.000000 0.000000 0.000000 0.000000 0.000000 0.000000 0.000000 0.000000 0.000000 -4.304911 0.000000 0.000000 0.000000 0.000000 -21.774550 0.000000 0.000000 0.000000 0.000000 0.000000 0.000000 0.000000 0.000000 0.000000 0.000000 0.000000 21.774550 0.000000 0.000000 0.000000 0.000000 0.000000 0.000000 0.000000 0.000000 0.000000 0.000000 0.000000 -26.129461 0.000000 0.000000 -39.194191 0.000000 0.000000 0.000000 0.000000 0.000000 0.000000 0.000000 0.000000 26.129461 0.000000 0.000000 -39.194191 0.000000 0.000000 0.000000 0.000000 0.000000 0.000000 0.099998 0.000000 0.000000 -2.859522 0.000000 0.000000 -5.563610 0.000000 0.000000 -7.770717 0.000000
0.000000 29.727170 34.166667 0.000000 0.000000 0.000000 -2.728297 0.000000 0.000000 0.000000 0.000000 0.000000 0.000000 0.000000 0.000000 0.000000 0.000000 0.000000 0.000000 -4.547162 0.000000 0.000000 0.000000 0.000000 -21.101873 0.000000 0.000000 0.000000 0.000000 0.000000 0.000000 0.000000 0.000000 0.000000 0.000000 0.000000 21.101873 0.000000 0.000000 0.000000 0.000000 0.000000 0.000000 0.000000 0.000000 0.000000 0.000000 0.000000 -25.322248 0.000000 0.000000 -37.983372 0.000000 0.000000 0.000000 0.000000 0.000000 0.000000 0.000000 0.000000 25.322248 0.000000 0.000000 -37.983372 0.000000 0.000000 0.000000 0.000000 0.000000 0.000000 -1.465499 0.000000 0.000000 -4.323340 0.000000 0.000000 -6.794991 0.000000 0.000000 -8.659664 0.000000
0.000000 29.715624 35.000000 0.000000 0.000000 0.000000 -2.843757 0.000000 0.000000 0.000000 0.000000 0.000000 0.000000 0.000000 0.000000 0.000000 0.000000 0.000000 0.000000 -4.739594 0.000000 0.000000 0.000000 0.000000 -20.371357 0.000000 0.000000 0.000000 0.000000 0.000000 0.000000 0.000000 0.000000 0.000000 0.000000 0.000000 20.371357 0.000000 0.000000 0.000000 0.000000 0.000000 0.000000 0.000000 0.000000 0.000000 0.000000 0.000000 -24.445629 0.000000 0.000000 -36.668443 0.000000 0.000000 0.000000 0.000000 0.000000 0.000000 0.000000 0.000000 24.445629 0.000000 0.000000 -36.668443 0.000000 0.000000 0.000000 0.000000 0.000000 0.000000 -2.994911 0.000000 0.000000 -5.680704 0.000000 0.000000 -7.859056 0.000000 0.000000 -9.335382 0.000000
0.000000 29.707194 35.833333 0.000000 0.000000 0.000000 -2.928059 0.000000 0.000000 0.000000 0.000000 0.000000 0.000000 0.000000 0.000000 0.000000 0.000000 0.000000 0.000000 -4.880098 0.000000 0.000000 0.000000 0.000000 -19.585005 0.000000 0.000000 0.000000 0.000000 0.000000 0.000000 0.000000 0.000000 0.000000 0.000000 0.000000 19.585005 0.000000 0.000000 0.000000 0.000000 0.000000 0.000000 0.000000 0.000000 0.000000 0.000000 0.000000 -23.502006 0.000000 0.000000 -35.253009 0.000000 0.000000 0.000000 0.000000 0.000000 0.000000 0.000000 0.000000 23.502006 0.000000 0.000000 -35.253009 0.000000 0.000000 0.000000 0.000000 0.000000 0.000000 -4.450579 0.000000 0.000000 -6.898189 0.000000 0.000000 -8.729605 0.000000 0.000000 -9.781231 0.000000
0.000000 29.701972 36.666667 0.000000 0.000000 0.000000 -2.980281 0.000000 0.000000 0.000000 0.000000 0.000000 0.000000 0.000000 0.000000 0.000000 0.000000 0.000000 0.000000 -4.967135 0.000000 0.000000 0.000000 0.000000 -18.744972 0.000000 0.000000 0.000000 0.000000 0.000000 0.000000 0.000000 0.000000 0.000000 0.000000 0.000000 18.744972 0.000000 0.000000 0.000000 0.000000 0.000000 0.000000 0.000000 0.000000 0.000000 0.000000 0.000000 -22.493966 0.000000 0.000000 -33.740949 0.000000 0.000000 0.000000 0.000000 0.000000 0.000000 0.000000 0.000000 22.493966 0.000000 0.000000 -33.740949 0.000000 0.000000 0.000000 0.000000 0.000000 0.000000 -5.796658 0.000000 0.000000 -7.945818 0.000000 0.000000 -9.385202 0.000000 0.000000 -9.986234 0.000000
0.000000 29.700015 37.500000 0.000000 0.000000 0.000000 -2.999850 0.000000 0.000000 0.000000 0.000000 0.000000 0.000000 0.000000 0.000000 0.000000 0.000000 0.000000 0.000000 -4.999750 0.000000 0.000000 0.000000 0.000000 -17.853559 0.000000 0.000000 0.000000 0.000000 0.000000 0.000000 0.000000 0.000000 0.000000 0.000000 0.000000 17.853559 0.000000 0.000000 0.000000 0.000000 0.000000 0.000000 0.000000 0.000000 0.000000 0.000000 0.000000 -21.424271 0.000000 0.000000 -32.136407 0.000000 0.000000 0.000000 0.000000 0.000000 0.000000 0.000000 0.000000 21.424271 0.000000 0.000000 -32.136407 0.000000 0.000000 0.000000 0.000000 0.000000 0.000000 -7.000005 0.000000 0.000000 -8.797795 0.000000 0.000000 -9.809704 0.000000 0.000000 -9.945342 0.000000
0.000000 29.701345 38.333333 0.000000 0.000000 0.000000 -2.986552 0.000000 0.000000 0.000000 0.000000 0.000000 0.000000 0.000000 0.000000 0.000000 0.000000 0.000000 0.000000 -4.977587 0.000000 0.000000 0.000000 0.000000 -16.913212 0.000000 0.000000 0.000000 0.000000 0.000000 0.000000 0.000000 0.000000 0.000000 0.000000 0.000000 16.913212 0.000000 0.000000 0.000000 0.000000 0.000000 0.000000 0.000000 0.000000 0.000000 0.000000 0.000000 -20.295854 0.000000 0.000000 -30.443781 0.000000 0.000000 0.000000 0.000000 0.000000 0.000000 0.000000 0.000000 20.295854 0.000000 0.000000 -30.443781 0.000000 0.000000 0.000000 0.000000 0.000000 0.000000 -8.030988 0.000000 0.000000 -9.433141 0.000000 0.000000 -9.992659 0.000000 0.000000 -9.659563 0.000000
0.000000 29.705947 39.166667 0.000000 0.000000 0.000000 -2.940533 0.000000 0.000000 0.000000 0.000000 0.000000 0.000000 0.000000 0.000000 0.000000 0.000000 0.000000 0.000000 -4.900889 0.000000 0.000000 0.000000 0.000000 -15.926506 0.000000 0.000000 0.000000 0.000000 0.000000 0.000000 0.000000 0.000000 0.000000 0.000000 0.000000 15.926506 0.000000 0.000000 0.000000 0.000000 0.000000 0.000000 0.000000 0.000000 0.000000 0.000000 0.000000 -19.111808 0.000000 0.000000 -28.667711 0.000000 0.000000 0.000000 0.000000 0.000000 0.000000 0.000000 0.000000 19.111808 0.000000 0.000000 -28.667711 0.000000 0.000000 0.000000 0.000000 0.000000 0.000000 -8.864221 0.000000 0.000000 -9.836211 0.000000 0.000000 -9.929562 0.000000 0.000000 -9.135934 0.000000
0.000000 29.713770 40.000000 0.000000 0.000000 0.000000 -2.862297 0.000000 0.000000 0.000000 0.000000 0.000000 0.000000 0.000000 0.000000 0.000000 0.000000 0.000000 0.000000 -4.770495 0.000000 0.000000 0.000000 0.000000 -14.896147 0.000000 0.000000 0.000000 0.000000 0.000000 0.000000 0.000000 0.000000 0.000000 0.000000 0.000000 14.896147 0.000000 0.000000 0.000000 0.000000 0.000000 0.000000 0.000000 0.000000 0.000000 0.000000 0.000000 -17.875377 0.000000 0.000000 -26.813065 0.000000 0.000000 0.000000 0.000000 0.000000 0.000000 0.000000 0.000000 17.875377 0.000000 0.000000 -26.813065 0.000000 0.000000 0.000000 0.000000 0.000000 0.000000 -9.479188 0.000000 0.000000 -9.997082 0.000000 0.000000 -9.621966 0.000000 0.000000 -8.387348 0.000000
0.000000 29.724730 40.833333 0.000000 0.000000 0.000000 -2.752701 0.000000 0.000000 0.000000 0.000000 0.000000 0.000000 0.000000 0.000000 0.000000 0.000000 0.000000 0.000000 -4.587835 0.000000 0.000000 0.000000 0.000000 -13.824959 0.000000 0.000000 0.000000 0.000000 0.000000 0.000000 0.000000 0.000000 0.000000 0.000000 0.000000 13.824959 0.000000 0.000000 0.000000 0.000000 0.000000 0.000000 0.000000 0.000000 0.000000 0.000000 0.000000 -16.589951 0.000000 0.000000 -24.884927 0.000000 0.000000 0.000000 0.000000 0.000000 0.000000 0.000000 0.000000 16.589951 0.000000 0.000000 -24.884927 0.000000 0.000000 0.000000 0.000000 0.000000 0.000000 -9.860746 0.000000 0.000000 -9.911791 0.000000 0.000000 -9.077445 0.000000 0.000000 -7.432237 0.000000
0.000000 29.738705 41.666667 0.000000 0.000000 0.000000 -2.612946 0.000000 0.000000 0.000000 0.000000 0.000000 0.000000 0.000000 0.000000 0.000000 0.000000 0.000000 0.000000 -4.354910 0.000000 0.000000 0.000000 0.000000 -12.715878 0.000000 0.000000 0.000000 0.000000 0.000000 0.000000 0.000000 0.000000 0.000000 0.000000 0.000000 12.715878 0.000000 0.000000 0.000000 0.000000 0.000000 0.000000 0.000000 0.000000 0.000000 0.000000 0.000000 -15.259053 0.000000 0.000000 -22.888580 0.000000 0.000000 0.000000 0.000000 0.000000 0.000000 0.000000 0.000000 15.259053 0.000000 0.000000 -22.888580 0.000000 0.000000 0.000000 0.000000 0.000000 0.000000 -9.999500 0.000000 0.000000 -9.582439 0.000000 0.000000 -8.309407 0.000000 0.000000 -6.294120 0.000000
0.000000 29.755544 42.500000 0.000000 0.000000 0.000000 -2.444563 0.000000 0.000000 0.000000 0.000000 0.000000 0.000000 0.000000 0.000000 0.000000 0.000000 0.000000 0.000000 -4.074271 0.000000 0.000000 0.000000 0.000000 -11.571943 0.000000 0.000000 0.000000 0.000000 0.000000 0.000000 0.000000 0.000000 0.000000 0.000000 0.000000 11.571943 0.000000 0.000000 0.000000 0.000000 0.000000 0.000000 0.000000 0.000000 0.000000 0.000000 0.000000 -13.886332 0.000000 0.000000 -20.829497 0.000000 0.000000 0.000000 0.000000 0.000000 0.000000 0.000000 0.000000 13.886332 0.000000 0.000000 -20.829497 0.000000 0.000000 0.000000 0.000000 0.000000 0.000000 -9.892033 0.000000 0.000000 -9.017135 0.000000 0.000000 -7.336764 0.000000 0.000000 -5.001021 0.000000
0.000000 29.775060 43.333333 0.000000 0.000000 0.000000 -2.249397 0.000000 0.000000 0.000000 0.000000 0.000000 0.000000 0.000000 0.000000 0.000000 0.000000 0.000000 0.000000 -3.748994 0.000000 0.000000 0.000000 0.000000 -10.396290 0.000000 0.000000 0.000000 0.000000 0.000000 0.000000 0.000000 0.000000 0.000000 0.000000 0.000000 10.396290 0.000000 0.000000 0.000000 0.000000 0.000000 0.000000 0.000000 0.000000 0.000000 0.000000 0.000000 -12.475548 0.000000 0.000000 -18.713322 0.000000 0.000000 0.000000 0.000000 0.000000 0.000000 0.000000 0.000000 12.475548 0.000000 0.000000 -18.713322 0.000000 0.000000 0.000000 0.000000 0.000000 0.000000 -9.540991 0.000000 0.000000 -8.229800 0.000000 0.000000 -6.183465 0.000000 0.000000 -3.584780 0.000000
0.000000 29.797041 44.166667 0.000000 0.000000 0.000000 -2.029585 0.000000 0.000000 0.000000 0.000000 0.000000 0.000000 0.000000 0.000000 0.000000 0.000000 0.000000 0.000000 -3.382642 0.000000 0.000000 0.000000 0.000000 -9.192142 0.000000 0.000000 0.000000 0.000000 0.000000 0.000000 0.000000 0.000000 0.000000 0.000000 0.000000 9.192142 0.000000 0.000000 0.000000 0.000000 0.000000 0.000000 0.000000 0.000000 0.000000 0.000000 0.000000 -11.030570 0.000000 0.000000 -16.545856 0.000000 0.000000 0.000000 0.000000 0.000000 0.000000 0.000000 0.000000 11.030570 0.000000 0.000000 -16.545856 0.000000 0.000000 0.000000 0.000000 0.000000 0.000000 -8.955018 0.000000 0.000000 -7.239820 0.000000 0.000000 -4.877909 0.000000 0.000000 -2.080270 0.000000
0.000000 29.821246 45.000000 0.000000 0.000000 0.000000 -1.787538 0.000000 0.000000 0.000000 0.000000 0.000000 0.000000 0.000000 0.000000 0.000000 0.000000 0.000000 0.000000 -2.979229 0.000000 0.000000 0.000000 0.000000 -7.962799 0.000000 0.000000 0.000000 0.000000 0.000000 0.000000 0.000000 0.000000 0.000000 0.000000 0.000000 7.962799 0.000000 0.000000 0.000000 0.000000 0.000000 0.000000 0.000000 0.000000 0.000000 0.000000 0.000000 -9.555359 0.000000 0.000000 -14.333038 0.000000 0.000000 0.000000 0.000000 0.000000 0.000000 0.000000 0.000000 9.555359 0.000000 0.000000 -14.333038 0.000000 0.000000 0.000000 0.000000 0.000000 0.000000 -8.148543 0.000000 0.000000 -6.071571 0.000000 0.000000 -3.452243 0.000000 0.000000 -0.524537 0.000000
0.000000 29.847409 45.833333 0.000000 0.000000 0.000000 -1.525905 0.000000 0.000000 0.000000 0.000000 0.000000 0.000000 0.000000 0.000000 0.000000 0.000000 0.000000 0.000000 -2.543176 0.000000 0.000000 0.000000 0.000000 -6.711630 0.000000 0.000000 0.000000 0.000000 0.000000 0.000000 0.000000 0.000000 0.000000 0.000000 0.000000 6.711630 0.000000 0.000000 0.000000 0.000000 0.000000 0.000000 0.000000 0.000000 0.000000 0.000000 0.000000 -8.053956 0.000000 0.000000 -12.080934 0.000000 0.000000 0.000000 0.000000 0.000000 0.000000 0.000000 0.000000 8.053956 0.000000 0.000000 -12.080934 0.000000 0.000000 0.000000 0.000000 0.000000 0.000000 -7.141424 0.000000 0.000000 -4.753820 0.000000 0.000000 -1.941571 0.000000 0.000000 1.044112 0.000000
0.000000 29.875245 46.666667 0.000000 0.000000 0.000000 -1.247555 0.000000 0.000000 0.000000 0.000000 0.000000 0.000000 0.000000 0.000000 0.000000 0.000000 0.000000 0.000000 -2.079258 0.000000 0.000000 0.000000 0.000000 -5.442065 0.000000 0.000000 0.000000 0.000000 0.000000 0.000000 0.000000 0.000000 0.000000 0.000000 0.000000 5.442065 0.000000 0.000000 0.000000 0.000000 0.000000 0.000000 0.000000 0.000000 0.000000 0.000000 0.000000 -6.530478 0.000000 0.000000 -9.795717 0.000000 0.000000 0.000000 0.000000 0.000000 0.000000 0.000000 0.000000 6.530478 0.000000 0.000000 -9.795717 0.000000 0.000000 0.000000 0.000000 0.000000 0.000000 -5.958459 0.000000 0.000000 -3.319014 0.000000 0.000000 -0.383092 0.000000 0.000000 2.587051 0.000000
0.000000 29.904446 47.500000 0.000000 0.000000 0.000000 -0.955536 0.000000 0.000000 0.000000 0.000000 0.000000 0.000000 0.000000 0.000000 0.000000 0.000000 0.000000 0.000000 -1.592560 0.000000 0.000000 0.000000 0.000000 -4.157584 0.000000 0.000000 0.000000 0.000000 0.000000 0.000000 0.000000 0.000000 0.000000 0.000000 0.000000 4.157584 0.000000 0.000000 0.000000 0.000000 0.000000 0.000000 0.000000 0.000000 0.000000 0.000000 0.000000 -4.989101 0.000000 0.000000 -7.483651 0.000000 0.000000 0.000000 0.000000 0.000000 0.000000 0.000000 0.000000 4.989101 0.000000 0.000000 -7.483651 0.000000 0.000000 0.000000 0.000000 0.000000 0.000000 -4.628777 0.000000 0.000000 -1.802483 0.000000 0.000000 1.184821 0.000000 0.000000 4.066289 0.000000
0.000000 29.934695 48.333333 0.000000 0.000000 0.000000 -0.653048 0.000000 0.000000 0.000000 0.000000 0.000000 0.000000 0.000000 0.000000 0.000000 0.000000 0.000000 0.000000 -1.088413 0.000000 0.000000 0.000000 0.000000 -2.861707 0.000000 0.000000 0.000000 0.000000 0.000000 0.000000 0.000000 0.000000 0.000000 0.000000 0.000000 2.861707 0.000000 0.000000 0.000000 0.000000 0.000000 0.000000 0.000000 0.000000 0.000000 0.000000 0.000000 -3.434049 0.000000 0.000000 -5.151073 0.000000 0.000000 0.000000 0.000000 0.000000 0.000000 0.000000 0.000000 3.434049 0.000000 0.000000 -5.151073 0.000000 0.000000 0.000000 0.000000 0.000000 0.000000 -3.185120 0.000000 0.000000 -0.241569 0.000000 0.000000 2.723560 0.000000 0.000000 5.445401 0.000000
0.000000 29.965660 49.166667 0.000000 0.000000 0.000000 -0.343405 0.000000 0.000000 0.000000 0.000000 0.000000 0.000000 0.000000 0.000000 0.000000 0.000000 0.000000 0.000000 -0.572341 0.000000 0.000000 0.000000 0.000000 -1.557987 0.000000 0.000000 0.000000 0.000000 0.000000 0.000000 0.000000 0.000000 0.000000 0.000000 0.000000 1.557987 0.000000 0.000000 0.000000 0.000000 0.000000 0.000000 0.000000 0.000000 0.000000 0.000000 0.000000 -1.869584 0.000000 0.000000 -2.804376 0.000000 0.000000 0.000000 0.000000 0.000000 0.000000 0.000000 0.000000 1.869584 0.000000 0.000000 -2.804376 0.000000 0.000000 0.000000 0.000000 0.000000 0.000000 -1.663034 0.000000 0.000000 1.325293 0.000000 0.000000 4.195235 0.000000 0.000000 6.690430 0.000000
