HIERARCHY
ROOT Hips
{
	OFFSET 0.000000 0.300000 0.000000
	CHANNELS 6 Xposition Yposition Zposition Xrotation Yrotation Zrotation
	JOINT Spine
	{
		OFFSET 0.000000 0.080000 0.000000
		CHANNELS 3 Xrotation Yrotation Zrotation
		JOINT Spine1
		{
			OFFSET 0.000000 0.060000 0.000000
			CHANNELS 3 Xrotation Yrotation Zrotation
			JOINT Spine2
			{
				OFFSET 0.000000 0.050000 0.000000
				CHANNELS 3 Xrotation Yrotation Zrotation
				JOINT Neck
				{
					OFFSET 0.000000 0.040000 0.000000
					CHANNELS 3 Xrotation Yrotation Zrotation
					JOINT Head
					{
						OFFSET 0.000000 0.060000 0.000000
						CHANNELS 3 Xrotation Yrotation Zrotation
						End Site
						{
							OFFSET 0.000000 0.030000 0.000000
						}
					}
				}
				JOINT LeftShoulder
				{
					OFFSET 0.050000 0.020000 0.000000
					CHANNELS 3 Xrotation Yrotation Zrotation
					JOINT LeftArm
					{
						OFFSET 0.060000 0.000000 0.000000
						CHANNELS 3 Xrotation Yrotation Zrotation
						JOINT LeftForeArm
						{
							OFFSET 0.070000 0.000000 0.000000
							CHANNELS 3 Xrotation Yrotation Zrotation
							JOINT LeftHand
							{
								OFFSET 0.050000 0.000000 0.000000
								CHANNELS 3 Xrotation Yrotation Zrotation
								End Site
								{
									OFFSET 0.020000 0.000000 0.000000
								}
							}
						}
					}
				}
				JOINT RightShoulder
				{
					OFFSET -0.050000 0.020000 0.000000
					CHANNELS 3 Xrotation Yrotation Zrotation
					JOINT RightArm
					{
						OFFSET -0.060000 0.000000 0.000000
						CHANNELS 3 Xrotation Yrotation Zrotation
						JOINT RightForeArm
						{
							OFFSET -0.070000 0.000000 0.000000
							CHANNELS 3 Xrotation Yrotation Zrotation
							JOINT RightHand
							{
								OFFSET -0.050000 0.000000 0.000000
								CHANNELS 3 Xrotation Yrotation Zrotation
								End Site
								{
									OFFSET -0.020000 0.000000 0.000000
								}
							}
						}
					}
				}
			}
		}
	}
	JOINT LeftHip
	{
		OFFSET 0.040000 -0.020000 0.000000
		CHANNELS 3 Xrotation Yrotation Zrotation
		JOINT LeftLeg
		{
			OFFSET 0.000000 -0.120000 0.000000
			CHANNELS 3 Xrotation Yrotation Zrotation
			JOINT LeftFoot
			{
				OFFSET 0.000000 -0.120000 0.000000
				CHANNELS 3 Xrotation Yrotation Zrotation
				JOINT LeftToe
				{
					OFFSET 0.000000 0.000000 0.040000
					CHANNELS 3 Xrotation Yrotation Zrotation
					End Site
					{
						OFFSET 0.000000 0.000000 0.020000
					}
				}
			}
		}
	}
	JOINT RightHip
	{
		OFFSET -0.040000 -0.020000 0.000000
		CHANNELS 3 Xrotation Yrotation Zrotation
		JOINT RightLeg
		{
			OFFSET 0.000000 -0.120000 0.000000
			CHANNELS 3 Xrotation Yrotation Zrotation
			JOINT RightFoot
			{
				OFFSET 0.000000 -0.120000 0.000000
				CHANNELS 3 Xrotation Yrotation Zrotation
				JOINT RightToe
				{
					OFFSET 0.000000 0.000000 0.040000
					CHANNELS 3 Xrotation Yrotation Zrotation
					End Site
					{
						OFFSET 0.000000 0.000000 0.020000
					}
				}
			}
		}
	}
	JOINT Tail
	{
		OFFSET 0.000000 -0.010000 -0.050000
		CHANNELS 3 Xrotation Yrotation Zrotation
		JOINT Tail1
		{
			OFFSET 0.000000 -0.010000 -0.040000
			CHANNELS 3 Xrotation Yrotation Zrotation
			JOINT Tail2
			{
				OFFSET 0.000000 -0.010000 -0.040000
				CHANNELS 3 Xrotation Yrotation Zrotation
				JOINT Tail3
				{
					OFFSET 0.000000 -0.010000 -0.040000
					CHANNELS 3 Xrotation Yrotation Zrotation
					End Site
					{
						OFFSET 0.000000 0.000000 -0.030000
					}
				}
			}
		}
	}
}
MOTION
Frames: 120
Frame Time: 0.016667
0.000000 29.992000 -50.000000 0.000000 0.000000 0.000000 -0.030000 0.000000 0.000000 0.000000 0.000000 0.000000 0.000000 0.000000 0.000000 0.000000 0.000000 0.000000 0.000000 -0.049999 0.000000 0.000000 0.000000 0.000000 -0.249996 0.000000 0.000000 0.000000 0.000000 0.000000 0.000000 0.000000 0.000000 0.000000 0.000000 0.000000 0.249996 0.000000 0.000000 0.000000 0.000000 0.000000 0.000000 0.000000 0.000000 0.000000 0.000000 0.000000 -0.299995 0.000000 0.000000 -0.449993 0.000000 0.000000 0.000000 0.000000 0.000000 0.000000 0.000000 0.000000 0.299995 0.000000 0.000000 -0.449993 0.000000 0.000000 0.000000 0.000000 0.000000 0.000000 -0.099998 0.000000 0.000000 2.859522 0.000000 0.000000 5.563610 0.000000 0.000000 7.770717 0.000000
0.000000 30.158496 -49.166667 0.000000 0.000000 0.000000 0.594360 0.000000 0.000000 0.000000 0.000000 0.000000 0.000000 0.000000 0.000000 0.000000 0.000000 0.000000 0.000000 0.472891 0.000000 0.000000 0.000000 0.000000 2.364455 0.000000 0.000000 0.000000 0.000000 0.000000 0.000000 0.000000 0.000000 0.000000 0.000000 0.000000 -2.364455 0.000000 0.000000 0.000000 0.000000 0.000000 0.000000 0.000000 0.000000 0.000000 0.000000 0.000000 2.837346 0.000000 0.000000 -4.256018 0.000000 0.000000 0.000000 0.000000 0.000000 0.000000 0.000000 0.000000 -2.837346 0.000000 0.000000 -4.256018 0.000000 0.000000 0.000000 0.000000 0.000000 0.000000 1.465499 0.000000 0.000000 4.323340 0.000000 0.000000 6.794991 0.000000 0.000000 8.659664 0.000000
0.000000 30.318065 -48.333333 0.000000 0.000000 0.000000 1.192743 0.000000 0.000000 0.000000 0.000000 0.000000 0.000000 0.000000 0.000000 0.000000 0.000000 0.000000 0.000000 0.990600 0.000000 0.000000 0.000000 0.000000 4.953000 0.000000 0.000000 0.000000 0.000000 0.000000 0.000000 0.000000 0.000000 0.000000 0.000000 0.000000 -4.953000 0.000000 0.000000 0.000000 0.000000 0.000000 0.000000 0.000000 0.000000 0.000000 0.000000 0.000000 5.943599 0.000000 0.000000 -8.915399 0.000000 0.000000 0.000000 0.000000 0.000000 0.000000 0.000000 0.000000 -5.943599 0.000000 0.000000 -8.915399 0.000000 0.000000 0.000000 0.000000 0.000000 0.000000 2.994911 0.000000 0.000000 5.680704 0.000000 0.000000 7.859056 0.000000 0.000000 9.335382 0.000000
0.000000 30.463733 -47.500000 0.000000 0.000000 0.000000 1.738997 0.000000 0.000000 0.000000 0.000000 0.000000 0.000000 0.000000 0.000000 0.000000 0.000000 0.000000 0.000000 1.497456 0.000000 0.000000 0.000000 0.000000 7.487278 0.000000 0.000000 0.000000 0.000000 0.000000 0.000000 0.000000 0.000000 0.000000 0.000000 0.000000 -7.487278 0.000000 0.000000 0.000000 0.000000 0.000000 0.000000 0.000000 0.000000 0.000000 0.000000 0.000000 8.984734 0.000000 0.000000 -13.477101 0.000000 0.000000 0.000000 0.000000 0.000000 0.000000 0.000000 0.000000 -8.984734 0.000000 0.000000 -13.477101 0.000000 0.000000 0.000000 0.000000 0.000000 0.000000 4.450579 0.000000 0.000000 6.898189 0.000000 0.000000 8.729605 0.000000 0.000000 9.781231 0.000000
0.000000 30.589133 -46.666667 0.000000 0.000000 0.000000 2.209249 0.000000 0.000000 0.000000 0.000000 0.000000 0.000000 0.000000 0.000000 0.000000 0.000000 0.000000 0.000000 1.987905 0.000000 0.000000 0.000000 0.000000 9.939525 0.000000 0.000000 0.000000 0.000000 0.000000 0.000000 0.000000 0.000000 0.000000 0.000000 0.000000 -9.939525 0.000000 0.000000 0.000000 0.000000 0.000000 0.000000 0.000000 0.000000 0.000000 0.000000 0.000000 11.927430 0.000000 0.000000 -17.891145 0.000000 0.000000 0.000000 0.000000 0.000000 0.000000 0.000000 0.000000 -11.927430 0.000000 0.000000 -17.891145 0.000000 0.000000 0.000000 0.000000 0.000000 0.000000 5.796658 0.000000 0.000000 7.945818 0.000000 0.000000 9.385202 0.000000 0.000000 9.986234 0.000000
0.000000 30.688786 -45.833333 0.000000 0.000000 0.000000 2.582947 0.000000 0.000000 0.000000 0.000000 0.000000 0.000000 0.000000 0.000000 0.000000 0.000000 0.000000 0.000000 2.456574 0.000000 0.000000 0.000000 0.000000 12.282872 0.000000 0.000000 0.000000 0.000000 0.000000 0.000000 0.000000 0.000000 0.000000 0.000000 0.000000 -12.282872 0.000000 0.000000 0.000000 0.000000 0.000000 0.000000 0.000000 0.000000 0.000000 0.000000 0.000000 14.739447 0.000000 0.000000 -22.109170 0.000000 0.000000 0.000000 0.000000 0.000000 0.000000 0.000000 0.000000 -14.739447 0.000000 0.000000 -22.109170 0.000000 0.000000 0.000000 0.000000 0.000000 0.000000 7.000005 0.000000 0.000000 8.797795 0.000000 0.000000 9.809704 0.000000 0.000000 9.945342 0.000000
0.000000 30.758335 -45.000000 0.000000 0.000000 0.000000 2.843757 0.000000 0.000000 0.000000 0.000000 0.000000 0.000000 0.000000 0.000000 0.000000 0.000000 0.000000 0.000000 2.898329 0.000000 0.000000 0.000000 0.000000 14.491646 0.000000 0.000000 0.000000 0.000000 0.000000 0.000000 0.000000 0.000000 0.000000 0.000000 0.000000 -14.491646 0.000000 0.000000 0.000000 0.000000 0.000000 0.000000 0.000000 0.000000 0.000000 0.000000 0.000000 17.389975 0.000000 0.000000 -26.084962 0.000000 0.000000 0.000000 0.000000 0.000000 0.000000 0.000000 0.000000 -17.389975 0.000000 0.000000 -26.084962 0.000000 0.000000 0.000000 0.000000 0.000000 0.000000 8.030988 0.000000 0.000000 9.433141 0.000000 0.000000 9.992659 0.000000 0.000000 9.659563 0.000000
0.000000 30.794742 -44.166667 0.000000 0.000000 0.000000 2.980281 0.000000 0.000000 0.000000 0.000000 0.000000 0.000000 0.000000 0.000000 0.000000 0.000000 0.000000 0.000000 3.308329 0.000000 0.000000 0.000000 0.000000 16.541646 0.000000 0.000000 0.000000 0.000000 0.000000 0.000000 0.000000 0.000000 0.000000 0.000000 0.000000 -16.541646 0.000000 0.000000 0.000000 0.000000 0.000000 0.000000 0.000000 0.000000 0.000000 0.000000 0.000000 19.849975 0.000000 0.000000 -29.774962 0.000000 0.000000 0.000000 0.000000 0.000000 0.000000 0.000000 0.000000 -19.849975 0.000000 0.000000 -29.774962 0.000000 0.000000 0.000000 0.000000 0.000000 0.000000 8.864221 0.000000 0.000000 9.836211 0.000000 0.000000 9.929562 0.000000 0.000000 9.135934 0.000000
0.000000 30.796414 -43.333333 0.000000 0.000000 0.000000 2.986552 0.000000 0.000000 0.000000 0.000000 0.000000 0.000000 0.000000 0.000000 0.000000 0.000000 0.000000 0.000000 3.682082 0.000000 0.000000 0.000000 0.000000 18.410412 0.000000 0.000000 0.000000 0.000000 0.000000 0.000000 0.000000 0.000000 0.000000 0.000000 0.000000 -18.410412 0.000000 0.000000 0.000000 0.000000 0.000000 0.000000 0.000000 0.000000 0.000000 0.000000 0.000000 22.092494 0.000000 0.000000 -33.138741 0.000000 0.000000 0.000000 0.000000 0.000000 0.000000 0.000000 0.000000 -22.092494 0.000000 0.000000 -33.138741 0.000000 0.000000 0.000000 0.000000 0.000000 0.000000 9.479188 0.000000 0.000000 9.997082 0.000000 0.000000 9.621966 0.000000 0.000000 8.387348 0.000000
0.000000 30.763279 -42.500000 0.000000 0.000000 0.000000 2.862297 0.000000 0.000000 0.000000 0.000000 0.000000 0.000000 0.000000 0.000000 0.000000 0.000000 0.000000 0.000000 4.015494 0.000000 0.000000 0.000000 0.000000 20.077470 0.000000 0.000000 0.000000 0.000000 0.000000 0.000000 0.000000 0.000000 0.000000 0.000000 0.000000 -20.077470 0.000000 0.000000 0.000000 0.000000 0.000000 0.000000 0.000000 0.000000 0.000000 0.000000 0.000000 24.092964 0.000000 0.000000 -36.139446 0.000000 0.000000 0.000000 0.000000 0.000000 0.000000 0.000000 0.000000 -24.092964 0.000000 0.000000 -36.139446 0.000000 0.000000 0.000000 0.000000 0.000000 0.000000 9.860746 0.000000 0.000000 9.911791 0.000000 0.000000 9.077445 0.000000 0.000000 7.432237 0.000000
0.000000 30.696786 -41.666667 0.000000 0.000000 0.000000 2.612946 0.000000 0.000000 0.000000 0.000000 0.000000 0.000000 0.000000 0.000000 0.000000 0.000000 0.000000 0.000000 4.304911 0.000000 0.000000 0.000000 0.000000 21.524555 0.000000 0.000000 0.000000 0.000000 0.000000 0.000000 0.000000 0.000000 0.000000 0.000000 0.000000 -21.524555 0.000000 0.000000 0.000000 0.000000 0.000000 0.000000 0.000000 0.000000 0.000000 0.000000 0.000000 25.829466 0.000000 0.000000 -38.744198 0.000000 0.000000 0.000000 0.000000 0.000000 0.000000 0.000000 0.000000 -25.829466 0.000000 0.000000 -38.744198 0.000000 0.000000 0.000000 0.000000 0.000000 0.000000 9.999500 0.000000 0.000000 9.582439 0.000000 0.000000 8.309407 0.000000 0.000000 6.294120 0.000000
0.000000 30.599839 -40.833333 0.000000 0.000000 0.000000 2.249397 0.000000 0.000000 0.000000 0.000000 0.000000 0.000000 0.000000 0.000000 0.000000 0.000000 0.000000 0.000000 4.547162 0.000000 0.000000 0.000000 0.000000 22.735812 0.000000 0.000000 0.000000 0.000000 0.000000 0.000000 0.000000 0.000000 0.000000 0.000000 0.000000 -22.735812 0.000000 0.000000 0.000000 0.000000 0.000000 0.000000 0.000000 0.000000 0.000000 0.000000 0.000000 27.282974 0.000000 0.000000 -40.924462 0.000000 0.000000 0.000000 0.000000 0.000000 0.000000 0.000000 0.000000 -27.282974 0.000000 0.000000 -40.924462 0.000000 0.000000 0.000000 0.000000 0.000000 0.000000 9.892033 0.000000 0.000000 9.017135 0.000000 0.000000 7.336764 0.000000 0.000000 5.001021 0.000000
0.000000 30.476677 -40.000000 0.000000 0.000000 0.000000 1.787538 0.000000 0.000000 0.000000 0.000000 0.000000 0.000000 0.000000 0.000000 0.000000 0.000000 0.000000 0.000000 4.739594 0.000000 0.000000 0.000000 0.000000 23.697971 0.000000 0.000000 0.000000 0.000000 0.000000 0.000000 0.000000 0.000000 0.000000 0.000000 0.000000 -23.697971 0.000000 0.000000 0.000000 0.000000 0.000000 0.000000 0.000000 0.000000 0.000000 0.000000 0.000000 28.437565 0.000000 0.000000 -42.656348 0.000000 0.000000 0.000000 0.000000 0.000000 0.000000 0.000000 0.000000 -28.437565 0.000000 0.000000 -42.656348 0.000000 0.000000 0.000000 0.000000 0.000000 0.000000 9.540991 0.000000 0.000000 8.229800 0.000000 0.000000 6.183465 0.000000 0.000000 3.584780 0.000000
0.000000 30.332681 -39.166667 0.000000 0.000000 0.000000 1.247555 0.000000 0.000000 0.000000 0.000000 0.000000 0.000000 0.000000 0.000000 0.000000 0.000000 0.000000 0.000000 4.880098 0.000000 0.000000 0.000000 0.000000 24.400490 0.000000 0.000000 0.000000 0.000000 0.000000 0.000000 0.000000 0.000000 0.000000 0.000000 0.000000 -24.400490 0.000000 0.000000 0.000000 0.000000 0.000000 0.000000 0.000000 0.000000 0.000000 0.000000 0.000000 29.280588 0.000000 0.000000 -43.920883 0.000000 0.000000 0.000000 0.000000 0.000000 0.000000 0.000000 0.000000 -29.280588 0.000000 0.000000 -43.920883 0.000000 0.000000 0.000000 0.000000 0.000000 0.000000 8.955018 0.000000 0.000000 7.239820 0.000000 0.000000 4.877909 0.000000 0.000000 2.080270 0.000000
0.000000 30.174146 -38.333333 0.000000 0.000000 0.000000 0.653048 0.000000 0.000000 0.000000 0.000000 0.000000 0.000000 0.000000 0.000000 0.000000 0.000000 0.000000 0.000000 4.967135 0.000000 0.000000 0.000000 0.000000 24.835673 0.000000 0.000000 0.000000 0.000000 0.000000 0.000000 0.000000 0.000000 0.000000 0.000000 0.000000 -24.835673 0.000000 0.000000 0.000000 0.000000 0.000000 0.000000 0.000000 0.000000 0.000000 0.000000 0.000000 29.802807 0.000000 0.000000 -44.704211 0.000000 0.000000 0.000000 0.000000 0.000000 0.000000 0.000000 0.000000 -29.802807 0.000000 0.000000 -44.704211 0.000000 0.000000 0.000000 0.000000 0.000000 0.000000 8.148543 0.000000 0.000000 6.071571 0.000000 0.000000 3.452243 0.000000 0.000000 0.524537 0.000000
0.000000 30.008000 -37.500000 0.000000 0.000000 0.000000 0.030000 0.000000 0.000000 0.000000 0.000000 0.000000 0.000000 0.000000 0.000000 0.000000 0.000000 0.000000 0.000000 4.999750 0.000000 0.000000 0.000000 0.000000 24.998750 0.000000 0.000000 0.000000 0.000000 0.000000 0.000000 0.000000 0.000000 0.000000 0.000000 0.000000 -24.998750 0.000000 0.000000 0.000000 0.000000 0.000000 0.000000 0.000000 0.000000 0.000000 0.000000 0.000000 29.998500 0.000000 0.000000 -44.997750 0.000000 0.000000 0.000000 0.000000 0.000000 0.000000 0.000000 0.000000 -29.998500 0.000000 0.000000 -44.997750 0.000000 0.000000 0.000000 0.000000 0.000000 0.000000 7.141424 0.000000 0.000000 4.753820 0.000000 0.000000 1.941571 0.000000 0.000000 -1.044112 0.000000
0.000000 29.841504 -36.666667 0.000000 0.000000 0.000000 -0.594360 0.000000 0.000000 0.000000 0.000000 0.000000 0.000000 0.000000 0.000000 0.000000 0.000000 0.000000 0.000000 4.977587 0.000000 0.000000 0.000000 0.000000 24.887936 0.000000 0.000000 0.000000 0.000000 0.000000 0.000000 0.000000 0.000000 0.000000 0.000000 0.000000 -24.887936 0.000000 0.000000 0.000000 0.000000 0.000000 0.000000 0.000000 0.000000 0.000000 0.000000 0.000000 29.865523 0.000000 0.000000 -44.798285 0.000000 0.000000 0.000000 0.000000 0.000000 0.000000 0.000000 0.000000 -29.865523 0.000000 0.000000 -44.798285 0.000000 0.000000 0.000000 0.000000 0.000000 0.000000 5.958459 0.000000 0.000000 3.319014 0.000000 0.000000 0.383092 0.000000 0.000000 -2.587051 0.000000
0.000000 29.681935 -35.833333 0.000000 0.000000 0.000000 -1.192743 0.000000 0.000000 0.000000 0.000000 0.000000 0.000000 0.000000 0.000000 0.000000 0.000000 0.000000 0.000000 4.900889 0.000000 0.000000 0.000000 0.000000 24.504444 0.000000 0.000000 0.000000 0.000000 0.000000 0.000000 0.000000 0.000000 0.000000 0.000000 0.000000 -24.504444 0.000000 0.000000 0.000000 0.000000 0.000000 0.000000 0.000000 0.000000 0.000000 0.000000 0.000000 29.405333 0.000000 0.000000 -44.108000 0.000000 0.000000 0.000000 0.000000 0.000000 0.000000 0.000000 0.000000 -29.405333 0.000000 0.000000 -44.108000 0.000000 0.000000 0.000000 0.000000 0.000000 0.000000 4.628777 0.000000 0.000000 1.802483 0.000000 0.000000 -1.184821 0.000000 0.000000 -4.066289 0.000000
0.000000 29.536267 -35.000000 0.000000 0.000000 0.000000 -1.738997 0.000000 0.000000 0.000000 0.000000 0.000000 0.000000 0.000000 0.000000 0.000000 0.000000 0.000000 0.000000 4.770495 0.000000 0.000000 0.000000 0.000000 23.852477 0.000000 0.000000 0.000000 0.000000 0.000000 0.000000 0.000000 0.000000 0.000000 0.000000 0.000000 -23.852477 0.000000 0.000000 0.000000 0.000000 0.000000 0.000000 0.000000 0.000000 0.000000 0.000000 0.000000 28.622972 0.000000 0.000000 -42.934459 0.000000 0.000000 0.000000 0.000000 0.000000 0.000000 0.000000 0.000000 -28.622972 0.000000 0.000000 -42.934459 0.000000 0.000000 0.000000 0.000000 0.000000 0.000000 3.185120 0.000000 0.000000 0.241569 0.000000 0.000000 -2.723560 0.000000 0.000000 -5.445401 0.000000
0.000000 29.410867 -34.166667 0.000000 0.000000 0.000000 -2.209249 0.000000 0.000000 0.000000 0.000000 0.000000 0.000000 0.000000 0.000000 0.000000 0.000000 0.000000 0.000000 4.587835 0.000000 0.000000 0.000000 0.000000 22.939177 0.000000 0.000000 0.000000 0.000000 0.000000 0.000000 0.000000 0.000000 0.000000 0.000000 0.000000 -22.939177 0.000000 0.000000 0.000000 0.000000 0.000000 0.000000 0.000000 0.000000 0.000000 0.000000 0.000000 27.527012 0.000000 0.000000 -41.290519 0.000000 0.000000 0.000000 0.000000 0.000000 0.000000 0.000000 0.000000 -27.527012 0.000000 0.000000 -41.290519 0.000000 0.000000 0.000000 0.000000 0.000000 0.000000 1.663034 0.000000 0.000000 -1.325293 0.000000 0.000000 -4.195235 0.000000 0.000000 -6.690430 0.000000
0.000000 29.311214 -33.333333 0.000000 0.000000 0.000000 -2.582947 0.000000 0.000000 0.000000 0.000000 0.000000 0.000000 0.000000 0.000000 0.000000 0.000000 0.000000 0.000000 4.354910 0.000000 0.000000 0.000000 0.000000 21.774550 0.000000 0.000000 0.000000 0.000000 0.000000 0.000000 0.000000 0.000000 0.000000 0.000000 0.000000 -21.774550 0.000000 0.000000 0.000000 0.000000 0.000000 0.000000 0.000000 0.000000 0.000000 0.000000 0.000000 26.129461 0.000000 0.000000 -39.194191 0.000000 0.000000 0.000000 0.000000 0.000000 0.000000 0.000000 0.000000 -26.129461 0.000000 0.000000 -39.194191 0.000000 0.000000 0.000000 0.000000 0.000000 0.000000 0.099998 0.000000 0.000000 -2.859522 0.000000 0.000000 -5.563610 0.000000 0.000000 -7.770717 0.000000
0.000000 29.241665 -32.500000 0.000000 0.000000 0.000000 -2.843757 0.000000 0.000000 0.000000 0.000000 0.000000 0.000000 0.000000 0.000000 0.000000 0.000000 0.000000 0.000000 4.074271 0.000000 0.000000 0.000000 0.000000 20.371357 0.000000 0.000000 0.000000 0.000000 0.000000 0.000000 0.000000 0.000000 0.000000 0.000000 0.000000 -20.371357 0.000000 0.000000 0.000000 0.000000 0.000000 0.000000 0.000000 0.000000 0.000000 0.000000 0.000000 24.445629 0.000000 0.000000 -36.668443 0.000000 0.000000 0.000000 0.000000 0.000000 0.000000 0.000000 0.000000 -24.445629 0.000000 0.000000 -36.668443 0.000000 0.000000 0.000000 0.000000 0.000000 0.000000 -1.465499 0.000000 0.000000 -4.323340 0.000000 0.000000 -6.794991 0.000000 0.000000 -8.659664 0.000000
0.000000 29.205258 -31.666667 0.000000 0.000000 0.000000 -2.980281 0.000000 0.000000 0.000000 0.000000 0.000000 0.000000 0.000000 0.000000 0.000000 0.000000 0.000000 0.000000 3.748994 0.000000 0.000000 0.000000 0.000000 18.744972 0.000000 0.000000 0.000000 0.000000 0.000000 0.000000 0.000000 0.000000 0.000000 0.000000 0.000000 -18.744972 0.000000 0.000000 0.000000 0.000000 0.000000 0.000000 0.000000 0.000000 0.000000 0.000000 0.000000 22.493966 0.000000 0.000000 -33.740949 0.000000 0.000000 0.000000 0.000000 0.000000 0.000000 0.000000 0.000000 -22.493966 0.000000 0.000000 -33.740949 0.000000 0.000000 0.000000 0.000000 0.000000 0.000000 -2.994911 0.000000 0.000000 -5.680704 0.000000 0.000000 -7.859056 0.000000 0.000000 -9.335382 0.000000
0.000000 29.203586 -30.833333 0.000000 0.000000 0.000000 -2.986552 0.000000 0.000000 0.000000 0.000000 0.000000 0.000000 0.000000 0.000000 0.000000 0.000000 0.000000 0.000000 3.382642 0.000000 0.000000 0.000000 0.000000 16.913212 0.000000 0.000000 0.000000 0.000000 0.000000 0.000000 0.000000 0.000000 0.000000 0.000000 0.000000 -16.913212 0.000000 0.000000 0.000000 0.000000 0.000000 0.000000 0.000000 0.000000 0.000000 0.000000 0.000000 20.295854 0.000000 0.000000 -30.443781 0.000000 0.000000 0.000000 0.000000 0.000000 0.000000 0.000000 0.000000 -20.295854 0.000000 0.000000 -30.443781 0.000000 0.000000 0.000000 0.000000 0.000000 0.000000 -4.450579 0.000000 0.000000 -6.898189 0.000000 0.000000 -8.729605 0.000000 0.000000 -9.781231 0.000000
0.000000 29.236721 -30.000000 0.000000 0.000000 0.000000 -2.862297 0.000000 0.000000 0.000000 0.000000 0.000000 0.000000 0.000000 0.000000 0.000000 0.000000 0.000000 0.000000 2.979229 0.000000 0.000000 0.000000 0.000000 14.896147 0.000000 0.000000 0.000000 0.000000 0.000000 0.000000 0.000000 0.000000 0.000000 0.000000 0.000000 -14.896147 0.000000 0.000000 0.000000 0.000000 0.000000 0.000000 0.000000 0.000000 0.000000 0.000000 0.000000 17.875377 0.000000 0.000000 -26.813065 0.000000 0.000000 0.000000 0.000000 0.000000 0.000000 0.000000 0.000000 -17.875377 0.000000 0.000000 -26.813065 0.000000 0.000000 0.000000 0.000000 0.000000 0.000000 -5.796658 0.000000 0.000000 -7.945818 0.000000 0.000000 -9.385202 0.000000 0.000000 -9.986234 0.000000
0.000000 29.303214 -29.166667 0.000000 0.000000 0.000000 -2.612946 0.000000 0.000000 0.000000 0.000000 0.000000 0.000000 0.000000 0.000000 0.000000 0.000000 0.000000 0.000000 2.543176 0.000000 0.000000 0.000000 0.000000 12.715878 0.000000 0.000000 0.000000 0.000000 0.000000 0.000000 0.000000 0.000000 0.000000 0.000000 0.000000 -12.715878 0.000000 0.000000 0.000000 0.000000 0.000000 0.000000 0.000000 0.000000 0.000000 0.000000 0.000000 15.259053 0.000000 0.000000 -22.888580 0.000000 0.000000 0.000000 0.000000 0.000000 0.000000 0.000000 0.000000 -15.259053 0.000000 0.000000 -22.888580 0.000000 0.000000 0.000000 0.000000 0.000000 0.000000 -7.000005 0.000000 0.000000 -8.797795 0.000000 0.000000 -9.809704 0.000000 0.000000 -9.945342 0.000000
0.000000 29.400161 -28.333333 0.000000 0.000000 0.000000 -2.249397 0.000000 0.000000 0.000000 0.000000 0.000000 0.000000 0.000000 0.000000 0.000000 0.000000 0.000000 0.000000 2.079258 0.000000 0.000000 0.000000 0.000000 10.396290 0.000000 0.000000 0.000000 0.000000 0.000000 0.000000 0.000000 0.000000 0.000000 0.000000 0.000000 -10.396290 0.000000 0.000000 0.000000 0.000000 0.000000 0.000000 0.000000 0.000000 0.000000 0.000000 0.000000 12.475548 0.000000 0.000000 -18.713322 0.000000 0.000000 0.000000 0.000000 0.000000 0.000000 0.000000 0.000000 -12.475548 0.000000 0.000000 -18.713322 0.000000 0.000000 0.000000 0.000000 0.000000 0.000000 -8.030988 0.000000 0.000000 -9.433141 0.000000 0.000000 -9.992659 0.000000 0.000000 -9.659563 0.000000
0.000000 29.523323 -27.500000 0.000000 0.000000 0.000000 -1.787538 0.000000 0.000000 0.000000 0.000000 0.000000 0.000000 0.000000 0.000000 0.000000 0.000000 0.000000 0.000000 1.592560 0.000000 0.000000 0.000000 0.000000 7.962799 0.000000 0.000000 0.000000 0.000000 0.000000 0.000000 0.000000 0.000000 0.000000 0.000000 0.000000 -7.962799 0.000000 0.000000 0.000000 0.000000 0.000000 0.000000 0.000000 0.000000 0.000000 0.000000 0.000000 9.555359 0.000000 0.000000 -14.333038 0.000000 0.000000 0.000000 0.000000 0.000000 0.000000 0.000000 0.000000 -9.555359 0.000000 0.000000 -14.333038 0.000000 0.000000 0.000000 0.000000 0.000000 0.000000 -8.864221 0.000000 0.000000 -9.836211 0.000000 0.000000 -9.929562 0.000000 0.000000 -9.135934 0.000000
0.000000 29.667319 -26.666667 0.000000 0.000000 0.000000 -1.247555 0.000000 0.000000 0.000000 0.000000 0.000000 0.000000 0.000000 0.000000 0.000000 0.000000 0.000000 0.000000 1.088413 0.000000 0.000000 0.000000 0.000000 5.442065 0.000000 0.000000 0.000000 0.000000 0.000000 0.000000 0.000000 0.000000 0.000000 0.000000 0.000000 -5.442065 0.000000 0.000000 0.000000 0.000000 0.000000 0.000000 0.000000 0.000000 0.000000 0.000000 0.000000 6.530478 0.000000 0.000000 -9.795717 0.000000 0.000000 0.000000 0.000000 0.000000 0.000000 0.000000 0.000000 -6.530478 0.000000 0.000000 -9.795717 0.000000 0.000000 0.000000 0.000000 0.000000 0.000000 -9.479188 0.000000 0.000000 -9.997082 0.000000 0.000000 -9.621966 0.000000 0.000000 -8.387348 0.000000
0.000000 29.825854 -25.833333 0.000000 0.000000 0.000000 -0.653048 0.000000 0.000000 0.000000 0.000000 0.000000 0.000000 0.000000 0.000000 0.000000 0.000000 0.000000 0.000000 0.572341 0.000000 0.000000 0.000000 0.000000 2.861707 0.000000 0.000000 0.000000 0.000000 0.000000 0.000000 0.000000 0.000000 0.000000 0.000000 0.000000 -2.861707 0.000000 0.000000 0.000000 0.000000 0.000000 0.000000 0.000000 0.000000 0.000000 0.000000 0.000000 3.434049 0.000000 0.000000 -5.151073 0.000000 0.000000 0.000000 0.000000 0.000000 0.000000 0.000000 0.000000 -3.434049 0.000000 0.000000 -5.151073 0.000000 0.000000 0.000000 0.000000 0.000000 0.000000 -9.860746 0.000000 0.000000 -9.911791 0.000000 0.000000 -9.077445 0.000000 0.000000 -7.432237 0.000000
0.000000 29.992000 -25.000000 0.000000 0.000000 0.000000 -0.030000 0.000000 0.000000 0.000000 0.000000 0.000000 0.000000 0.000000 0.000000 0.000000 0.000000 0.000000 0.000000 0.049999 0.000000 0.000000 0.000000 0.000000 0.249996 0.000000 0.000000 0.000000 0.000000 0.000000 0.000000 0.000000 0.000000 0.000000 0.000000 0.000000 -0.249996 0.000000 0.000000 0.000000 0.000000 0.000000 0.000000 0.000000 0.000000 0.000000 0.000000 0.000000 0.299995 0.000000 0.000000 -0.449993 0.000000 0.000000 0.000000 0.000000 0.000000 0.000000 0.000000 0.000000 -0.299995 0.000000 0.000000 -0.449993 0.000000 0.000000 0.000000 0.000000 0.000000 0.000000 -9.999500 0.000000 0.000000 -9.582439 0.000000 0.000000 -8.309407 0.000000 0.000000 -6.294120 0.000000
0.000000 30.158496 -24.166667 0.000000 0.000000 0.000000 0.594360 0.000000 0.000000 0.000000 0.000000 0.000000 0.000000 0.000000 0.000000 0.000000 0.000000 0.000000 0.000000 -0.472891 0.000000 0.000000 0.000000 0.000000 -2.364455 0.000000 0.000000 0.000000 0.000000 0.000000 0.000000 0.000000 0.000000 0.000000 0.000000 0.000000 2.364455 0.000000 0.000000 0.000000 0.000000 0.000000 0.000000 0.000000 0.000000 0.000000 0.000000 0.000000 -2.837346 0.000000 0.000000 -4.256018 0.000000 0.000000 0.000000 0.000000 0.000000 0.000000 0.000000 0.000000 2.837346 0.000000 0.000000 -4.256018 0.000000 0.000000 0.000000 0.000000 0.000000 0.000000 -9.892033 0.000000 0.000000 -9.017135 0.000000 0.000000 -7.336764 0.000000 0.000000 -5.001021 0.000000
0.000000 30.318065 -23.333333 0.000000 0.000000 0.000000 1.192743 0.000000 0.000000 0.000000 0.000000 0.000000 0.000000 0.000000 0.000000 0.000000 0.000000 0.000000 0.000000 -0.990600 0.000000 0.000000 0.000000 0.000000 -4.953000 0.000000 0.000000 0.000000 0.000000 0.000000 0.000000 0.000000 0.000000 0.000000 0.000000 0.000000 4.953000 0.000000 0.000000 0.000000 0.000000 0.000000 0.000000 0.000000 0.000000 0.000000 0.000000 0.000000 -5.943599 0.000000 0.000000 -8.915399 0.000000 0.000000 0.000000 0.000000 0.000000 0.000000 0.000000 0.000000 5.943599 0.000000 0.000000 -8.915399 0.000000 0.000000 0.000000 0.000000 0.000000 0.000000 -9.540991 0.000000 0.000000 -8.229800 0.000000 0.000000 -6.183465 0.000000 0.000000 -3.584780 0.000000
0.000000 30.463733 -22.500000 0.000000 0.000000 0.000000 1.738997 0.000000 0.000000 0.000000 0.000000 0.000000 0.000000 0.000000 0.000000 0.000000 0.000000 0.000000 0.000000 -1.497456 0.000000 0.000000 0.000000 0.000000 -7.487278 0.000000 0.000000 0.000000 0.000000 0.000000 0.000000 0.000000 0.000000 0.000000 0.000000 0.000000 7.487278 0.000000 0.000000 0.000000 0.000000 0.000000 0.000000 0.000000 0.000000 0.000000 0.000000 0.000000 -8.984734 0.000000 0.000000 -13.477101 0.000000 0.000000 0.000000 0.000000 0.000000 0.000000 0.000000 0.000000 8.984734 0.000000 0.000000 -13.477101 0.000000 0.000000 0.000000 0.000000 0.000000 0.000000 -8.955018 0.000000 0.000000 -7.239820 0.000000 0.000000 -4.877909 0.000000 0.000000 -2.080270 0.000000
0.000000 30.589133 -21.666667 0.000000 0.000000 0.000000 2.209249 0.000000 0.000000 0.000000 0.000000 0.000000 0.000000 0.000000 0.000000 0.000000 0.000000 0.000000 0.000000 -1.987905 0.000000 0.000000 0.000000 0.000000 -9.939525 0.000000 0.000000 0.000000 0.000000 0.000000 0.000000 0.000000 0.000000 0.000000 0.000000 0.000000 9.939525 0.000000 0.000000 0.000000 0.000000 0.000000 0.000000 0.000000 0.000000 0.000000 0.000000 0.000000 -11.927430 0.000000 0.000000 -17.891145 0.000000 0.000000 0.000000 0.000000 0.000000 0.000000 0.000000 0.000000 11.927430 0.000000 0.000000 -17.891145 0.000000 0.000000 0.000000 0.000000 0.000000 0.000000 -8.148543 0.000000 0.000000 -6.071571 0.000000 0.000000 -3.452243 0.000000 0.000000 -0.524537 0.000000
0.000000 30.688786 -20.833333 0.000000 0.000000 0.000000 2.582947 0.000000 0.000000 0.000000 0.000000 0.000000 0.000000 0.000000 0.000000 0.000000 0.000000 0.000000 0.000000 -2.456574 0.000000 0.000000 0.000000 0.000000 -12.282872 0.000000 0.000000 0.000000 0.000000 0.000000 0.000000 0.000000 0.000000 0.000000 0.000000 0.000000 12.282872 0.000000 0.000000 0.000000 0.000000 0.000000 0.000000 0.000000 0.000000 0.000000 0.000000 0.000000 -14.739447 0.000000 0.000000 -22.109170 0.000000 0.000000 0.000000 0.000000 0.000000 0.000000 0.000000 0.000000 14.739447 0.000000 0.000000 -22.109170 0.000000 0.000000 0.000000 0.000000 0.000000 0.000000 -7.141424 0.000000 0.000000 -4.753820 0.000000 0.000000 -1.941571 0.000000 0.000000 1.044112 0.000000
0.000000 30.758335 -20.000000 0.000000 0.000000 0.000000 2.843757 0.000000 0.000000 0.000000 0.000000 0.000000 0.000000 0.000000 0.000000 0.000000 0.000000 0.000000 0.000000 -2.898329 0.000000 0.000000 0.000000 0.000000 -14.491646 0.000000 0.000000 0.000000 0.000000 0.000000 0.000000 0.000000 0.000000 0.000000 0.000000 0.000000 14.491646 0.000000 0.000000 0.000000 0.000000 0.000000 0.000000 0.000000 0.000000 0.000000 0.000000 0.000000 -17.389975 0.000000 0.000000 -26.084962 0.000000 0.000000 0.000000 0.000000 0.000000 0.000000 0.000000 0.000000 17.389975 0.000000 0.000000 -26.084962 0.000000 0.000000 0.000000 0.000000 0.000000 0.000000 -5.958459 0.000000 0.000000 -3.319014 0.000000 0.000000 -0.383092 0.000000 0.000000 2.587051 0.000000
0.000000 30.794742 -19.166667 0.000000 0.000000 0.000000 2.980281 0.000000 0.000000 0.000000 0.000000 0.000000 0.000000 0.000000 0.000000 0.000000 0.000000 0.000000 0.000000 -3.308329 0.000000 0.000000 0.000000 0.000000 -16.541646 0.000000 0.000000 0.000000 0.000000 0.000000 0.000000 0.000000 0.000000 0.000000 0.000000 0.000000 16.541646 0.000000 0.000000 0.000000 0.000000 0.000000 0.000000 0.000000 0.000000 0.000000 0.000000 0.000000 -19.849975 0.000000 0.000000 -29.774962 0.000000 0.000000 0.000000 0.000000 0.000000 0.000000 0.000000 0.000000 19.849975 0.000000 0.000000 -29.774962 0.000000 0.000000 0.000000 0.000000 0.000000 0.000000 -4.628777 0.000000 0.000000 -1.802483 0.000000 0.000000 1.184821 0.000000 0.000000 4.066289 0.000000
0.000000 30.796414 -18.333333 0.000000 0.000000 0.000000 2.986552 0.000000 0.000000 0.000000 0.000000 0.000000 0.000000 0.000000 0.000000 0.000000 0.000000 0.000000 0.000000 -3.682082 0.000000 0.000000 0.000000 0.000000 -18.410412 0.000000 0.000000 0.000000 0.000000 0.000000 0.000000 0.000000 0.000000 0.000000 0.000000 0.000000 18.410412 0.000000 0.000000 0.000000 0.000000 0.000000 0.000000 0.000000 0.000000 0.000000 0.000000 0.000000 -22.092494 0.000000 0.000000 -33.138741 0.000000 0.000000 0.000000 0.000000 0.000000 0.000000 0.000000 0.000000 22.092494 0.000000 0.000000 -33.138741 0.000000 0.000000 0.000000 0.000000 0.000000 0.000000 -3.185120 0.000000 0.000000 -0.241569 0.000000 0.000000 2.723560 0.000000 0.000000 5.445401 0.000000
0.000000 30.763279 -17.500000 0.000000 0.000000 0.000000 2.862297 0.000000 0.000000 0.000000 0.000000 0.000000 0.000000 0.000000 0.000000 0.000000 0.000000 0.000000 0.000000 -4.015494 0.000000 0.000000 0.000000 0.000000 -20.077470 0.000000 0.000000 0.000000 0.000000 0.000000 0.000000 0.000000 0.000000 0.000000 0.000000 0.000000 20.077470 0.000000 0.000000 0.000000 0.000000 0.000000 0.000000 0.000000 0.000000 0.000000 0.000000 0.000000 -24.092964 0.000000 0.000000 -36.139446 0.000000 0.000000 0.000000 0.000000 0.000000 0.000000 0.000000 0.000000 24.092964 0.000000 0.000000 -36.139446 0.000000 0.000000 0.000000 0.000000 0.000000 0.000000 -1.663034 0.000000 0.000000 1.325293 0.000000 0.000000 4.195235 0.000000 0.000000 6.690430 0.000000
0.000000 30.696786 -16.666667 0.000000 0.000000 0.000000 2.612946 0.000000 0.000000 0.000000 0.000000 0.000000 0.000000 0.000000 0.000000 0.000000 0.000000 0.000000 0.000000 -4.304911 0.000000 0.000000 0.000000 0.000000 -21.524555 0.000000 0.000000 0.000000 0.000000 0.000000 0.000000 0.000000 0.000000 0.000000 0.000000 0.000000 21.524555 0.000000 0.000000 0.000000 0.000000 0.000000 0.000000 0.000000 0.000000 0.000000 0.000000 0.000000 -25.829466 0.000000 0.000000 -38.744198 0.000000 0.000000 0.000000 0.000000 0.000000 0.000000 0.000000 0.000000 25.829466 0.000000 0.000000 -38.744198 0.000000 0.000000 0.000000 0.000000 0.000000 0.000000 -0.099998 0.000000 0.000000 2.859522 0.000000 0.000000 5.563610 0.000000 0.000000 7.770717 0.000000
0.000000 30.599839 -15.833333 0.000000 0.000000 0.000000 2.249397 0.000000 0.000000 0.000000 0.000000 0.000000 0.000000 0.000000 0.000000 0.000000 0.000000 0.000000 0.000000 -4.547162 0.000000 0.000000 0.000000 0.000000 -22.735812 0.000000 0.000000 0.000000 0.000000 0.000000 0.000000 0.000000 0.000000 0.000000 0.000000 0.000000 22.735812 0.000000 0.000000 0.000000 0.000000 0.000000 0.000000 0.000000 0.000000 0.000000 0.000000 0.000000 -27.282974 0.000000 0.000000 -40.924462 0.000000 0.000000 0.000000 0.000000 0.000000 0.000000 0.000000 0.000000 27.282974 0.000000 0.000000 -40.924462 0.000000 0.000000 0.000000 0.000000 0.000000 0.000000 1.465499 0.000000 0.000000 4.323340 0.000000 0.000000 6.794991 0.000000 0.000000 8.659664 0.000000
0.000000 30.476677 -15.000000 0.000000 0.000000 0.000000 1.787538 0.000000 0.000000 0.000000 0.000000 0.000000 0.000000 0.000000 0.000000 0.000000 0.000000 0.000000 0.000000 -4.739594 0.000000 0.000000 0.000000 0.000000 -23.697971 0.000000 0.000000 0.000000 0.000000 0.000000 0.000000 0.000000 0.000000 0.000000 0.000000 0.000000 23.697971 0.000000 0.000000 0.000000 0.000000 0.000000 0.000000 0.000000 0.000000 0.000000 0.000000 0.000000 -28.437565 0.000000 0.000000 -42.656348 0.000000 0.000000 0.000000 0.000000 0.000000 0.000000 0.000000 0.000000 28.437565 0.000000 0.000000 -42.656348 0.000000 0.000000 0.000000 0.000000 0.000000 0.000000 2.994911 0.000000 0.000000 5.680704 0.000000 0.000000 7.859056 0.000000 0.000000 9.335382 0.000000
0.000000 30.332681 -14.166667 0.000000 0.000000 0.000000 1.247555 0.000000 0.000000 0.000000 0.000000 0.000000 0.000000 0.000000 0.000000 0.000000 0.000000 0.000000 0.000000 -4.880098 0.000000 0.000000 0.000000 0.000000 -24.400490 0.000000 0.000000 0.000000 0.000000 0.000000 0.000000 0.000000 0.000000 0.000000 0.000000 0.000000 24.400490 0.000000 0.000000 0.000000 0.000000 0.000000 0.000000 0.000000 0.000000 0.000000 0.000000 0.000000 -29.280588 0.000000 0.000000 -43.920883 0.000000 0.000000 0.000000 0.000000 0.000000 0.000000 0.000000 0.000000 29.280588 0.000000 0.000000 -43.920883 0.000000 0.000000 0.000000 0.000000 0.000000 0.000000 4.450579 0.000000 0.000000 6.898189 0.000000 0.000000 8.729605 0.000000 0.000000 9.781231 0.000000
0.000000 30.174146 -13.333333 0.000000 0.000000 0.000000 0.653048 0.000000 0.000000 0.000000 0.000000 0.000000 0.000000 0.000000 0.000000 0.000000 0.000000 0.000000 0.000000 -4.967135 0.000000 0.000000 0.000000 0.000000 -24.835673 0.000000 0.000000 0.000000 0.000000 0.000000 0.000000 0.000000 0.000000 0.000000 0.000000 0.000000 24.835673 0.000000 0.000000 0.000000 0.000000 0.000000 0.000000 0.000000 0.000000 0.000000 0.000000 0.000000 -29.802807 0.000000 0.000000 -44.704211 0.000000 0.000000 0.000000 0.000000 0.000000 0.000000 0.000000 0.000000 29.802807 0.000000 0.000000 -44.704211 0.000000 0.000000 0.000000 0.000000 0.000000 0.000000 5.796658 0.000000 0.000000 7.945818 0.000000 0.000000 9.385202 0.000000 0.000000 9.986234 0.000000
0.000000 30.008000 -12.500000 0.000000 0.000000 0.000000 0.030000 0.000000 0.000000 0.000000 0.000000 0.000000 0.000000 0.000000 0.000000 0.000000 0.000000 0.000000 0.000000 -4.999750 0.000000 0.000000 0.000000 0.000000 -24.998750 0.000000 0.000000 0.000000 0.000000 0.000000 0.000000 0.000000 0.000000 0.000000 0.000000 0.000000 24.998750 0.000000 0.000000 0.000000 0.000000 0.000000 0.000000 0.000000 0.000000 0.000000 0.000000 0.000000 -29.998500 0.000000 0.000000 -44.997750 0.000000 0.000000 0.000000 0.000000 0.000000 0.000000 0.000000 0.000000 29.998500 0.000000 0.000000 -44.997750 0.000000 0.000000 0.000000 0.000000 0.000000 0.000000 7.000005 0.000000 0.000000 8.797795 0.000000 0.000000 9.809704 0.000000 0.000000 9.945342 0.000000
0.000000 29.841504 -11.666667 0.000000 0.000000 0.000000 -0.594360 0.000000 0.000000 0.000000 0.000000 0.000000 0.000000 0.000000 0.000000 0.000000 0.000000 0.000000 0.000000 -4.977587 0.000000 0.000000 0.000000 0.000000 -24.887936 0.000000 0.000000 0.000000 0.000000 0.000000 0.000000 0.000000 0.000000 0.000000 0.000000 0.000000 24.887936 0.000000 0.000000 0.000000 0.000000 0.000000 0.000000 0.000000 0.000000 0.000000 0.000000 0.000000 -29.865523 0.000000 0.000000 -44.798285 0.000000 0.000000 0.000000 0.000000 0.000000 0.000000 0.000000 0.000000 29.865523 0.000000 0.000000 -44.798285 0.000000 0.000000 0.000000 0.000000 0.000000 0.000000 8.030988 0.000000 0.000000 9.433141 0.000000 0.000000 9.992659 0.000000 0.000000 9.659563 0.000000
0.000000 29.681935 -10.833333 0.000000 0.000000 0.000000 -1.192743 0.000000 0.000000 0.000000 0.000000 0.000000 0.000000 0.000000 0.000000 0.000000 0.000000 0.000000 0.000000 -4.900889 0.000000 0.000000 0.000000 0.000000 -24.504444 0.000000 0.000000 0.000000 0.000000 0.000000 0.000000 0.000000 0.000000 0.000000 0.000000 0.000000 24.504444 0.000000 0.000000 0.000000 0.000000 0.000000 0.000000 0.000000 0.000000 0.000000 0.000000 0.000000 -29.405333 0.000000 0.000000 -44.108000 0.000000 0.000000 0.000000 0.000000 0.000000 0.000000 0.000000 0.000000 29.405333 0.000000 0.000000 -44.108000 0.000000 0.000000 0.000000 0.000000 0.000000 0.000000 8.864221 0.000000 0.000000 9.836211 0.000000 0.000000 9.929562 0.000000 0.000000 9.135934 0.000000
0.000000 29.536267 -10.000000 0.000000 0.000000 0.000000 -1.738997 0.000000 0.000000 0.000000 0.000000 0.000000 0.000000 0.000000 0.000000 0.000000 0.000000 0.000000 0.000000 -4.770495 0.000000 0.000000 0.000000 0.000000 -23.852477 0.000000 0.000000 0.000000 0.000000 0.000000 0.000000 0.000000 0.000000 0.000000 0.000000 0.000000 23.852477 0.000000 0.000000 0.000000 0.000000 0.000000 0.000000 0.000000 0.000000 0.000000 0.000000 0.000000 -28.622972 0.000000 0.000000 -42.934459 0.000000 0.000000 0.000000 0.000000 0.000000 0.000000 0.000000 0.000000 28.622972 0.000000 0.000000 -42.934459 0.000000 0.000000 0.000000 0.000000 0.000000 0.000000 9.479188 0.000000 0.000000 9.997082 0.000000 0.000000 9.621966 0.000000 0.000000 8.387348 0.000000
0.000000 29.410867 -9.166667 0.000000 0.000000 0.000000 -2.209249 0.000000 0.000000 0.000000 0.000000 0.000000 0.000000 0.000000 0.000000 0.000000 0.000000 0.000000 0.000000 -4.587835 0.000000 0.000000 0.000000 0.000000 -22.939177 0.000000 0.000000 0.000000 0.000000 0.000000 0.000000 0.000000 0.000000 0.000000 0.000000 0.000000 22.939177 0.000000 0.000000 0.000000 0.000000 0.000000 0.000000 0.000000 0.000000 0.000000 0.000000 0.000000 -27.527012 0.000000 0.000000 -41.290519 0.000000 0.000000 0.000000 0.000000 0.000000 0.000000 0.000000 0.000000 27.527012 0.000000 0.000000 -41.290519 0.000000 0.000000 0.000000 0.000000 0.000000 0.000000 9.860746 0.000000 0.000000 9.911791 0.000000 0.000000 9.077445 0.000000 0.000000 7.432237 0.000000
0.000000 29.311214 -8.333333 0.000000 0.000000 0.000000 -2.582947 0.000000 0.000000 0.000000 0.000000 0.000000 0.000000 0.000000 0.000000 0.000000 0.000000 0.000000 0.000000 -4.354910 0.000000 0.000000 0.000000 0.000000 -21.774550 0.000000 0.000000 0.000000 0.000000 0.000000 0.000000 0.000000 0.000000 0.000000 0.000000 0.000000 21.774550 0.000000 0.000000 0.000000 0.000000 0.000000 0.000000 0.000000 0.000000 0.000000 0.000000 0.000000 -26.129461 0.000000 0.000000 -39.194191 0.000000 0.000000 0.000000 0.000000 0.000000 0.000000 0.000000 0.000000 26.129461 0.000000 0.000000 -39.194191 0.000000 0.000000 0.000000 0.000000 0.000000 0.000000 9.999500 0.000000 0.000000 9.582439 0.000000 0.000000 8.309407 0.000000 0.000000 6.294120 0.000000
0.000000 29.241665 -7.500000 0.000000 0.000000 0.000000 -2.843757 0.000000 0.000000 0.000000 0.000000 0.000000 0.000000 0.000000 0.000000 0.000000 0.000000 0.000000 0.000000 -4.074271 0.000000 0.000000 0.000000 0.000000 -20.371357 0.000000 0.000000 0.000000 0.000000 0.000000 0.000000 0.000000 0.000000 0.000000 0.000000 0.000000 20.371357 0.000000 0.000000 0.000000 0.000000 0.000000 0.000000 0.000000 0.000000 0.000000 0.000000 0.000000 -24.445629 0.000000 0.000000 -36.668443 0.000000 0.000000 0.000000 0.000000 0.000000 0.000000 0.000000 0.000000 24.445629 0.000000 0.000000 -36.668443 0.000000 0.000000 0.000000 0.000000 0.000000 0.000000 9.892033 0.000000 0.000000 9.017135 0.000000 0.000000 7.336764 0.000000 0.000000 5.001021 0.000000
0.000000 29.205258 -6.666667 0.000000 0.000000 0.000000 -2.980281 0.000000 0.000000 0.000000 0.000000 0.000000 0.000000 0.000000 0.000000 0.000000 0.000000 0.000000 0.000000 -3.748994 0.000000 0.000000 0.000000 0.000000 -18.744972 0.000000 0.000000 0.000000 0.000000 0.000000 0.000000 0.000000 0.000000 0.000000 0.000000 0.000000 18.744972 0.000000 0.000000 0.000000 0.000000 0.000000 0.000000 0.000000 0.000000 0.000000 0.000000 0.000000 -22.493966 0.000000 0.000000 -33.740949 0.000000 0.000000 0.000000 0.000000 0.000000 0.000000 0.000000 0.000000 22.493966 0.000000 0.000000 -33.740949 0.000000 0.000000 0.000000 0.000000 0.000000 0.000000 9.540991 0.000000 0.000000 8.229800 0.000000 0.000000 6.183465 0.000000 0.000000 3.584780 0.000000
0.000000 29.203586 -5.833333 0.000000 0.000000 0.000000 -2.986552 0.000000 0.000000 0.000000 0.000000 0.000000 0.000000 0.000000 0.000000 0.000000 0.000000 0.000000 0.000000 -3.382642 0.000000 0.000000 0.000000 0.000000 -16.913212 0.000000 0.000000 0.000000 0.000000 0.000000 0.000000 0.000000 0.000000 0.000000 0.000000 0.000000 16.913212 0.000000 0.000000 0.000000 0.000000 0.000000 0.000000 0.000000 0.000000 0.000000 0.000000 0.000000 -20.295854 0.000000 0.000000 -30.443781 0.000000 0.000000 0.000000 0.000000 0.000000 0.000000 0.000000 0.000000 20.295854 0.000000 0.000000 -30.443781 0.000000 0.000000 0.000000 0.000000 0.000000 0.000000 8.955018 0.000000 0.000000 7.239820 0.000000 0.000000 4.877909 0.000000 0.000000 2.080270 0.000000
0.000000 29.236721 -5.000000 0.000000 0.000000 0.000000 -2.862297 0.000000 0.000000 0.000000 0.000000 0.000000 0.000000 0.000000 0.000000 0.000000 0.000000 0.000000 0.000000 -2.979229 0.000000 0.000000 0.000000 0.000000 -14.896147 0.000000 0.000000 0.000000 0.000000 0.000000 0.000000 0.000000 0.000000 0.000000 0.000000 0.000000 14.896147 0.000000 0.000000 0.000000 0.000000 0.000000 0.000000 0.000000 0.000000 0.000000 0.000000 0.000000 -17.875377 0.000000 0.000000 -26.813065 0.000000 0.000000 0.000000 0.000000 0.000000 0.000000 0.000000 0.000000 17.875377 0.000000 0.000000 -26.813065 0.000000 0.000000 0.000000 0.000000 0.000000 0.000000 8.148543 0.000000 0.000000 6.071571 0.000000 0.000000 3.452243 0.000000 0.000000 0.524537 0.000000
0.000000 29.303214 -4.166667 0.000000 0.000000 0.000000 -2.612946 0.000000 0.000000 0.000000 0.000000 0.000000 0.000000 0.000000 0.000000 0.000000 0.000000 0.000000 0.000000 -2.543176 0.000000 0.000000 0.000000 0.000000 -12.715878 0.000000 0.000000 0.000000 0.000000 0.000000 0.000000 0.000000 0.000000 0.000000 0.000000 0.000000 12.715878 0.000000 0.000000 0.000000 0.000000 0.000000 0.000000 0.000000 0.000000 0.000000 0.000000 0.000000 -15.259053 0.000000 0.000000 -22.888580 0.000000 0.000000 0.000000 0.000000 0.000000 0.000000 0.000000 0.000000 15.259053 0.000000 0.000000 -22.888580 0.000000 0.000000 0.000000 0.000000 0.000000 0.000000 7.141424 0.000000 0.000000 4.753820 0.000000 0.000000 1.941571 0.000000 0.000000 -1.044112 0.000000
0.000000 29.400161 -3.333333 0.000000 0.000000 0.000000 -2.249397 0.000000 0.000000 0.000000 0.000000 0.000000 0.000000 0.000000 0.000000 0.000000 0.000000 0.000000 0.000000 -2.079258 0.000000 0.000000 0.000000 0.000000 -10.396290 0.000000 0.000000 0.000000 0.000000 0.000000 0.000000 0.000000 0.000000 0.000000 0.000000 0.000000 10.396290 0.000000 0.000000 0.000000 0.000000 0.000000 0.000000 0.000000 0.000000 0.000000 0.000000 0.000000 -12.475548 0.000000 0.000000 -18.713322 0.000000 0.000000 0.000000 0.000000 0.000000 0.000000 0.000000 0.000000 12.475548 0.000000 0.000000 -18.713322 0.000000 0.000000 0.000000 0.000000 0.000000 0.000000 5.958459 0.000000 0.000000 3.319014 0.000000 0.000000 0.383092 0.000000 0.000000 -2.587051 0.000000
0.000000 29.523323 -2.500000 0.000000 0.000000 0.000000 -1.787538 0.000000 0.000000 0.000000 0.000000 0.000000 0.000000 0.000000 0.000000 0.000000 0.000000 0.000000 0.000000 -1.592560 0.000000 0.000000 0.000000 0.000000 -7.962799 0.000000 0.000000 0.000000 0.000000 0.000000 0.000000 0.000000 0.000000 0.000000 0.000000 0.000000 7.962799 0.000000 0.000000 0.000000 0.000000 0.000000 0.000000 0.000000 0.000000 0.000000 0.000000 0.000000 -9.555359 0.000000 0.000000 -14.333038 0.000000 0.000000 0.000000 0.000000 0.000000 0.000000 0.000000 0.000000 9.555359 0.000000 0.000000 -14.333038 0.000000 0.000000 0.000000 0.000000 0.000000 0.000000 4.628777 0.000000 0.000000 1.802483 0.000000 0.000000 -1.184821 0.000000 0.000000 -4.066289 0.000000
0.000000 29.667319 -1.666667 0.000000 0.000000 0.000000 -1.247555 0.000000 0.000000 0.000000 0.000000 0.000000 0.000000 0.000000 0.000000 0.000000 0.000000 0.000000 0.000000 -1.088413 0.000000 0.000000 0.000000 0.000000 -5.442065 0.000000 0.000000 0.000000 0.000000 0.000000 0.000000 0.000000 0.000000 0.000000 0.000000 0.000000 5.442065 0.000000 0.000000 0.000000 0.000000 0.000000 0.000000 0.000000 0.000000 0.000000 0.000000 0.000000 -6.530478 0.000000 0.000000 -9.795717 0.000000 0.000000 0.000000 0.000000 0.000000 0.000000 0.000000 0.000000 6.530478 0.000000 0.000000 -9.795717 0.000000 0.000000 0.000000 0.000000 0.000000 0.000000 3.185120 0.000000 0.000000 0.241569 0.000000 0.000000 -2.723560 0.000000 0.000000 -5.445401 0.000000
0.000000 29.825854 -0.833333 0.000000 0.000000 0.000000 -0.653048 0.000000 0.000000 0.000000 0.000000 0.000000 0.000000 0.000000 0.000000 0.000000 0.000000 0.000000 0.000000 -0.572341 0.000000 0.000000 0.000000 0.000000 -2.861707 0.000000 0.000000 0.000000 0.000000 0.000000 0.000000 0.000000 0.000000 0.000000 0.000000 0.000000 2.861707 0.000000 0.000000 0.000000 0.000000 0.000000 0.000000 0.000000 0.000000 0.000000 0.000000 0.000000 -3.434049 0.000000 0.000000 -5.151073 0.000000 0.000000 0.000000 0.000000 0.000000 0.000000 0.000000 0.000000 3.434049 0.000000 0.000000 -5.151073 0.000000 0.000000 0.000000 0.000000 0.000000 0.000000 1.663034 0.000000 0.000000 -1.325293 0.000000 0.000000 -4.195235 0.000000 0.000000 -6.690430 0.000000
0.000000 29.992000 0.000000 0.000000 0.000000 0.000000 -0.030000 0.000000 0.000000 0.000000 0.000000 0.000000 0.000000 0.000000 0.000000 0.000000 0.000000 0.000000 0.000000 -0.049999 0.000000 0.000000 0.000000 0.000000 -0.249996 0.000000 0.000000 0.000000 0.000000 0.000000 0.000000 0.000000 0.000000 0.000000 0.000000 0.000000 0.249996 0.000000 0.000000 0.000000 0.000000 0.000000 0.000000 0.000000 0.000000 0.000000 0.000000 0.000000 -0.299995 0.000000 0.000000 -0.449993 0.000000 0.000000 0.000000 0.000000 0.000000 0.000000 0.000000 0.000000 0.299995 0.000000 0.000000 -0.449993 0.000000 0.000000 0.000000 0.000000 0.000000 0.000000 0.099998 0.000000 0.000000 -2.859522 0.000000 0.000000 -5.563610 0.000000 0.000000 -7.770717 0.000000
0.000000 30.158496 0.833333 0.000000 0.000000 0.000000 0.594360 0.000000 0.000000 0.000000 0.000000 0.000000 0.000000 0.000000 0.000000 0.000000 0.000000 0.000000 0.000000 0.472891 0.000000 0.000000 0.000000 0.000000 2.364455 0.000000 0.000000 0.000000 0.000000 0.000000 0.000000 0.000000 0.000000 0.000000 0.000000 0.000000 -2.364455 0.000000 0.000000 0.000000 0.000000 0.000000 0.000000 0.000000 0.000000 0.000000 0.000000 0.000000 2.837346 0.000000 0.000000 -4.256018 0.000000 0.000000 0.000000 0.000000 0.000000 0.000000 0.000000 0.000000 -2.837346 0.000000 0.000000 -4.256018 0.000000 0.000000 0.000000 0.000000 0.000000 0.000000 -1.465499 0.000000 0.000000 -4.323340 0.000000 0.000000 -6.794991 0.000000 0.000000 -8.659664 0.000000
0.000000 30.318065 1.666667 0.000000 0.000000 0.000000 1.192743 0.000000 0.000000 0.000000 0.000000 0.000000 0.000000 0.000000 0.000000 0.000000 0.000000 0.000000 0.000000 0.990600 0.000000 0.000000 0.000000 0.000000 4.953000 0.000000 0.000000 0.000000 0.000000 0.000000 0.000000 0.000000 0.000000 0.000000 0.000000 0.000000 -4.953000 0.000000 0.000000 0.000000 0.000000 0.000000 0.000000 0.000000 0.000000 0.000000 0.000000 0.000000 5.943599 0.000000 0.000000 -8.915399 0.000000 0.000000 0.000000 0.000000 0.000000 0.000000 0.000000 0.000000 -5.943599 0.000000 0.000000 -8.915399 0.000000 0.000000 0.000000 0.000000 0.000000 0.000000 -2.994911 0.000000 0.000000 -5.680704 0.000000 0.000000 -7.859056 0.000000 0.000000 -9.335382 0.000000
0.000000 30.463733 2.500000 0.000000 0.000000 0.000000 1.738997 0.000000 0.000000 0.000000 0.000000 0.000000 0.000000 0.000000 0.000000 0.000000 0.000000 0.000000 0.000000 1.497456 0.000000 0.000000 0.000000 0.000000 7.487278 0.000000 0.000000 0.000000 0.000000 0.000000 0.000000 0.000000 0.000000 0.000000 0.000000 0.000000 -7.487278 0.000000 0.000000 0.000000 0.000000 0.000000 0.000000 0.000000 0.000000 0.000000 0.000000 0.000000 8.984734 0.000000 0.000000 -13.477101 0.000000 0.000000 0.000000 0.000000 0.000000 0.000000 0.000000 0.000000 -8.984734 0.000000 0.000000 -13.477101 0.000000 0.000000 0.000000 0.000000 0.000000 0.000000 -4.450579 0.000000 0.000000 -6.898189 0.000000 0.000000 -8.729605 0.000000 0.000000 -9.781231 0.000000
0.000000 30.589133 3.333333 0.000000 0.000000 0.000000 2.209249 0.000000 0.000000 0.000000 0.000000 0.000000 0.000000 0.000000 0.000000 0.000000 0.000000 0.000000 0.000000 1.987905 0.000000 0.000000 0.000000 0.000000 9.939525 0.000000 0.000000 0.000000 0.000000 0.000000 0.000000 0.000000 0.000000 0.000000 0.000000 0.000000 -9.939525 0.000000 0.000000 0.000000 0.000000 0.000000 0.000000 0.000000 0.000000 0.000000 0.000000 0.000000 11.927430 0.000000 0.000000 -17.891145 0.000000 0.000000 0.000000 0.000000 0.000000 0.000000 0.000000 0.000000 -11.927430 0.000000 0.000000 -17.891145 0.000000 0.000000 0.000000 0.000000 0.000000 0.000000 -5.796658 0.000000 0.000000 -7.945818 0.000000 0.000000 -9.385202 0.000000 0.000000 -9.986234 0.000000
0.000000 30.688786 4.166667 0.000000 0.000000 0.000000 2.582947 0.000000 0.000000 0.000000 0.000000 0.000000 0.000000 0.000000 0.000000 0.000000 0.000000 0.000000 0.000000 2.456574 0.000000 0.000000 0.000000 0.000000 12.282872 0.000000 0.000000 0.000000 0.000000 0.000000 0.000000 0.000000 0.000000 0.000000 0.000000 0.000000 -12.282872 0.000000 0.000000 0.000000 0.000000 0.000000 0.000000 0.000000 0.000000 0.000000 0.000000 0.000000 14.739447 0.000000 0.000000 -22.109170 0.000000 0.000000 0.000000 0.000000 0.000000 0.000000 0.000000 0.000000 -14.739447 0.000000 0.000000 -22.109170 0.000000 0.000000 0.000000 0.000000 0.000000 0.000000 -7.000005 0.000000 0.000000 -8.797795 0.000000 0.000000 -9.809704 0.000000 0.000000 -9.945342 0.000000
0.000000 30.758335 5.000000 0.000000 0.000000 0.000000 2.843757 0.000000 0.000000 0.000000 0.000000 0.000000 0.000000 0.000000 0.000000 0.000000 0.000000 0.000000 0.000000 2.898329 0.000000 0.000000 0.000000 0.000000 14.491646 0.000000 0.000000 0.000000 0.000000 0.000000 0.000000 0.000000 0.000000 0.000000 0.000000 0.000000 -14.491646 0.000000 0.000000 0.000000 0.000000 0.000000 0.000000 0.000000 0.000000 0.000000 0.000000 0.000000 17.389975 0.000000 0.000000 -26.084962 0.000000 0.000000 0.000000 0.000000 0.000000 0.000000 0.000000 0.000000 -17.389975 0.000000 0.000000 -26.084962 0.000000 0.000000 0.000000 0.000000 0.000000 0.000000 -8.030988 0.000000 0.000000 -9.433141 0.000000 0.000000 -9.992659 0.000000 0.000000 -9.659563 0.000000
0.000000 30.794742 5.833333 0.000000 0.000000 0.000000 2.980281 0.000000 0.000000 0.000000 0.000000 0.000000 0.000000 0.000000 0.000000 0.000000 0.000000 0.000000 0.000000 3.308329 0.000000 0.000000 0.000000 0.000000 16.541646 0.000000 0.000000 0.000000 0.000000 0.000000 0.000000 0.000000 0.000000 0.000000 0.000000 0.000000 -16.541646 0.000000 0.000000 0.000000 0.000000 0.000000 0.000000 0.000000 0.000000 0.000000 0.000000 0.000000 19.849975 0.000000 0.000000 -29.774962 0.000000 0.000000 0.000000 0.000000 0.000000 0.000000 0.000000 0.000000 -19.849975 0.000000 0.000000 -29.774962 0.000000 0.000000 0.000000 0.000000 0.000000 0.000000 -8.864221 0.000000 0.000000 -9.836211 0.000000 0.000000 -9.929562 0.000000 0.000000 -9.135934 0.000000
0.000000 30.796414 6.666667 0.000000 0.000000 0.000000 2.986552 0.000000 0.000000 0.000000 0.000000 0.000000 0.000000 0.000000 0.000000 0.000000 0.000000 0.000000 0.000000 3.682082 0.000000 0.000000 0.000000 0.000000 18.410412 0.000000 0.000000 0.000000 0.000000 0.000000 0.000000 0.000000 0.000000 0.000000 0.000000 0.000000 -18.410412 0.000000 0.000000 0.000000 0.000000 0.000000 0.000000 0.000000 0.000000 0.000000 0.000000 0.000000 22.092494 0.000000 0.000000 -33.138741 0.000000 0.000000 0.000000 0.000000 0.000000 0.000000 0.000000 0.000000 -22.092494 0.000000 0.000000 -33.138741 0.000000 0.000000 0.000000 0.000000 0.000000 0.000000 -9.479188 0.000000 0.000000 -9.997082 0.000000 0.000000 -9.621966 0.000000 0.000000 -8.387348 0.000000
0.000000 30.763279 7.500000 0.000000 0.000000 0.000000 2.862297 0.000000 0.000000 0.000000 0.000000 0.000000 0.000000 0.000000 0.000000 0.000000 0.000000 0.000000 0.000000 4.015494 0.000000 0.000000 0.000000 0.000000 20.077470 0.000000 0.000000 0.000000 0.000000 0.000000 0.000000 0.000000 0.000000 0.000000 0.000000 0.000000 -20.077470 0.000000 0.000000 0.000000 0.000000 0.000000 0.000000 0.000000 0.000000 0.000000 0.000000 0.000000 24.092964 0.000000 0.000000 -36.139446 0.000000 0.000000 0.000000 0.000000 0.000000 0.000000 0.000000 0.000000 -24.092964 0.000000 0.000000 -36.139446 0.000000 0.000000 0.000000 0.000000 0.000000 0.000000 -9.860746 0.000000 0.000000 -9.911791 0.000000 0.000000 -9.077445 0.000000 0.000000 -7.432237 0.000000
0.000000 30.696786 8.333333 0.000000 0.000000 0.000000 2.612946 0.000000 0.000000 0.000000 0.000000 0.000000 0.000000 0.000000 0.000000 0.000000 0.000000 0.000000 0.000000 4.304911 0.000000 0.000000 0.000000 0.000000 21.524555 0.000000 0.000000 0.000000 0.000000 0.000000 0.000000 0.000000 0.000000 0.000000 0.000000 0.000000 -21.524555 0.000000 0.000000 0.000000 0.000000 0.000000 0.000000 0.000000 0.000000 0.000000 0.000000 0.000000 25.829466 0.000000 0.000000 -38.744198 0.000000 0.000000 0.000000 0.000000 0.000000 0.000000 0.000000 0.000000 -25.829466 0.000000 0.000000 -38.744198 0.000000 0.000000 0.000000 0.000000 0.000000 0.000000 -9.999500 0.000000 0.000000 -9.582439 0.000000 0.000000 -8.309407 0.000000 0.000000 -6.294120 0.000000
0.000000 30.599839 9.166667 0.000000 0.000000 0.000000 2.249397 0.000000 0.000000 0.000000 0.000000 0.000000 0.000000 0.000000 0.000000 0.000000 0.000000 0.000000 0.000000 4.547162 0.000000 0.000000 0.000000 0.000000 22.735812 0.000000 0.000000 0.000000 0.000000 0.000000 0.000000 0.000000 0.000000 0.000000 0.000000 0.000000 -22.735812 0.000000 0.000000 0.000000 0.000000 0.000000 0.000000 0.000000 0.000000 0.000000 0.000000 0.000000 27.282974 0.000000 0.000000 -40.924462 0.000000 0.000000 0.000000 0.000000 0.000000 0.000000 0.000000 0.000000 -27.282974 0.000000 0.000000 -40.924462 0.000000 0.000000 0.000000 0.000000 0.000000 0.000000 -9.892033 0.000000 0.000000 -9.017135 0.000000 0.000000 -7.336764 0.000000 0.000000 -5.001021 0.000000
0.000000 30.476677 10.000000 0.000000 0.000000 0.000000 1.787538 0.000000 0.000000 0.000000 0.000000 0.000000 0.000000 0.000000 0.000000 0.000000 0.000000 0.000000 0.000000 4.739594 0.000000 0.000000 0.000000 0.000000 23.697971 0.000000 0.000000 0.000000 0.000000 0.000000 0.000000 0.000000 0.000000 0.000000 0.000000 0.000000 -23.697971 0.000000 0.000000 0.000000 0.000000 0.000000 0.000000 0.000000 0.000000 0.000000 0.000000 0.000000 28.437565 0.000000 0.000000 -42.656348 0.000000 0.000000 0.000000 0.000000 0.000000 0.000000 0.000000 0.000000 -28.437565 0.000000 0.000000 -42.656348 0.000000 0.000000 0.000000 0.000000 0.000000 0.000000 -9.540991 0.000000 0.000000 -8.229800 0.000000 0.000000 -6.183465 0.000000 0.000000 -3.584780 0.000000
0.000000 30.332681 10.833333 0.000000 0.000000 0.000000 1.247555 0.000000 0.000000 0.000000 0.000000 0.000000 0.000000 0.000000 0.000000 0.000000 0.000000 0.000000 0.000000 4.880098 0.000000 0.000000 0.000000 0.000000 24.400490 0.000000 0.000000 0.000000 0.000000 0.000000 0.000000 0.000000 0.000000 0.000000 0.000000 0.000000 -24.400490 0.000000 0.000000 0.000000 0.000000 0.000000 0.000000 0.000000 0.000000 0.000000 0.000000 0.000000 29.280588 0.000000 0.000000 -43.920883 0.000000 0.000000 0.000000 0.000000 0.000000 0.000000 0.000000 0.000000 -29.280588 0.000000 0.000000 -43.920883 0.000000 0.000000 0.000000 0.000000 0.000000 0.000000 -8.955018 0.000000 0.000000 -7.239820 0.000000 0.000000 -4.877909 0.000000 0.000000 -2.080270 0.000000
0.000000 30.174146 11.666667 0.000000 0.000000 0.000000 0.653048 0.000000 0.000000 0.000000 0.000000 0.000000 0.000000 0.000000 0.000000 0.000000 0.000000 0.000000 0.000000 4.967135 0.000000 0.000000 0.000000 0.000000 24.835673 0.000000 0.000000 0.000000 0.000000 0.000000 0.000000 0.000000 0.000000 0.000000 0.000000 0.000000 -24.835673 0.000000 0.000000 0.000000 0.000000 0.000000 0.000000 0.000000 0.000000 0.000000 0.000000 0.000000 29.802807 0.000000 0.000000 -44.704211 0.000000 0.000000 0.000000 0.000000 0.000000 0.000000 0.000000 0.000000 -29.802807 0.000000 0.000000 -44.704211 0.000000 0.000000 0.000000 0.000000 0.000000 0.000000 -8.148543 0.000000 0.000000 -6.071571 0.000000 0.000000 -3.452243 0.000000 0.000000 -0.524537 0.000000
0.000000 30.008000 12.500000 0.000000 0.000000 0.000000 0.030000 0.000000 0.000000 0.000000 0.000000 0.000000 0.000000 0.000000 0.000000 0.000000 0.000000 0.000000 0.000000 4.999750 0.000000 0.000000 0.000000 0.000000 24.998750 0.000000 0.000000 0.000000 0.000000 0.000000 0.000000 0.000000 0.000000 0.000000 0.000000 0.000000 -24.998750 0.000000 0.000000 0.000000 0.000000 0.000000 0.000000 0.000000 0.000000 0.000000 0.000000 0.000000 29.998500 0.000000 0.000000 -44.997750 0.000000 0.000000 0.000000 0.000000 0.000000 0.000000 0.000000 0.000000 -29.998500 0.000000 0.000000 -44.997750 0.000000 0.000000 0.000000 0.000000 0.000000 0.000000 -7.141424 0.000000 0.000000 -4.753820 0.000000 0.000000 -1.941571 0.000000 0.000000 1.044112 0.000000
0.000000 29.841504 13.333333 0.000000 0.000000 0.000000 -0.594360 0.000000 0.000000 0.000000 0.000000 0.000000 0.000000 0.000000 0.000000 0.000000 0.000000 0.000000 0.000000 4.977587 0.000000 0.000000 0.000000 0.000000 24.887936 0.000000 0.000000 0.000000 0.000000 0.000000 0.000000 0.000000 0.000000 0.000000 0.000000 0.000000 -24.887936 0.000000 0.000000 0.000000 0.000000 0.000000 0.000000 0.000000 0.000000 0.000000 0.000000 0.000000 29.865523 0.000000 0.000000 -44.798285 0.000000 0.000000 0.000000 0.000000 0.000000 0.000000 0.000000 0.000000 -29.865523 0.000000 0.000000 -44.798285 0.000000 0.000000 0.000000 0.000000 0.000000 0.000000 -5.958459 0.000000 0.000000 -3.319014 0.000000 0.000000 -0.383092 0.000000 0.000000 2.587051 0.000000
0.000000 29.681935 14.166667 0.000000 0.000000 0.000000 -1.192743 0.000000 0.000000 0.000000 0.000000 0.000000 0.000000 0.000000 0.000000 0.000000 0.000000 0.000000 0.000000 4.900889 0.000000 0.000000 0.000000 0.000000 24.504444 0.000000 0.000000 0.000000 0.000000 0.000000 0.000000 0.000000 0.000000 0.000000 0.000000 0.000000 -24.504444 0.000000 0.000000 0.000000 0.000000 0.000000 0.000000 0.000000 0.000000 0.000000 0.000000 0.000000 29.405333 0.000000 0.000000 -44.108000 0.000000 0.000000 0.000000 0.000000 0.000000 0.000000 0.000000 0.000000 -29.405333 0.000000 0.000000 -44.108000 0.000000 0.000000 0.000000 0.000000 0.000000 0.000000 -4.628777 0.000000 0.000000 -1.802483 0.000000 0.000000 1.184821 0.000000 0.000000 4.066289 0.000000
0.000000 29.536267 15.000000 0.000000 0.000000 0.000000 -1.738997 0.000000 0.000000 0.000000 0.000000 0.000000 0.000000 0.000000 0.000000 0.000000 0.000000 0.000000 0.000000 4.770495 0.000000 0.000000 0.000000 0.000000 23.852477 0.000000 0.000000 0.000000 0.000000 0.000000 0.000000 0.000000 0.000000 0.000000 0.000000 0.000000 -23.852477 0.000000 0.000000 0.000000 0.000000 0.000000 0.000000 0.000000 0.000000 0.000000 0.000000 0.000000 28.622972 0.000000 0.000000 -42.934459 0.000000 0.000000 0.000000 0.000000 0.000000 0.000000 0.000000 0.000000 -28.622972 0.000000 0.000000 -42.934459 0.000000 0.000000 0.000000 0.000000 0.000000 0.000000 -3.185120 0.000000 0.000000 -0.241569 0.000000 0.000000 2.723560 0.000000 0.000000 5.445401 0.000000
0.000000 29.410867 15.833333 0.000000 0.000000 0.000000 -2.209249 0.000000 0.000000 0.000000 0.000000 0.000000 0.000000 0.000000 0.000000 0.000000 0.000000 0.000000 0.000000 4.587835 0.000000 0.000000 0.000000 0.000000 22.939177 0.000000 0.000000 0.000000 0.000000 0.000000 0.000000 0.000000 0.000000 0.000000 0.000000 0.000000 -22.939177 0.000000 0.000000 0.000000 0.000000 0.000000 0.000000 0.000000 0.000000 0.000000 0.000000 0.000000 27.527012 0.000000 0.000000 -41.290519 0.000000 0.000000 0.000000 0.000000 0.000000 0.000000 0.000000 0.000000 -27.527012 0.000000 0.000000 -41.290519 0.000000 0.000000 0.000000 0.000000 0.000000 0.000000 -1.663034 0.000000 0.000000 1.325293 0.000000 0.000000 4.195235 0.000000 0.000000 6.690430 0.000000
0.000000 29.311214 16.666667 0.000000 0.000000 0.000000 -2.582947 0.000000 0.000000 0.000000 0.000000 0.000000 0.000000 0.000000 0.000000 0.000000 0.000000 0.000000 0.000000 4.354910 0.000000 0.000000 0.000000 0.000000 21.774550 0.000000 0.000000 0.000000 0.000000 0.000000 0.000000 0.000000 0.000000 0.000000 0.000000 0.000000 -21.774550 0.000000 0.000000 0.000000 0.000000 0.000000 0.000000 0.000000 0.000000 0.000000 0.000000 0.000000 26.129461 0.000000 0.000000 -39.194191 0.000000 0.000000 0.000000 0.000000 0.000000 0.000000 0.000000 0.000000 -26.129461 0.000000 0.000000 -39.194191 0.000000 0.000000 0.000000 0.000000 0.000000 0.000000 -0.099998 0.000000 0.000000 2.859522 0.000000 0.000000 5.563610 0.000000 0.000000 7.770717 0.000000
0.000000 29.241665 17.500000 0.000000 0.000000 0.000000 -2.843757 0.000000 0.000000 0.000000 0.000000 0.000000 0.000000 0.000000 0.000000 0.000000 0.000000 0.000000 0.000000 4.074271 0.000000 0.000000 0.000000 0.000000 20.371357 0.000000 0.000000 0.000000 0.000000 0.000000 0.000000 0.000000 0.000000 0.000000 0.000000 0.000000 -20.371357 0.000000 0.000000 0.000000 0.000000 0.000000 0.000000 0.000000 0.000000 0.000000 0.000000 0.000000 24.445629 0.000000 0.000000 -36.668443 0.000000 0.000000 0.000000 0.000000 0.000000 0.000000 0.000000 0.000000 -24.445629 0.000000 0.000000 -36.668443 0.000000 0.000000 0.000000 0.000000 0.000000 0.000000 1.465499 0.000000 0.000000 4.323340 0.000000 0.000000 6.794991 0.000000 0.000000 8.659664 0.000000
0.000000 29.205258 18.333333 0.000000 0.000000 0.000000 -2.980281 0.000000 0.000000 0.000000 0.000000 0.000000 0.000000 0.000000 0.000000 0.000000 0.000000 0.000000 0.000000 3.748994 0.000000 0.000000 0.000000 0.000000 18.744972 0.000000 0.000000 0.000000 0.000000 0.000000 0.000000 0.000000 0.000000 0.000000 0.000000 0.000000 -18.744972 0.000000 0.000000 0.000000 0.000000 0.000000 0.000000 0.000000 0.000000 0.000000 0.000000 0.000000 22.493966 0.000000 0.000000 -33.740949 0.000000 0.000000 0.000000 0.000000 0.000000 0.000000 0.000000 0.000000 -22.493966 0.000000 0.000000 -33.740949 0.000000 0.000000 0.000000 0.000000 0.000000 0.000000 2.994911 0.000000 0.000000 5.680704 0.000000 0.000000 7.859056 0.000000 0.000000 9.335382 0.000000
0.000000 29.203586 19.166667 0.000000 0.000000 0.000000 -2.986552 0.000000 0.000000 0.000000 0.000000 0.000000 0.000000 0.000000 0.000000 0.000000 0.000000 0.000000 0.000000 3.382642 0.000000 0.000000 0.000000 0.000000 16.913212 0.000000 0.000000 0.000000 0.000000 0.000000 0.000000 0.000000 0.000000 0.000000 0.000000 0.000000 -16.913212 0.000000 0.000000 0.000000 0.000000 0.000000 0.000000 0.000000 0.000000 0.000000 0.000000 0.000000 20.295854 0.000000 0.000000 -30.443781 0.000000 0.000000 0.000000 0.000000 0.000000 0.000000 0.000000 0.000000 -20.295854 0.000000 0.000000 -30.443781 0.000000 0.000000 0.000000 0.000000 0.000000 0.000000 4.450579 0.000000 0.000000 6.898189 0.000000 0.000000 8.729605 0.000000 0.000000 9.781231 0.000000
0.000000 29.236721 20.000000 0.000000 0.000000 0.000000 -2.862297 0.000000 0.000000 0.000000 0.000000 0.000000 0.000000 0.000000 0.000000 0.000000 0.000000 0.000000 0.000000 2.979229 0.000000 0.000000 0.000000 0.000000 14.896147 0.000000 0.000000 0.000000 0.000000 0.000000 0.000000 0.000000 0.000000 0.000000 0.000000 0.000000 -14.896147 0.000000 0.000000 0.000000 0.000000 0.000000 0.000000 0.000000 0.000000 0.000000 0.000000 0.000000 17.875377 0.000000 0.000000 -26.813065 0.000000 0.000000 0.000000 0.000000 0.000000 0.000000 0.000000 0.000000 -17.875377 0.000000 0.000000 -26.813065 0.000000 0.000000 0.000000 0.000000 0.000000 0.000000 5.796658 0.000000 0.000000 7.945818 0.000000 0.000000 9.385202 0.000000 0.000000 9.986234 0.000000
0.000000 29.303214 20.833333 0.000000 0.000000 0.000000 -2.612946 0.000000 0.000000 0.000000 0.000000 0.000000 0.000000 0.000000 0.000000 0.000000 0.000000 0.000000 0.000000 2.543176 0.000000 0.000000 0.000000 0.000000 12.715878 0.000000 0.000000 0.000000 0.000000 0.000000 0.000000 0.000000 0.000000 0.000000 0.000000 0.000000 -12.715878 0.000000 0.000000 0.000000 0.000000 0.000000 0.000000 0.000000 0.000000 0.000000 0.000000 0.000000 15.259053 0.000000 0.000000 -22.888580 0.000000 0.000000 0.000000 0.000000 0.000000 0.000000 0.000000 0.000000 -15.259053 0.000000 0.000000 -22.888580 0.000000 0.000000 0.000000 0.000000 0.000000 0.000000 7.000005 0.000000 0.000000 8.797795 0.000000 0.000000 9.809704 0.000000 0.000000 9.945342 0.000000
0.000000 29.400161 21.666667 0.000000 0.000000 0.000000 -2.249397 0.000000 0.000000 0.000000 0.000000 0.000000 0.000000 0.000000 0.000000 0.000000 0.000000 0.000000 0.000000 2.079258 0.000000 0.000000 0.000000 0.000000 10.396290 0.000000 0.000000 0.000000 0.000000 0.000000 0.000000 0.000000 0.000000 0.000000 0.000000 0.000000 -10.396290 0.000000 0.000000 0.000000 0.000000 0.000000 0.000000 0.000000 0.000000 0.000000 0.000000 0.000000 12.475548 0.000000 0.000000 -18.713322 0.000000 0.000000 0.000000 0.000000 0.000000 0.000000 0.000000 0.000000 -12.475548 0.000000 0.000000 -18.713322 0.000000 0.000000 0.000000 0.000000 0.000000 0.000000 8.030988 0.000000 0.000000 9.433141 0.000000 0.000000 9.992659 0.000000 0.000000 9.659563 0.000000
0.000000 29.523323 22.500000 0.000000 0.000000 0.000000 -1.787538 0.000000 0.000000 0.000000 0.000000 0.000000 0.000000 0.000000 0.000000 0.000000 0.000000 0.000000 0.000000 1.592560 0.000000 0.000000 0.000000 0.000000 7.962799 0.000000 0.000000 0.000000 0.000000 0.000000 0.000000 0.000000 0.000000 0.000000 0.000000 0.000000 -7.962799 0.000000 0.000000 0.000000 0.000000 0.000000 0.000000 0.000000 0.000000 0.000000 0.000000 0.000000 9.555359 0.000000 0.000000 -14.333038 0.000000 0.000000 0.000000 0.000000 0.000000 0.000000 0.000000 0.000000 -9.555359 0.000000 0.000000 -14.333038 0.000000 0.000000 0.000000 0.000000 0.000000 0.000000 8.864221 0.000000 0.000000 9.836211 0.000000 0.000000 9.929562 0.000000 0.000000 9.135934 0.000000
0.000000 29.667319 23.333333 0.000000 0.000000 0.000000 -1.247555 0.000000 0.000000 0.000000 0.000000 0.000000 0.000000 0.000000 0.000000 0.000000 0.000000 0.000000 0.000000 1.088413 0.000000 0.000000 0.000000 0.000000 5.442065 0.000000 0.000000 0.000000 0.000000 0.000000 0.000000 0.000000 0.000000 0.000000 0.000000 0.000000 -5.442065 0.000000 0.000000 0.000000 0.000000 0.000000 0.000000 0.000000 0.000000 0.000000 0.000000 0.000000 6.530478 0.000000 0.000000 -9.795717 0.000000 0.000000 0.000000 0.000000 0.000000 0.000000 0.000000 0.000000 -6.530478 0.000000 0.000000 -9.795717 0.000000 0.000000 0.000000 0.000000 0.000000 0.000000 9.479188 0.000000 0.000000 9.997082 0.000000 0.000000 9.621966 0.000000 0.000000 8.387348 0.000000
0.000000 29.825854 24.166667 0.000000 0.000000 0.000000 -0.653048 0.000000 0.000000 0.000000 0.000000 0.000000 0.000000 0.000000 0.000000 0.000000 0.000000 0.000000 0.000000 0.572341 0.000000 0.000000 0.000000 0.000000 2.861707 0.000000 0.000000 0.000000 0.000000 0.000000 0.000000 0.000000 0.000000 0.000000 0.000000 0.000000 -2.861707 0.000000 0.000000 0.000000 0.000000 0.000000 0.000000 0.000000 0.000000 0.000000 0.000000 0.000000 3.434049 0.000000 0.000000 -5.151073 0.000000 0.000000 0.000000 0.000000 0.000000 0.000000 0.000000 0.000000 -3.434049 0.000000 0.000000 -5.151073 0.000000 0.000000 0.000000 0.000000 0.000000 0.000000 9.860746 0.000000 0.000000 9.911791 0.000000 0.000000 9.077445 0.000000 0.000000 7.432237 0.000000
0.000000 29.992000 25.000000 0.000000 0.000000 0.000000 -0.030000 0.000000 0.000000 0.000000 0.000000 0.000000 0.000000 0.000000 0.000000 0.000000 0.000000 0.000000 0.000000 0.049999 0.000000 0.000000 0.000000 0.000000 0.249996 0.000000 0.000000 0.000000 0.000000 0.000000 0.000000 0.000000 0.000000 0.000000 0.000000 0.000000 -0.249996 0.000000 0.000000 0.000000 0.000000 0.000000 0.000000 0.000000 0.000000 0.000000 0.000000 0.000000 0.299995 0.000000 0.000000 -0.449993 0.000000 0.000000 0.000000 0.000000 0.000000 0.000000 0.000000 0.000000 -0.299995 0.000000 0.000000 -0.449993 0.000000 0.000000 0.000000 0.000000 0.000000 0.000000 9.999500 0.000000 0.000000 9.582439 0.000000 0.000000 8.309407 0.000000 0.000000 6.294120 0.000000
0.000000 30.158496 25.833333 0.000000 0.000000 0.000000 0.594360 0.000000 0.000000 0.000000 0.000000 0.000000 0.000000 0.000000 0.000000 0.000000 0.000000 0.000000 0.000000 -0.472891 0.000000 0.000000 0.000000 0.000000 -2.364455 0.000000 0.000000 0.000000 0.000000 0.000000 0.000000 0.000000 0.000000 0.000000 0.000000 0.000000 2.364455 0.000000 0.000000 0.000000 0.000000 0.000000 0.000000 0.000000 0.000000 0.000000 0.000000 0.000000 -2.837346 0.000000 0.000000 -4.256018 0.000000 0.000000 0.000000 0.000000 0.000000 0.000000 0.000000 0.000000 2.837346 0.000000 0.000000 -4.256018 0.000000 0.000000 0.000000 0.000000 0.000000 0.000000 9.892033 0.000000 0.000000 9.017135 0.000000 0.000000 7.336764 0.000000 0.000000 5.001021 0.000000
0.000000 30.318065 26.666667 0.000000 0.000000 0.000000 1.192743 0.000000 0.000000 0.000000 0.000000 0.000000 0.000000 0.000000 0.000000 0.000000 0.000000 0.000000 0.000000 -0.990600 0.000000 0.000000 0.000000 0.000000 -4.953000 0.000000 0.000000 0.000000 0.000000 0.000000 0.000000 0.000000 0.000000 0.000000 0.000000 0.000000 4.953000 0.000000 0.000000 0.000000 0.000000 0.000000 0.000000 0.000000 0.000000 0.000000 0.000000 0.000000 -5.943599 0.000000 0.000000 -8.915399 0.000000 0.000000 0.000000 0.000000 0.000000 0.000000 0.000000 0.000000 5.943599 0.000000 0.000000 -8.915399 0.000000 0.000000 0.000000 0.000000 0.000000 0.000000 9.540991 0.000000 0.000000 8.229800 0.000000 0.000000 6.183465 0.000000 0.000000 3.584780 0.000000
0.000000 30.463733 27.500000 0.000000 0.000000 0.000000 1.738997 0.000000 0.000000 0.000000 0.000000 0.000000 0.000000 0.000000 0.000000 0.000000 0.000000 0.000000 0.000000 -1.497456 0.000000 0.000000 0.000000 0.000000 -7.487278 0.000000 0.000000 0.000000 0.000000 0.000000 0.000000 0.000000 0.000000 0.000000 0.000000 0.000000 7.487278 0.000000 0.000000 0.000000 0.000000 0.000000 0.000000 0.000000 0.000000 0.000000 0.000000 0.000000 -8.984734 0.000000 0.000000 -13.477101 0.000000 0.000000 0.000000 0.000000 0.000000 0.000000 0.000000 0.000000 8.984734 0.000000 0.000000 -13.477101 0.000000 0.000000 0.000000 0.000000 0.000000 0.000000 8.955018 0.000000 0.000000 7.239820 0.000000 0.000000 4.877909 0.000000 0.000000 2.080270 0.000000
0.000000 30.589133 28.333333 0.000000 0.000000 0.000000 2.209249 0.000000 0.000000 0.000000 0.000000 0.000000 0.000000 0.000000 0.000000 0.000000 0.000000 0.000000 0.000000 -1.987905 0.000000 0.000000 0.000000 0.000000 -9.939525 0.000000 0.000000 0.000000 0.000000 0.000000 0.000000 0.000000 0.000000 0.000000 0.000000 0.000000 9.939525 0.000000 0.000000 0.000000 0.000000 0.000000 0.000000 0.000000 0.000000 0.000000 0.000000 0.000000 -11.927430 0.000000 0.000000 -17.891145 0.000000 0.000000 0.000000 0.000000 0.000000 0.000000 0.000000 0.000000 11.927430 0.000000 0.000000 -17.891145 0.000000 0.000000 0.000000 0.000000 0.000000 0.000000 8.148543 0.000000 0.000000 6.071571 0.000000 0.000000 3.452243 0.000000 0.000000 0.524537 0.000000
0.000000 30.688786 29.166667 0.000000 0.000000 0.000000 2.582947 0.000000 0.000000 0.000000 0.000000 0.000000 0.000000 0.000000 0.000000 0.000000 0.000000 0.000000 0.000000 -2.456574 0.000000 0.000000 0.000000 0.000000 -12.282872 0.000000 0.000000 0.000000 0.000000 0.000000 0.000000 0.000000 0.000000 0.000000 0.000000 0.000000 12.282872 0.000000 0.000000 0.000000 0.000000 0.000000 0.000000 0.000000 0.000000 0.000000 0.000000 0.000000 -14.739447 0.000000 0.000000 -22.109170 0.000000 0.000000 0.000000 0.000000 0.000000 0.000000 0.000000 0.000000 14.739447 0.000000 0.000000 -22.109170 0.000000 0.000000 0.000000 0.000000 0.000000 0.000000 7.141424 0.000000 0.000000 4.753820 0.000000 0.000000 1.941571 0.000000 0.000000 -1.044112 0.000000
0.000000 30.758335 30.000000 0.000000 0.000000 0.000000 2.843757 0.000000 0.000000 0.000000 0.000000 0.000000 0.000000 0.000000 0.000000 0.000000 0.000000 0.000000 0.000000 -2.898329 0.000000 0.000000 0.000000 0.000000 -14.491646 0.000000 0.000000 0.000000 0.000000 0.000000 0.000000 0.000000 0.000000 0.000000 0.000000 0.000000 14.491646 0.000000 0.000000 0.000000 0.000000 0.000000 0.000000 0.000000 0.000000 0.000000 0.000000 0.000000 -17.389975 0.000000 0.000000 -26.084962 0.000000 0.000000 0.000000 0.000000 0.000000 0.000000 0.000000 0.000000 17.389975 0.000000 0.000000 -26.084962 0.000000 0.000000 0.000000 0.000000 0.000000 0.000000 5.958459 0.000000 0.000000 3.319014 0.000000 0.000000 0.383092 0.000000 0.000000 -2.587051 0.000000
0.000000 30.794742 30.833333 0.000000 0.000000 0.000000 2.980281 0.000000 0.000000 0.000000 0.000000 0.000000 0.000000 0.000000 0.000000 0.000000 0.000000 0.000000 0.000000 -3.308329 0.000000 0.000000 0.000000 0.000000 -16.541646 0.000000 0.000000 0.000000 0.000000 0.000000 0.000000 0.000000 0.000000 0.000000 0.000000 0.000000 16.541646 0.000000 0.000000 0.000000 0.000000 0.000000 0.000000 0.000000 0.000000 0.000000 0.000000 0.000000 -19.849975 0.000000 0.000000 -29.774962 0.000000 0.000000 0.000000 0.000000 0.000000 0.000000 0.000000 0.000000 19.849975 0.000000 0.000000 -29.774962 0.000000 0.000000 0.000000 0.000000 0.000000 0.000000 4.628777 0.000000 0.000000 1.802483 0.000000 0.000000 -1.184821 0.000000 0.000000 -4.066289 0.000000
0.000000 30.796414 31.666667 0.000000 0.000000 0.000000 2.986552 0.000000 0.000000 0.000000 0.000000 0.000000 0.000000 0.000000 0.000000 0.000000 0.000000 0.000000 0.000000 -3.682082 0.000000 0.000000 0.000000 0.000000 -18.410412 0.000000 0.000000 0.000000 0.000000 0.000000 0.000000 0.000000 0.000000 0.000000 0.000000 0.000000 18.410412 0.000000 0.000000 0.000000 0.000000 0.000000 0.000000 0.000000 0.000000 0.000000 0.000000 0.000000 -22.092494 0.000000 0.000000 -33.138741 0.000000 0.000000 0.000000 0.000000 0.000000 0.000000 0.000000 0.000000 22.092494 0.000000 0.000000 -33.138741 0.000000 0.000000 0.000000 0.000000 0.000000 0.000000 3.185120 0.000000 0.000000 0.241569 0.000000 0.000000 -2.723560 0.000000 0.000000 -5.445401 0.000000
0.000000 30.763279 32.500000 0.000000 0.000000 0.000000 2.862297 0.000000 0.000000 0.000000 0.000000 0.000000 0.000000 0.000000 0.000000 0.000000 0.000000 0.000000 0.000000 -4.015494 0.000000 0.000000 0.000000 0.000000 -20.077470 0.000000 0.000000 0.000000 0.000000 0.000000 0.000000 0.000000 0.000000 0.000000 0.000000 0.000000 20.077470 0.000000 0.000000 0.000000 0.000000 0.000000 0.000000 0.000000 0.000000 0.000000 0.000000 0.000000 -24.092964 0.000000 0.000000 -36.139446 0.000000 0.000000 0.000000 0.000000 0.000000 0.000000 0.000000 0.000000 24.092964 0.000000 0.000000 -36.139446 0.000000 0.000000 0.000000 0.000000 0.000000 0.000000 1.663034 0.000000 0.000000 -1.325293 0.000000 0.000000 -4.195235 0.000000 0.000000 -6.690430 0.000000
0.000000 30.696786 33.333333 0.000000 0.000000 0.000000 2.612946 0.000000 0.000000 0.000000 0.000000 0.000000 0.000000 0.000000 0.000000 0.000000 0.000000 0.000000 0.000000 -4.304911 0.000000 0.000000 0.000000 0.000000 -21.524555 0.000000 0.000000 0.000000 0.000000 0.000000 0.000000 0.000000 0.000000 0.000000 0.000000 0.000000 21.524555 0.000000 0.000000 0.000000 0.000000 0.000000 0.000000 0.000000 0.000000 0.000000 0.000000 0.000000 -25.829466 0.000000 0.000000 -38.744198 0.000000 0.000000 0.000000 0.000000 0.000000 0.000000 0.000000 0.000000 25.829466 0.000000 0.000000 -38.744198 0.000000 0.000000 0.000000 0.000000 0.000000 0.000000 0.099998 0.000000 0.000000 -2.859522 0.000000 0.000000 -5.563610 0.000000 0.000000 -7.770717 0.000000
0.000000 30.599839 34.166667 0.000000 0.000000 0.000000 2.249397 0.000000 0.000000 0.000000 0.000000 0.000000 0.000000 0.000000 0.000000 0.000000 0.000000 0.000000 0.000000 -4.547162 0.000000 0.000000 0.000000 0.000000 -22.735812 0.000000 0.000000 0.000000 0.000000 0.000000 0.000000 0.000000 0.000000 0.000000 0.000000 0.000000 22.735812 0.000000 0.000000 0.000000 0.000000 0.000000 0.000000 0.000000 0.000000 0.000000 0.000000 0.000000 -27.282974 0.000000 0.000000 -40.924462 0.000000 0.000000 0.000000 0.000000 0.000000 0.000000 0.000000 0.000000 27.282974 0.000000 0.000000 -40.924462 0.000000 0.000000 0.000000 0.000000 0.000000 0.000000 -1.465499 0.000000 0.000000 -4.323340 0.000000 0.000000 -6.794991 0.000000 0.000000 -8.659664 0.000000
0.000000 30.476677 35.000000 0.000000 0.000000 0.000000 1.787538 0.000000 0.000000 0.000000 0.000000 0.000000 0.000000 0.000000 0.000000 0.000000 0.000000 0.000000 0.000000 -4.739594 0.000000 0.000000 0.000000 0.000000 -23.697971 0.000000 0.000000 0.000000 0.000000 0.000000 0.000000 0.000000 0.000000 0.000000 0.000000 0.000000 23.697971 0.000000 0.000000 0.000000 0.000000 0.000000 0.000000 0.000000 0.000000 0.000000 0.000000 0.000000 -28.437565 0.000000 0.000000 -42.656348 0.000000 0.000000 0.000000 0.000000 0.000000 0.000000 0.000000 0.000000 28.437565 0.000000 0.000000 -42.656348 0.000000 0.000000 0.000000 0.000000 0.000000 0.000000 -2.994911 0.000000 0.000000 -5.680704 0.000000 0.000000 -7.859056 0.000000 0.000000 -9.335382 0.000000
0.000000 30.332681 35.833333 0.000000 0.000000 0.000000 1.247555 0.000000 0.000000 0.000000 0.000000 0.000000 0.000000 0.000000 0.000000 0.000000 0.000000 0.000000 0.000000 -4.880098 0.000000 0.000000 0.000000 0.000000 -24.400490 0.000000 0.000000 0.000000 0.000000 0.000000 0.000000 0.000000 0.000000 0.000000 0.000000 0.000000 24.400490 0.000000 0.000000 0.000000 0.000000 0.000000 0.000000 0.000000 0.000000 0.000000 0.000000 0.000000 -29.280588 0.000000 0.000000 -43.920883 0.000000 0.000000 0.000000 0.000000 0.000000 0.000000 0.000000 0.000000 29.280588 0.000000 0.000000 -43.920883 0.000000 0.000000 0.000000 0.000000 0.000000 0.000000 -4.450579 0.000000 0.000000 -6.898189 0.000000 0.000000 -8.729605 0.000000 0.000000 -9.781231 0.000000
0.000000 30.174146 36.666667 0.000000 0.000000 0.000000 0.653048 0.000000 0.000000 0.000000 0.000000 0.000000 0.000000 0.000000 0.000000 0.000000 0.000000 0.000000 0.000000 -4.967135 0.000000 0.000000 0.000000 0.000000 -24.835673 0.000000 0.000000 0.000000 0.000000 0.000000 0.000000 0.000000 0.000000 0.000000 0.000000 0.000000 24.835673 0.000000 0.000000 0.000000 0.000000 0.000000 0.000000 0.000000 0.000000 0.000000 0.000000 0.000000 -29.802807 0.000000 0.000000 -44.704211 0.000000 0.000000 0.000000 0.000000 0.000000 0.000000 0.000000 0.000000 29.802807 0.000000 0.000000 -44.704211 0.000000 0.000000 0.000000 0.000000 0.000000 0.000000 -5.796658 0.000000 0.000000 -7.945818 0.000000 0.000000 -9.385202 0.000000 0.000000 -9.986234 0.000000
0.000000 30.008000 37.500000 0.000000 0.000000 0.000000 0.030000 0.000000 0.000000 0.000000 0.000000 0.000000 0.000000 0.000000 0.000000 0.000000 0.000000 0.000000 0.000000 -4.999750 0.000000 0.000000 0.000000 0.000000 -24.998750 0.000000 0.000000 0.000000 0.000000 0.000000 0.000000 0.000000 0.000000 0.000000 0.000000 0.000000 24.998750 0.000000 0.000000 0.000000 0.000000 0.000000 0.000000 0.000000 0.000000 0.000000 0.000000 0.000000 -29.998500 0.000000 0.000000 -44.997750 0.000000 0.000000 0.000000 0.000000 0.000000 0.000000 0.000000 0.000000 29.998500 0.000000 0.000000 -44.997750 0.000000 0.000000 0.000000 0.000000 0.000000 0.000000 -7.000005 0.000000 0.000000 -8.797795 0.000000 0.000000 -9.809704 0.000000 0.000000 -9.945342 0.000000
0.000000 29.841504 38.333333 0.000000 0.000000 0.000000 -0.594360 0.000000 0.000000 0.000000 0.000000 0.000000 0.000000 0.000000 0.000000 0.000000 0.000000 0.000000 0.000000 -4.977587 0.000000 0.000000 0.000000 0.000000 -24.887936 0.000000 0.000000 0.000000 0.000000 0.000000 0.000000 0.000000 0.000000 0.000000 0.000000 0.000000 24.887936 0.000000 0.000000 0.000000 0.000000 0.000000 0.000000 0.000000 0.000000 0.000000 0.000000 0.000000 -29.865523 0.000000 0.000000 -44.798285 0.000000 0.000000 0.000000 0.000000 0.000000 0.000000 0.000000 0.000000 29.865523 0.000000 0.000000 -44.798285 0.000000 0.000000 0.000000 0.000000 0.000000 0.000000 -8.030988 0.000000 0.000000 -9.433141 0.000000 0.000000 -9.992659 0.000000 0.000000 -9.659563 0.000000
0.000000 29.681935 39.166667 0.000000 0.000000 0.000000 -1.192743 0.000000 0.000000 0.000000 0.000000 0.000000 0.000000 0.000000 0.000000 0.000000 0.000000 0.000000 0.000000 -4.900889 0.000000 0.000000 0.000000 0.000000 -24.504444 0.000000 0.000000 0.000000 0.000000 0.000000 0.000000 0.000000 0.000000 0.000000 0.000000 0.000000 24.504444 0.000000 0.000000 0.000000 0.000000 0.000000 0.000000 0.000000 0.000000 0.000000 0.000000 0.000000 -29.405333 0.000000 0.000000 -44.108000 0.000000 0.000000 0.000000 0.000000 0.000000 0.000000 0.000000 0.000000 29.405333 0.000000 0.000000 -44.108000 0.000000 0.000000 0.000000 0.000000 0.000000 0.000000 -8.864221 0.000000 0.000000 -9.836211 0.000000 0.000000 -9.929562 0.000000 0.000000 -9.135934 0.000000
0.000000 29.536267 40.000000 0.000000 0.000000 0.000000 -1.738997 0.000000 0.000000 0.000000 0.000000 0.000000 0.000000 0.000000 0.000000 0.000000 0.000000 0.000000 0.000000 -4.770495 0.000000 0.000000 0.000000 0.000000 -23.852477 0.000000 0.000000 0.000000 0.000000 0.000000 0.000000 0.000000 0.000000 0.000000 0.000000 0.000000 23.852477 0.000000 0.000000 0.000000 0.000000 0.000000 0.000000 0.000000 0.000000 0.000000 0.000000 0.000000 -28.622972 0.000000 0.000000 -42.934459 0.000000 0.000000 0.000000 0.000000 0.000000 0.000000 0.000000 0.000000 28.622972 0.000000 0.000000 -42.934459 0.000000 0.000000 0.000000 0.000000 0.000000 0.000000 -9.479188 0.000000 0.000000 -9.997082 0.000000 0.000000 -9.621966 0.000000 0.000000 -8.387348 0.000000
0.000000 29.410867 40.833333 0.000000 0.000000 0.000000 -2.209249 0.000000 0.000000 0.000000 0.000000 0.000000 0.000000 0.000000 0.000000 0.000000 0.000000 0.000000 0.000000 -4.587835 0.000000 0.000000 0.000000 0.000000 -22.939177 0.000000 0.000000 0.000000 0.000000 0.000000 0.000000 0.000000 0.000000 0.000000 0.000000 0.000000 22.939177 0.000000 0.000000 0.000000 0.000000 0.000000 0.000000 0.000000 0.000000 0.000000 0.000000 0.000000 -27.527012 0.000000 0.000000 -41.290519 0.000000 0.000000 0.000000 0.000000 0.000000 0.000000 0.000000 0.000000 27.527012 0.000000 0.000000 -41.290519 0.000000 0.000000 0.000000 0.000000 0.000000 0.000000 -9.860746 0.000000 0.000000 -9.911791 0.000000 0.000000 -9.077445 0.000000 0.000000 -7.432237 0.000000
0.000000 29.311214 41.666667 0.000000 0.000000 0.000000 -2.582947 0.000000 0.000000 0.000000 0.000000 0.000000 0.000000 0.000000 0.000000 0.000000 0.000000 0.000000 0.000000 -4.354910 0.000000 0.000000 0.000000 0.000000 -21.774550 0.000000 0.000000 0.000000 0.000000 0.000000 0.000000 0.000000 0.000000 0.000000 0.000000 0.000000 21.774550 0.000000 0.000000 0.000000 0.000000 0.000000 0.000000 0.000000 0.000000 0.000000 0.000000 0.000000 -26.129461 0.000000 0.000000 -39.194191 0.000000 0.000000 0.000000 0.000000 0.000000 0.000000 0.000000 0.000000 26.129461 0.000000 0.000000 -39.194191 0.000000 0.000000 0.000000 0.000000 0.000000 0.000000 -9.999500 0.000000 0.000000 -9.582439 0.000000 0.000000 -8.309407 0.000000 0.000000 -6.294120 0.000000
0.000000 29.241665 42.500000 0.000000 0.000000 0.000000 -2.843757 0.000000 0.000000 0.000000 0.000000 0.000000 0.000000 0.000000 0.000000 0.000000 0.000000 0.000000 0.000000 -4.074271 0.000000 0.000000 0.000000 0.000000 -20.371357 0.000000 0.000000 0.000000 0.000000 0.000000 0.000000 0.000000 0.000000 0.000000 0.000000 0.000000 20.371357 0.000000 0.000000 0.000000 0.000000 0.000000 0.000000 0.000000 0.000000 0.000000 0.000000 0.000000 -24.445629 0.000000 0.000000 -36.668443 0.000000 0.000000 0.000000 0.000000 0.000000 0.000000 0.000000 0.000000 24.445629 0.000000 0.000000 -36.668443 0.000000 0.000000 0.000000 0.000000 0.000000 0.000000 -9.892033 0.000000 0.000000 -9.017135 0.000000 0.000000 -7.336764 0.000000 0.000000 -5.001021 0.000000
0.000000 29.205258 43.333333 0.000000 0.000000 0.000000 -2.980281 0.000000 0.000000 0.000000 0.000000 0.000000 0.000000 0.000000 0.000000 0.000000 0.000000 0.000000 0.000000 -3.748994 0.000000 0.000000 0.000000 0.000000 -18.744972 0.000000 0.000000 0.000000 0.000000 0.000000 0.000000 0.000000 0.000000 0.000000 0.000000 0.000000 18.744972 0.000000 0.000000 0.000000 0.000000 0.000000 0.000000 0.000000 0.000000 0.000000 0.000000 0.000000 -22.493966 0.000000 0.000000 -33.740949 0.000000 0.000000 0.000000 0.000000 0.000000 0.000000 0.000000 0.000000 22.493966 0.000000 0.000000 -33.740949 0.000000 0.000000 0.000000 0.000000 0.000000 0.000000 -9.540991 0.000000 0.000000 -8.229800 0.000000 0.000000 -6.183465 0.000000 0.000000 -3.584780 0.000000
0.000000 29.203586 44.166667 0.000000 0.000000 0.000000 -2.986552 0.000000 0.000000 0.000000 0.000000 0.000000 0.000000 0.000000 0.000000 0.000000 0.000000 0.000000 0.000000 -3.382642 0.000000 0.000000 0.000000 0.000000 -16.913212 0.000000 0.000000 0.000000 0.000000 0.000000 0.000000 0.000000 0.000000 0.000000 0.000000 0.000000 16.913212 0.000000 0.000000 0.000000 0.000000 0.000000 0.000000 0.000000 0.000000 0.000000 0.000000 0.000000 -20.295854 0.000000 0.000000 -30.443781 0.000000 0.000000 0.000000 0.000000 0.000000 0.000000 0.000000 0.000000 20.295854 0.000000 0.000000 -30.443781 0.000000 0.000000 0.000000 0.000000 0.000000 0.000000 -8.955018 0.000000 0.000000 -7.239820 0.000000 0.000000 -4.877909 0.000000 0.000000 -2.080270 0.000000
0.000000 29.236721 45.000000 0.000000 0.000000 0.000000 -2.862297 0.000000 0.000000 0.000000 0.000000 0.000000 0.000000 0.000000 0.000000 0.000000 0.000000 0.000000 0.000000 -2.979229 0.000000 0.000000 0.000000 0.000000 -14.896147 0.000000 0.000000 0.000000 0.000000 0.000000 0.000000 0.000000 0.000000 0.000000 0.000000 0.000000 14.896147 0.000000 0.000000 0.000000 0.000000 0.000000 0.000000 0.000000 0.000000 0.000000 0.000000 0.000000 -17.875377 0.000000 0.000000 -26.813065 0.000000 0.000000 0.000000 0.000000 0.000000 0.000000 0.000000 0.000000 17.875377 0.000000 0.000000 -26.813065 0.000000 0.000000 0.000000 0.000000 0.000000 0.000000 -8.148543 0.000000 0.000000 -6.071571 0.000000 0.000000 -3.452243 0.000000 0.000000 -0.524537 0.000000
0.000000 29.303214 45.833333 0.000000 0.000000 0.000000 -2.612946 0.000000 0.000000 0.000000 0.000000 0.000000 0.000000 0.000000 0.000000 0.000000 0.000000 0.000000 0.000000 -2.543176 0.000000 0.000000 0.000000 0.000000 -12.715878 0.000000 0.000000 0.000000 0.000000 0.000000 0.000000 0.000000 0.000000 0.000000 0.000000 0.000000 12.715878 0.000000 0.000000 0.000000 0.000000 0.000000 0.000000 0.000000 0.000000 0.000000 0.000000 0.000000 -15.259053 0.000000 0.000000 -22.888580 0.000000 0.000000 0.000000 0.000000 0.000000 0.000000 0.000000 0.000000 15.259053 0.000000 0.000000 -22.888580 0.000000 0.000000 0.000000 0.000000 0.000000 0.000000 -7.141424 0.000000 0.000000 -4.753820 0.000000 0.000000 -1.941571 0.000000 0.000000 1.044112 0.000000
0.000000 29.400161 46.666667 0.000000 0.000000 0.000000 -2.249397 0.000000 0.000000 0.000000 0.000000 0.000000 0.000000 0.000000 0.000000 0.000000 0.000000 0.000000 0.000000 -2.079258 0.000000 0.000000 0.000000 0.000000 -10.396290 0.000000 0.000000 0.000000 0.000000 0.000000 0.000000 0.000000 0.000000 0.000000 0.000000 0.000000 10.396290 0.000000 0.000000 0.000000 0.000000 0.000000 0.000000 0.000000 0.000000 0.000000 0.000000 0.000000 -12.475548 0.000000 0.000000 -18.713322 0.000000 0.000000 0.000000 0.000000 0.000000 0.000000 0.000000 0.000000 12.475548 0.000000 0.000000 -18.713322 0.000000 0.000000 0.000000 0.000000 0.000000 0.000000 -5.958459 0.000000 0.000000 -3.319014 0.000000 0.000000 -0.383092 0.000000 0.000000 2.587051 0.000000
0.000000 29.523323 47.500000 0.000000 0.000000 0.000000 -1.787538 0.000000 0.000000 0.000000 0.000000 0.000000 0.000000 0.000000 0.000000 0.000000 0.000000 0.000000 0.000000 -1.592560 0.000000 0.000000 0.000000 0.000000 -7.962799 0.000000 0.000000 0.000000 0.000000 0.000000 0.000000 0.000000 0.000000 0.000000 0.000000 0.000000 7.962799 0.000000 0.000000 0.000000 0.000000 0.000000 0.000000 0.000000 0.000000 0.000000 0.000000 0.000000 -9.555359 0.000000 0.000000 -14.333038 0.000000 0.000000 0.000000 0.000000 0.000000 0.000000 0.000000 0.000000 9.555359 0.000000 0.000000 -14.333038 0.000000 0.000000 0.000000 0.000000 0.000000 0.000000 -4.628777 0.000000 0.000000 -1.802483 0.000000 0.000000 1.184821 0.000000 0.000000 4.066289 0.000000
0.000000 29.667319 48.333333 0.000000 0.000000 0.000000 -1.247555 0.000000 0.000000 0.000000 0.000000 0.000000 0.000000 0.000000 0.000000 0.000000 0.000000 0.000000 0.000000 -1.088413 0.000000 0.000000 0.000000 0.000000 -5.442065 0.000000 0.000000 0.000000 0.000000 0.000000 0.000000 0.000000 0.000000 0.000000 0.000000 0.000000 5.442065 0.000000 0.000000 0.000000 0.000000 0.000000 0.000000 0.000000 0.000000 0.000000 0.000000 0.000000 -6.530478 0.000000 0.000000 -9.795717 0.000000 0.000000 0.000000 0.000000 0.000000 0.000000 0.000000 0.000000 6.530478 0.000000 0.000000 -9.795717 0.000000 0.000000 0.000000 0.000000 0.000000 0.000000 -3.185120 0.000000 0.000000 -0.241569 0.000000 0.000000 2.723560 0.000000 0.000000 5.445401 0.000000
0.000000 29.825854 49.166667 0.000000 0.000000 0.000000 -0.653048 0.000000 0.000000 0.000000 0.000000 0.000000 0.000000 0.000000 0.000000 0.000000 0.000000 0.000000 0.000000 -0.572341 0.000000 0.000000 0.000000 0.000000 -2.861707 0.000000 0.000000 0.000000 0.000000 0.000000 0.000000 0.000000 0.000000 0.000000 0.000000 0.000000 2.861707 0.000000 0.000000 0.000000 0.000000 0.000000 0.000000 0.000000 0.000000 0.000000 0.000000 0.000000 -3.434049 0.000000 0.000000 -5.151073 0.000000 0.000000 0.000000 0.000000 0.000000 0.000000 0.000000 0.000000 3.434049 0.000000 0.000000 -5.151073 0.000000 0.000000 0.000000 0.000000 0.000000 0.000000 -1.663034 0.000000 0.000000 1.325293 0.000000 0.000000 4.195235 0.000000 0.000000 6.690430 0.000000
